name,ribbonType,latitude,longitude,address,phone
테라로사커피공장,RIBBON_TWO,37.6964984768682,128.892026509635,강원특별자치도 강릉시 구정면 현천길 7 ,033-648-2760  
철원막국수,RIBBON_TWO,38.146044,127.308652,강원특별자치도 철원군 갈말읍 명성로158번길 13 ,033-452-2589  
유포리막국수,RIBBON_TWO,37.946162,127.778341,강원특별자치도 춘천시 신북읍 맥국2길 123 ,033-242-5168  
원조숯불닭불고기집,RIBBON_TWO,37.8787,127.725366,강원특별자치도 춘천시 낙원길 28-4 ,033-257-5326  
샘밭막국수,RIBBON_TWO,37.9295173983054,127.781207476335,강원특별자치도 춘천시 신북읍 신샘밭로 644 1층,033-242-1712  
운두령,RIBBON_TWO,37.6958027617453,128.46288084444,강원특별자치도 평창군 용평면 운두령로 825 ,033-332-1943  
용평회관,RIBBON_TWO,37.673591,128.709078,강원특별자치도 평창군 대관령면 횡계2길 15 ,033-335-5217  
용바위식당,RIBBON_TWO,38.223973,128.367382,강원특별자치도 인제군 북면 진부령로 107 ,033-462-4079  
춘선네,RIBBON_TWO,38.198991993291386,128.5829082861216,강원특별자치도 속초시 청초호반로 230 ,033-635-8052  
양지말화로구이,RIBBON_TWO,37.659554789284634,127.83129507020915,강원특별자치도 홍천군 홍천읍 양지말길 17-4 ,033-435-7533  
부안막국수,RIBBON_TWO,37.88166,127.749641,강원특별자치도 춘천시 후석로344번길 8 ,033-254-0654  
보헤미안박이추커피,RIBBON_TWO,37.864588,128.842447,강원특별자치도 강릉시 연곡면 홍질목길 55-11 ,033-662-5365  
백촌막국수,RIBBON_TWO,38.293026,128.541766,강원특별자치도 고성군 토성면 백촌1길 10 ,033-632-5422  
납작식당,RIBBON_TWO,37.67558052201009,128.70070969505048,강원특별자치도 평창군 대관령면 올림픽로 35 ,033-335-5477  
부일식당,RIBBON_TWO,37.639295,128.560994,강원특별자치도 평창군 진부면 진부중앙로 100-5 ,033-335-7232  
영광정메밀국수,RIBBON_TWO,38.1224785517472,128.576128999955,강원특별자치도 양양군 강현면 진미로 446 ,033-673-5254  
흥업묵집,RIBBON_TWO,37.299005,127.918199,강원특별자치도 원주시 흥업면 남원로 29-3 ,033-762-4210  
주천묵집,RIBBON_TWO,37.260506,128.261105,강원특별자치도 영월군 주천면 송학주천로 1282-11 ,033-372-3800  
보헤미안로스터즈박이추커피공장,RIBBON_TWO,37.846836,128.866895,강원특별자치도 강릉시 사천면 해안로 1107 ,033-642-6688  
우성닭갈비,RIBBON_TWO,37.8873110205234,127.763485854877,강원특별자치도 춘천시 동면 만천양지길 87 ,033-242-3833  
방림메밀막국수,RIBBON_ONE,37.426637608829054,128.3925949162694,강원특별자치도 평창군 방림면 서동로 1323 ,033-332-1151  
자매식당,RIBBON_ONE,37.5120138879489,128.217889723796,강원특별자치도 횡성군 둔내면 둔내로51번길 14 ,033-344-2317  
일출봉횟집,RIBBON_ONE,38.181821113784,128.607873036875,강원특별자치도 속초시 해오름로 77 ,033-635-2222  
순두부젤라또2호점,RIBBON_ONE,37.7713682470682,128.947102574156,강원특별자치도 강릉시 경강로 2642 1~4층,010-4752-5534  
쯩라이,RIBBON_ONE,37.756523031181,128.865654678745,강원특별자치도 강릉시 사임당로 131 유천S클래스 203호,033-641-9716  
철뚝소머리국밥,RIBBON_ONE,37.8920600132365,128.824370835597,강원특별자치도 강릉시 주문진읍 철둑길 42 ,033-662-3747  
라모스버거,RIBBON_ONE,37.8718434789193,127.708019667729,강원특별자치도 춘천시 옛경춘로 835 ,033-252-0006  
만항할매닭집,RIBBON_ONE,37.1590478566816,128.900834210015,강원특별자치도 정선군 고한읍 함백산로 1104 ,033-591-3136  
싱글핀에일웍스,RIBBON_ONE,38.0234337961978,128.722750198151,강원특별자치도 양양군 현북면 하조대2길 48-42 ,070-8879-6181  
툇마루,RIBBON_ONE,37.7928910724179,128.914475618377,강원특별자치도 강릉시 난설헌로 232 ,033-922-7175  
감나무식당,RIBBON_ONE,38.07058487253968,128.62798706444605,강원특별자치도 양양군 양양읍 안산1길 73-6 ,033-672-3905  
커피라디오,RIBBON_ONE,37.315935436740695,127.95971319611964,강원특별자치도 원주시 치악고교길 19 ,033-765-5655  
바다정원,RIBBON_ONE,38.2314307691712,128.582883041835,강원특별자치도 고성군 토성면 버리깨길 23 ,033-636-1096  
대룡산막국수,RIBBON_ONE,37.85019,127.771585,강원특별자치도 춘천시 동내면 동내로 181 ,033-261-1421  
기사문,RIBBON_ONE,37.764596,128.8739,강원특별자치도 강릉시 정원로 78-22 ,033-646-9077  
횡성축협한우프라자,RIBBON_ONE,37.48382397284803,127.98139819282888,강원특별자치도 횡성군 횡성읍 횡성로 337 ,033-343-9908  
바다마을횟집,RIBBON_ONE,37.703854,129.016088,강원특별자치도 강릉시 강동면 정동등명길 23 ,010-4796-9923  
둔내막국수,RIBBON_ONE,37.512449,128.214003,강원특별자치도 횡성군 둔내면 둔내로 30 2층,033-342-1644  
오대산내고향,RIBBON_ONE,37.830775,128.475854,강원특별자치도 홍천군 내면 구룡령로 6898 ,0507-1444-7794
봉포머구리집,RIBBON_ONE,38.218796,128.593221,강원특별자치도 속초시 영랑해안길 223 ,033-631-2021  
산토리니,RIBBON_ONE,37.7707491901144,128.950108871906,강원특별자치도 강릉시 경강로 2667 ,033-653-0931  
봉포선영이네물회전문점,RIBBON_ONE,38.253117,128.56397,강원특별자치도 고성군 토성면 토성로 75 ,050-4458-1590  
속초생대구,RIBBON_ONE,38.21468,128.596143,강원특별자치도 속초시 영랑해안3길 14 ,033-636-9774  
우미닭갈비,RIBBON_ONE,37.879486,127.727927,강원특별자치도 춘천시 금강로62번길 4 ,033-253-2428  
초당소나무집,RIBBON_ONE,37.791711,128.91543,강원특별자치도 강릉시 초당순두부길 95-5 ,033-653-4488  
참나무숯불닭갈비,RIBBON_ONE,37.930502,127.788979,강원특별자치도 춘천시 신북읍 신샘밭로 715 ,033-242-0388  
동해막국수,RIBBON_ONE,37.919961,128.804061,강원특별자치도 양양군 현남면 동해대로 54 ,033-671-7117  
당근마차,RIBBON_ONE,38.21282354562133,128.60107377150567,강원특별자치도 속초시 영랑해안길 14 ,033-632-3139  
오대산채나라,RIBBON_ONE,37.681918,128.59717,강원특별자치도 평창군 진부면 진고개로 159 ,033-334-9514  
내대막국수 ,RIBBON_ONE,38.20153,127.297725,강원특별자치도 철원군 갈말읍 내대1길 29-10 ,033-452-3932  
정선면옥,RIBBON_ONE,37.380375714836,128.662361445216,강원특별자치도 정선군 정선읍 봉양5길 35 ,033-562-2233  
퇴계막국수,RIBBON_ONE,37.862276,127.725698,강원특별자치도 춘천시 영서로 2231 ,033-255-3332  
부흥횟집,RIBBON_ONE,37.552098,129.11795,강원특별자치도 동해시 일출로 93 ,033-531-5209  
대원당,RIBBON_ONE,37.8573915985867,127.740078455692,강원특별자치도 춘천시 퇴계로 191 ,033-254-8187  
송원면옥,RIBBON_ONE,38.19193,128.59599,강원특별자치도 속초시 미리내1길 9 ,033-631-2526  
옥산장,RIBBON_ONE,37.47304,128.726286,강원특별자치도 정선군 여량면 여량3길 79 ,033-562-0739  
섭죽마을,RIBBON_ONE,38.192007967164905,128.540451738685,강원특별자치도 속초시 관광로 352 ,033-635-4279  
사돈집,RIBBON_ONE,38.214267,128.596916,강원특별자치도 속초시 영랑해안1길 8 ,033-633-0915  
송이버섯마을,RIBBON_ONE,38.06502158635752,128.6209314732062,강원특별자치도 양양군 양양읍 남대천로 55-20 ,033-672-3145  
김영애할머니순두부,RIBBON_ONE,38.205995,128.528025,강원특별자치도 속초시 원암학사평길 183 ,033-635-9520  
물곰식당,RIBBON_ONE,37.552462,129.113522,강원특별자치도 동해시 산제골길 3 ,033-535-1866  
송정해변막국수,RIBBON_ONE,37.788639,128.924291,강원특별자치도 강릉시 창해로 267 ,033-652-2611  
강원토속식당,RIBBON_ONE,37.130321,128.536395,강원특별자치도 영월군 김삿갓면 영월동로 1121-16 ,033-372-9014  
고향막국수,RIBBON_ONE,37.612663,128.371399,강원특별자치도 평창군 봉평면 이효석길 142 ,033-336-1211  
태백한우마을,RIBBON_ONE,37.171951,128.991605,강원특별자치도 태백시 번영로 349-1 이림상가 1층,033-552-5349  
원조초당순두부,RIBBON_ONE,37.790561,128.914886,강원특별자치도 강릉시 초당순두부길77번길 9 ,033-652-2660  
시장실비식당,RIBBON_ONE,37.173902,128.992792,강원특별자치도 태백시 시장북길 27 ,033-552-2085  
원조재래식할머니순두부,RIBBON_ONE,38.206278,128.527343,강원특별자치도 속초시 원암학사평길 177 ,033-635-5438  
남경식당,RIBBON_ONE,37.685262,128.741122,강원특별자치도 평창군 대관령면 대관령마루길 347 ,033-335-5891  
태성실비식당,RIBBON_ONE,37.15891,128.986561,강원특별자치도 태백시 감천로 4 ,033-552-5287  
금학칼국수,RIBBON_ONE,37.75442,128.896264,강원특별자치도 강릉시 대학길 12-6 ,033-646-0175  
점봉산산채식당,RIBBON_ONE,38.199415,128.550024,강원특별자치도 속초시 이목로 132 ,033-636-5947  
부부횟집,RIBBON_ONE,38.370221,128.508051,강원특별자치도 고성군 죽왕면 가진해변길 88 ,033-681-0094  
원조털보네토종닭,RIBBON_ONE,38.184424,128.565853,강원특별자치도 속초시 청대마을길 100 ,033-636-3500  
고향집,RIBBON_ONE,37.945657,128.328986,강원특별자치도 인제군 기린면 조침령로 115 ,033-461-7391  
돌바우횟집,RIBBON_ONE,37.93980727858952,128.78787483688134,강원특별자치도 양양군 현남면 매바위길 51 ,033-671-7537  
산토리니,RIBBON_ONE,37.891373,127.776463,강원특별자치도 춘천시 동면 순환대로 1154-97 ,033-242-3010  
명가막국수,RIBBON_ONE,37.932927948712276,127.79210503853827,강원특별자치도 춘천시 신북읍 상천3길 8 ,033-241-8443  
장원막국수,RIBBON_ONE,37.645093,127.812259,강원특별자치도 홍천군 홍천읍 상오안길 62 ,033-435-5855  
회영루,RIBBON_ONE,37.88088582978792,127.72636153551409,강원특별자치도 춘천시 금강로 38 ,033-254-3841  
진태원,RIBBON_ONE,37.673225,128.708272,강원특별자치도 평창군 대관령면 횡계길 19 ,033-335-5567  
정라횟집,RIBBON_ONE,37.443574,129.163465,강원특별자치도 삼척시 대학로 28 ,033-573-3670  
동명항생선숯불구이,RIBBON_ONE,38.210876,128.586208,강원특별자치도 속초시 번영로129번길 21 ,033-632-3376  
가리산막국수,RIBBON_ONE,37.837999,128.013975,강원특별자치도 홍천군 두촌면 가리산길23번길 7 ,033-435-2704  
화천어죽탕,RIBBON_ONE,38.093941,127.760084,강원특별자치도 화천군 간동면 파로호로 91 ,033-442-5544  
덕포식당,RIBBON_ONE,37.18303617163373,128.47958555677866,강원특별자치도 영월군 영월읍 덕포시장길 69 ,033-374-2420  
소야삼교리동치미막국수,RIBBON_ONE,38.190295,128.586311,강원특별자치도 속초시 청초호반로 76 ,033-633-1228  
88생선구이,RIBBON_ONE,38.203721,128.591908,강원특별자치도 속초시 중앙부두길 71 ,033-633-8892  
감나무집감자옹심이,RIBBON_ONE,38.204314617459715,128.5908595193918,강원특별자치도 속초시 중앙시장로 110-8 ,033-633-2306  
형제막국수,RIBBON_ONE,37.755007,128.865492,강원특별자치도 강릉시 사임당로 113-3 ,033-645-9969  
화진포메밀막국수,RIBBON_ONE,38.4510192724063,128.44067314555804,강원특별자치도 고성군 거진읍 화진포길 21 ,033-682-4487  
황태회관,RIBBON_ONE,37.669874,128.709862,강원특별자치도 평창군 대관령면 눈마을길 19 ,033-335-5795  
송&정황토숯불닭갈비,RIBBON_ONE,37.876549,127.753473,강원특별자치도 춘천시 보안길 15 ,033-244-4595  
원주복추어탕,RIBBON_ONE,37.338525,127.956376,강원특별자치도 원주시 치악로 1748 ,033-763-7987  
유천막국수,RIBBON_ONE,37.670621794404454,128.60059332821967,강원특별자치도 평창군 대관령면 만과봉길 58 ,033-332-6423  
입암메밀타운,RIBBON_ONE,37.924630492686106,128.77714473398387,강원특별자치도 양양군 현남면 화상천로 155 ,033-671-7447  
장미산장,RIBBON_ONE,37.438973,128.095649,강원특별자치도 횡성군 우천면 전재로 234 ,033-342-2083  
초당순두부집,RIBBON_ONE,38.206078,128.519341,강원특별자치도 속초시 원암학사평길 104 ,033-635-5523  
제비호식당,RIBBON_ONE,38.44563,128.453393,강원특별자치도 고성군 거진읍 거진항길 29 ,033-682-1970  
봉평메밀진미식당,RIBBON_ONE,37.619067735065755,128.37680016371826,강원특별자치도 평창군 봉평면 기풍로 186-3 ,033-336-5599  
천선식당,RIBBON_ONE,38.06887761235847,128.6240293827849,강원특별자치도 양양군 양양읍 남대천로 13 ,033-672-5566  
초당할머니순두부,RIBBON_ONE,37.79055465489145,128.91539608215248,강원특별자치도 강릉시 초당순두부길 77 ,033-652-2058  
최옥란할머니순두부,RIBBON_ONE,38.196857,128.536586,강원특별자치도 속초시 관광로 415 ,033-635-0322  
옛태광식당,RIBBON_ONE,37.785335850533215,128.90368814477551,강원특별자치도 강릉시 난설헌로 105 ,033-653-9612  
통나무집닭갈비,RIBBON_ONE,37.933024,127.793282,강원특별자치도 춘천시 신북읍 신샘밭로 763 ,033-241-5999  
하얀집가든,RIBBON_ONE,37.34383,127.860856,강원특별자치도 원주시 지정면 작압길 70 ,033-732-4882  
함밭식당,RIBBON_ONE,37.498942,127.989251,강원특별자치도 횡성군 횡성읍 섬강로 88 ,033-343-2549  
함흥냉면옥,RIBBON_ONE,38.20195,128.589812,강원특별자치도 속초시 청초호반로 299 1층,033-633-2256  
현대막국수,RIBBON_ONE,37.616238,128.377227,강원특별자치도 평창군 봉평면 동이장터길 17 ,033-335-0314  
부일막국수,RIBBON_ONE,37.4671146751918,129.163805575001,강원특별자치도 삼척시 새천년도로 596 ,033-572-1277  
산골식당,RIBBON_ONE,37.619013,128.725956,강원특별자치도 평창군 대관령면 수하로 673-3 ,033-335-1281  
삼교리원조동치미막국수,RIBBON_ONE,37.8809909779402,128.75493191171,강원특별자치도 강릉시 주문진읍 신리천로 760 ,033-661-5396  
성주식당,RIBBON_ONE,37.683963,128.562668,강원특별자치도 평창군 진부면 방아다리로 306 ,033-335-2063  
송도물회,RIBBON_ONE,38.203376,128.591867,강원특별자치도 속초시 중앙부두길 63 ,033-633-4727  
송월메밀국수,RIBBON_ONE,38.087537,128.653513,강원특별자치도 양양군 손양면 동명로 282-4 ,033-672-3696  
실로암메밀국수,RIBBON_ONE,38.137222,128.59002,강원특별자치도 양양군 강현면 장산4길 8-5 ,033-671-5547  
실비막국수,RIBBON_ONE,37.88368539888931,127.72586159767161,강원특별자치도 춘천시 소양고개길 25 ,033-254-2472  
연산골막국수,RIBBON_ONE,37.89745,127.790179,강원특별자치도 춘천시 동면 연산골길 105-12 ,033-242-2288  
영진횟집,RIBBON_ONE,37.8679635599916,128.847456786614,강원특별자치도 강릉시 연곡면 해안로 1427 ,033-662-7979  
오대산가마솥식당,RIBBON_ONE,37.7166585675027,128.601879126683,강원특별자치도 평창군 진부면 오대산로 152 11동 1호,033-333-5355  
오산횟집,RIBBON_ONE,38.057475,128.682354,강원특별자치도 양양군 손양면 선사유적로 306-7 ,033-672-4168  
오색식당,RIBBON_ONE,38.07764247636883,128.44863288371988,강원특별자치도 양양군 서면 대청봉길 58-120 ,033-672-3180  
남부막국수본관,RIBBON_ONE,37.872299717130396,127.72435419760912,강원특별자치도 춘천시 춘천로81번길 16 ,033-254-7859  
너와집,RIBBON_ONE,37.1585405895507,128.987939447956,강원특별자치도 태백시 고원로 35 ,033-553-4669  
다우등심,RIBBON_ONE,37.871695,127.702646,강원특별자치도 춘천시 스포츠타운길 399 ,033-262-7748  
단골식당,RIBBON_ONE,37.51177157274205,128.21829634151237,강원특별자치도 횡성군 둔내면 둔내로51번길 20 ,033-342-1033  
단양면옥,RIBBON_ONE,38.07549679485068,128.62195130248037,강원특별자치도 양양군 양양읍 남문6길 3 1층,033-671-2227  
단천식당,RIBBON_ONE,38.202632,128.593632,강원특별자치도 속초시 아바이마을길 17 ,033-632-7828  
대관령숯불회관,RIBBON_ONE,37.672572465214614,128.7088739065627,강원특별자치도 평창군 대관령면 횡계2길 3 ,033-335-5360  
대관령추어탕토종닭,RIBBON_ONE,37.67212457284142,128.71762687833714,강원특별자치도 평창군 대관령면 대관령로 202-12 ,033-335-9333  
덕취원,RIBBON_ONE,37.483724,129.125014,강원특별자치도 동해시 대동로 118 ,033-521-4054  
도암식당,RIBBON_ONE,37.672501,128.708085,강원특별자치도 평창군 대관령면 대관령로 103 ,033-336-5814  
두일막국수,RIBBON_ONE,37.685431079655295,128.56172999911794,강원특별자치도 평창군 진부면 방아다리로 324 ,033-335-8414  
명물닭갈비,RIBBON_ONE,37.8795107241627,127.72786659630235,강원특별자치도 춘천시 금강로62번길 8 ,033-257-2961  
봉평메밀미가연,RIBBON_ONE,37.611995,128.378317,강원특별자치도 평창군 봉평면 기풍로 108 ,033-335-8805  
바다횟집,RIBBON_ONE,37.4392530146403,129.191117081312,강원특별자치도 삼척시 새천년도로 88 ,033-574-3543  
별당막국수,RIBBON_ONE,37.872076,127.724133,강원특별자치도 춘천시 춘천로81번길 15 ,033-254-9603  
봉운장,RIBBON_ONE,37.883584,127.72555,강원특별자치도 춘천시 소양고개길 26 ,033-254-3203  
부산식육식당,RIBBON_ONE,37.672030102011334,128.70850331960247,강원특별자치도 평창군 대관령면 대관령로 108 ,033-335-5415  
강릉감자옹심이,RIBBON_ONE,37.756447,128.894858,강원특별자치도 강릉시 토성로 171 ,033-648-0340  
초막고갈두,RIBBON_ONE,37.20508175962453,128.98313407293884,강원특별자치도 태백시 백두대간로 304 ,033-553-7388  
김서방네닭갈비,RIBBON_ONE,37.171876,128.992863,강원특별자치도 태백시 시장남1길 7-1 ,033-553-6378  
배달식육실비식당,RIBBON_ONE,37.160252,128.99009,강원특별자치도 태백시 황지로 15 ,033-552-3371  
늘푸름한우사랑,RIBBON_ONE,37.681578,127.877364,강원특별자치도 홍천군 홍천읍 연봉로 36 ,033-432-6622  
장릉보리밥집,RIBBON_ONE,37.195610112746934,128.45632407892722,강원특별자치도 영월군 영월읍 단종로 178-10 ,033-374-3986  
만석닭강정,RIBBON_ONE,38.204447,128.590153,강원특별자치도 속초시 중앙로147번길 16 ,1577-9042  
엄나무집삼계탕,RIBBON_ONE,37.317132,127.970143,강원특별자치도 원주시 치악로 1472-6 ,033-761-0558  
부산처녀횟집,RIBBON_ONE,37.803631,128.908911,강원특별자치도 강릉시 창해로 485 1층,033-644-2828  
이모네식당,RIBBON_ONE,38.215129,128.596129,강원특별자치도 속초시 영랑해안6길 16 ,033-637-6900  
미가,RIBBON_ONE,38.201665,128.534899,강원특별자치도 속초시 신흥2길 41 ,033-635-7999  
후포식당,RIBBON_ONE,38.2009711098924,128.588341430946,강원특별자치도 속초시 중앙로108번길 22-1 ,033-632-6738  
통일집,RIBBON_ONE,37.75118466230538,128.89600071390228,강원특별자치도 강릉시 금성로61번길 11-1 ,033-648-3824  
전씨네막국수,RIBBON_ONE,38.1071151949351,128.187502614243,강원특별자치도 인제군 인제읍 광치령로 143 ,033-461-2065  
풍년갈비,RIBBON_ONE,37.7851184304017,128.919305639067,강원특별자치도 강릉시 강릉대로587번길 10-5 ,033-651-9245  
두메산골,RIBBON_ONE,38.2007214353398,128.53323455988,강원특별자치도 속초시 관광로 457-11 ,033-635-2323  
평남횟집,RIBBON_ONE,37.9673060734759,127.665256049796,강원특별자치도 춘천시 서면 삿갓봉길 25 ,033-244-2370  
동루골막국수,RIBBON_ONE,38.25489048763,128.509561445543,강원특별자치도 고성군 토성면 성대로 188 ,033-632-4328  
만동제과,NOT,37.75516798062,128.899497837662,강원특별자치도 강릉시 금성로 6 ,033-922-6387  
뮤토로스팅플랜트,NOT,38.1943224448768,128.559771046138,강원특별자치도 속초시 이목로 21-3 ,010-9157-1271  
신라물회,NOT,37.5173411559086,129.118726972373,강원특별자치도 동해시 감추4길 30 신라1993,033-533-2888  
카페달,NOT,37.2740033163797,128.269224721697,강원특별자치도 영월군 주천면 송학주천로 1467-9 ,070-4230-3637  
제천식당,NOT,37.2701554183928,128.266952718485,강원특별자치도 영월군 주천면 도천길 3 ,033-372-7147  
더덕식당,NOT,38.2189479435164,128.367845066203,강원특별자치도 인제군 북면 진부령로 41 ,033-462-0413  
송이골,NOT,38.0730010692547,128.6353702189692,강원특별자치도 양양군 손양면 동명로 4 ,033-672-8040  
초가집옛골,NOT,37.6148057217731,128.371612071189,강원특별자치도 평창군 봉평면 메밀꽃길 7 ,033-336-3360  
심순녀안흥찐빵,NOT,37.407905,128.14606,강원특별자치도 횡성군 안흥면 서동로 1029 ,033-342-4460  
영금정생선조림,NOT,38.217473,128.594333,강원특별자치도 속초시 영랑해안길 191 ,033-636-9922  
산촌생등심,NOT,38.1195443191268,128.621218192654,강원특별자치도 양양군 강현면 안골로 58 ,033-673-6408  
옛날원대막국수,NOT,38.002302,128.231706,강원특별자치도 인제군 인제읍 자작나무숲길 1113 ,033-462-1515  
이조면옥,NOT,38.182144763807,128.600708743175,강원특별자치도 속초시 동해대로 3887 ,033-632-3181  
평창축협대관령한우타운 면온점,NOT,37.570347,128.344825,강원특별자치도 평창군 봉평면 태기로 393 ,033-333-7043  
용대진부령식당,NOT,38.223973,128.368171,강원특별자치도 인제군 북면 진부령로 100 ,033-462-1877  
진양횟집,NOT,38.2022265838819,128.591798786901,강원특별자치도 속초시 청초호반로 318 ,033-635-9999  
토담순두부,NOT,37.791102,128.910454,강원특별자치도 강릉시 난설헌로193번길 1-19 ,033-652-0336  
통나무집,NOT,37.511942,128.225373,강원특별자치도 횡성군 둔내면 고원로 173 ,033-344-3232  
몽트비어,NOT,38.2043564539355,128.52809343011,강원특별자치도 속초시 학사평길 7-1 ,033-636-9010  
한성면옥,NOT,38.202293,128.567681,강원특별자치도 속초시 밤골5길 28 ,033-635-1118  
메바우명가춘천막국수,NOT,37.8922482486066,127.723876377649,강원특별자치도 춘천시 당간지주길 76 ,033-254-2232  
해변으로,NOT,37.561467,129.119458,강원특별자치도 동해시 일출로 217 ,033-533-5424  
해성횟집,NOT,37.754025117657804,128.8986237900098,강원특별자치도 강릉시 금성로 21 중앙시장빌딩 2층 30호,033-648-4313  
허브나라농원,NOT,37.635758,128.342804,강원특별자치도 평창군 봉평면 흥정계곡길 225 ,033-335-2902  
오수물막국수,NOT,37.9380189457564,127.777244940929,강원특별자치도 춘천시 신북읍 맥국2길 15 ,033-242-4714  
홍질목,NOT,37.865209,128.841474,강원특별자치도 강릉시 연곡면 홍질목길 54 ,033-662-6729  
황태령,NOT,38.202376,128.347817,강원특별자치도 인제군 북면 미시령로 1213 ,033-462-9991  
대관령황태촌,NOT,37.6648909552707,128.709289978036,강원특별자치도 평창군 대관령면 송전길 14 ,033-335-8885  
카페소리,NOT,38.1986484437097,128.535110773132,강원특별자치도 속초시 관광로 439 ,033-638-4080  
스퀘어루트,NOT,38.3752628155047,128.505683953453,강원특별자치도 고성군 죽왕면 가향길 2-7 ,033-681-0604  
청초수물회,NOT,38.1921462347897,128.590538447314,강원특별자치도 속초시 엑스포로 12-36 ,033-635-5050  
샌마르,NOT,37.7547910296994,128.894873754048,강원특별자치도 강릉시 문화의길 8 ,070-8285-0759  
신흥막국수,NOT,37.8490675782043,127.735380409934,강원특별자치도 춘천시 상마을1길 36 ,033-264-2031  
육림닭강정,NOT,37.8821974033704,127.726580500034,강원특별자치도 춘천시 소양고개길 46 ,033-244-1510  
스톤크릭스테이션,NOT,37.3706538972531,127.796477772392,강원특별자치도 원주시 지정면 지정로 1101 ,0507-1359-7423  
기와집,NOT,38.1859319752741,127.306487006752,강원특별자치도 철원군 갈말읍 갈말로 369 ,033-455-2566  
마당예쁜집,NOT,38.2077791026613,127.210327301951,강원특별자치도 철원군 동송읍 이평로 123 ,0507-1354-5366  
동박골식당,NOT,37.378799,128.659879,강원특별자치도 정선군 정선읍 정선로 1314 ,033-563-2211  
감자바우,NOT,38.20023,128.583547,강원특별자치도 속초시 청초호반로 239 ,033-632-0734  
자매활어횟집,NOT,38.447221363082555,128.4639370755443,강원특별자치도 고성군 거진읍 거진항1길 62 ,033-682-7533  
천일막국수,NOT,38.1031541293993,127.707402399113,강원특별자치도 화천군 화천읍 중앙로 34-9 ,033-442-2127  
한산횟집,NOT,38.223843,128.589095,강원특별자치도 속초시 장사항해안길 23 ,033-633-5566  
선인장횟집,NOT,38.20214,128.591493,강원특별자치도 속초시 청초호반로 314-1 ,033-633-3732  
남북면옥,NOT,38.066392,128.171736,강원특별자치도 인제군 인제읍 인제로178번길 24 ,033-461-2219  
노다지,NOT,37.668512,128.708885,강원특별자치도 평창군 대관령면 올림픽로 153 ,033-335-4647  
대선횟집,NOT,38.212729,128.601019,강원특별자치도 속초시 영랑해안길 12 ,033-635-3364  
동그라미해물집,NOT,37.49192131692736,129.10949779148663,강원특별자치도 동해시 효자로 686-4 ,033-522-4449  
소돌막국수,NOT,37.9029350425534,128.822062485132,강원특별자치도 강릉시 주문진읍 연주로 571 ,033-662-2263  
강릉짬뽕순두부동화가든본점,NOT,37.79118686250141,128.91463141780676,강원특별자치도 강릉시 초당순두부길77번길 15 ,033-652-9885  
등불,NOT,38.1036292141337,128.6304439497802,강원특별자치도 양양군 양양읍 포월나들길 23 ,033-671-1500  
범부메밀국수,NOT,38.064179,128.589935,강원특별자치도 양양군 서면 고인돌길 6 ,033-671-0743  
메밀꽃필무렵,NOT,37.6107287636293,128.359977649457,강원특별자치도 평창군 봉평면 이효석길 33-11 ,033-335-4594  
부림식당,NOT,37.63740006959877,128.55946411812528,강원특별자치도 평창군 진부면 진부중앙로 70-3 ,033-335-7576  
향온,NOT,37.228555,128.081968,강원특별자치도 원주시 신림면 제원로 1431 ,033-762-0525  
이인숙황둔찐빵,NOT,37.26204116136164,128.1920726441631,강원특별자치도 원주시 신림면 신림황둔로 1239 ,033-764-2056  
일미장,NOT,38.068531,128.171603,강원특별자치도 인제군 인제읍 인제로188번길 1 ,033-461-2396  
홍능곱창,NOT,37.6959692918549,127.903260417971,강원특별자치도 홍천군 홍천읍 갈마로9길 8 ,033-433-4377  
고향이야기,NOT,37.669102,128.709912,강원특별자치도 평창군 대관령면 눈마을길 9 ,033-335-5430  
교동막국수,NOT,38.3806200845628,128.443203393037,강원특별자치도 고성군 간성읍 진부령로 2709-4 ,033-681-3307  
섬향기,NOT,37.791846,127.525411,강원특별자치도 춘천시 남산면 남이섬길 1 ,031-580-8054  
동광식당,NOT,37.38294728468969,128.6716409905278,강원특별자치도 정선군 정선읍 녹송1길 27 ,033-563-3100  
통나무집식당,NOT,38.077189602988064,128.44766209310816,강원특별자치도 양양군 서면 약수길 33 ,033-671-3523  
원산면옥,NOT,38.20216,128.586687,강원특별자치도 속초시 중앙로 91-6 ,033-633-8838  
동해순대국집,NOT,38.20452,128.588847,강원특별자치도 속초시 중앙로129번길 35-17 ,033-633-1012  
주천찐빵,NOT,37.269812,128.266538,강원특별자치도 영월군 주천면 주천로 67-1 ,033-372-4936  
큰터손두부,NOT,37.507029,128.104731,강원특별자치도 횡성군 우천면 경강로 3291 ,033-342-2667  
남설악식당,NOT,38.0777980297195,128.448729745946,강원특별자치도 양양군 서면 대청봉길 58-45 ,033-672-3159  
아바이식당,NOT,38.2031016607351,128.593781824102,강원특별자치도 속초시 아바이마을1길 3-1 ,033-635-5310  
신다신,NOT,38.202787,128.593784,강원특별자치도 속초시 아바이마을길 22 ,033-633-3871  
월성식당,NOT,37.8918384389087,128.828165080865,강원특별자치도 강릉시 주문진읍 시장3길 4 ,033-661-0997  
월웅식당,NOT,38.069564,128.624717,강원특별자치도 양양군 양양읍 남대천로 3 ,033-671-3049  
만남의식당,NOT,37.439113,129.19071,강원특별자치도 삼척시 새천년도로 84 ,033-574-1645  
바다마을,NOT,37.467517885023845,129.16905124696794,강원특별자치도 삼척시 테마타운길 53 삼척테마타운 3동 102호,033-572-5559  
동해바다곰치국,NOT,37.5583796050561,129.120660578914,강원특별자치도 동해시 일출로 179 ,033-532-0265  
춘도식당,NOT,37.3778,129.227299,강원특별자치도 삼척시 근덕면 삼척로 3606-56 ,033-573-0447  
부래실비식당,NOT,37.173535,128.992806,강원특별자치도 태백시 시장북길 24 ,033-552-9595  
항구식당,NOT,37.445234,129.189194,강원특별자치도 삼척시 새천년도로 169 ,033-573-0616  
오학닭갈비,NOT,37.347232030387424,127.94905154739114,강원특별자치도 원주시 무실로 31-1 ,033-742-0156  
대동면옥,NOT,37.891208,128.824663,강원특별자치도 강릉시 주문진읍 연주로 438 ,033-662-0076  
다윤네집,NOT,37.837157,127.582968,강원특별자치도 춘천시 서면 경춘로 647-56 ,033-263-1888  
정동진심곡쉼터,NOT,37.6648216866968,129.0504075353639,강원특별자치도 강릉시 강동면 헌화로 665-4 ,033-644-5138  
태백순두부,NOT,37.186371,128.962926,강원특별자치도 태백시 초막2길 5 ,033-553-8484  
미스타페오,NOT,37.916237,127.712757,강원특별자치도 춘천시 서면 박사로 1204 ,033-243-3989  
사랑방식당,NOT,37.179348,128.458133,강원특별자치도 영월군 영월읍 절무리골길 12 ,033-373-1525  
그린생칼국수,NOT,38.074601,128.622473,강원특별자치도 양양군 양양읍 남문5길 10 ,033-671-5694  
동양식당,NOT,37.672014,128.709107,강원특별자치도 평창군 대관령면 대관령로 118 ,033-335-5439  
초당고부순두부,NOT,37.784751,128.919197,강원특별자치도 강릉시 강릉대로587번길 17 ,033-653-7271  
만낭포감자떡,NOT,37.346592,127.84682,강원특별자치도 원주시 지정면 지정로 97 ,033-731-9953  
면사무소앞안흥찐빵,NOT,37.412123,128.156618,강원특별자치도 횡성군 안흥면 안흥로 30 ,033-342-4570  
고사리식당,NOT,37.1816387211917,128.978049084415,강원특별자치도 태백시 전나무길 3 ,033-552-8438  
낙원회관,NOT,37.200456632421684,128.85423416652245,강원특별자치도 정선군 고한읍 고한6길 18 ,033-591-2510  
이모네식당,NOT,37.1763384490222,128.986868601552,강원특별자치도 태백시 먹거리길 31 ,033-553-5812  
혜원가든,NOT,37.22685941116675,128.81666923708158,강원특별자치도 정선군 사북읍 사북중앙로 18-1 ,033-592-3356  
황태덕장,NOT,37.670082,128.709811,강원특별자치도 평창군 대관령면 눈마을길 21 ,033-335-5942  
길매식당,NOT,37.753287,127.962209,강원특별자치도 홍천군 화촌면 구룡령로 214-1 ,033-432-2314  
청원식당,NOT,37.4722669877635,128.722671220118,강원특별자치도 정선군 여량면 여량6길 10 ,033-562-4262  
석장골오골계숯불구이,NOT,38.108171,127.98576,강원특별자치도 양구군 양구읍 양록길23번길 16-7 ,033-482-0801  
장수오골계숯불구이,NOT,38.107200489614556,127.98619593182465,강원특별자치도 양구군 양구읍 양록길23번길 6-17 ,033-481-8175  
광치막국수,NOT,38.1305027275877,128.047743627634,강원특별자치도 양구군 국토정중앙면 남동로 34-7 ,033-481-4095  
고향원조칡칼국수,NOT,37.130852,128.536473,강원특별자치도 영월군 김삿갓면 영월동로 1121-11 ,033-372-9117  
광암막국수,NOT,37.48794061441903,128.0724888182896,강원특별자치도 횡성군 우천면 경강로 2887 ,033-342-2693  
원조강릉교동반점본점,NOT,37.758348,128.893039,강원특별자치도 강릉시 강릉대로 205 ,033-646-3833  
청성애원,NOT,37.37660521873304,128.3843761427687,강원특별자치도 평창군 평창읍 살구실길 53-10 ,033-333-6031  
쉘리스커피,NOT,37.840201,128.876654,강원특별자치도 강릉시 사천면 진리해변길 95 ,033-644-2355  
두부마을초당순두부,NOT,37.7563725251266,128.865135319523,강원특별자치도 강릉시 사임당로 131-1 ,033-646-4936  
도촌막국수,NOT,38.077808,128.022018,강원특별자치도 양구군 남면 국토정중앙로 6 ,033-481-4627  
이디오피아,NOT,37.873572,127.711286,강원특별자치도 춘천시 이디오피아길 7 ,033-252-6972  
원조중앙닭갈비,NOT,37.879025,127.727458,강원특별자치도 춘천시 금강로62번길 13-5 ,033-253-4444  
박순례손말이고기산정집,NOT,37.3521568477842,127.947481542492,강원특별자치도 원주시 원일로 148-3 ,033-742-8556  
담치마을,NOT,38.073327,128.620162,강원특별자치도 양양군 양양읍 남문로 17-1 ,033-673-0012  
황둔막국수,NOT,37.261763,128.19226,강원특별자치도 원주시 신림면 신림황둔로 1242 ,033-764-2055  
김인수할머니순두부,NOT,37.185102,128.470669,강원특별자치도 영월군 영월읍 단종로16번길 41 ,033-374-3698  
기화양어장횟집,NOT,37.304283,128.540016,강원특별자치도 평창군 미탄면 평창동강로 495-6 ,033-332-6277  
산골식당,NOT,38.07737201035171,128.44689529179598,강원특별자치도 양양군 서면 약수길 39 ,033-672-3428  
덕성루,NOT,37.442485,129.163492,강원특별자치도 삼척시 대학로 16-2 ,033-574-8860  
화진포박포수가든,NOT,38.478825,128.421884,강원특별자치도 고성군 현내면 화진포서길 76 ,033-682-4856  
삼십년할머니순두부,NOT,38.076799,128.493574,강원특별자치도 양양군 서면 설악로 1322-4 ,033-672-8437  
원조맷돌순두부,NOT,37.669105,128.711362,강원특별자치도 평창군 대관령면 송천길 10 ,033-336-2386  
대운식당,NOT,37.516181,128.73065,강원특별자치도 정선군 여량면 노추산로 775 ,033-562-5041  
옛골,NOT,38.202893,128.591751,강원특별자치도 속초시 청초호반로 321-1 ,033-631-5010  
산북막국수,NOT,38.453985,128.397233,강원특별자치도 고성군 거진읍 산북길 16 ,033-682-1733  
초시막국수,NOT,37.852711,128.838984,강원특별자치도 강릉시 연곡면 초시길 33-1 ,033-661-6231  
장안횟집,NOT,37.837612,128.87533,강원특별자치도 강릉시 사천면 진리항구길 51 ,033-644-1136  
참맛골,NOT,37.518078,129.111575,강원특별자치도 동해시 동굴로 69 ,033-533-3776  
백담황태구이,NOT,38.196124,128.345086,강원특별자치도 인제군 북면 백담로 24 ,033-462-5870  
성진회관,NOT,38.444044,128.453276,강원특별자치도 고성군 거진읍 거탄진로 99 ,033-682-1040  
펠리스횟집,NOT,37.4402678649015,129.191230854164,강원특별자치도 삼척시 정라항안길 38-19 ,033-573-8112  
임꺽정가든,NOT,38.1866046791691,127.289042330847,강원특별자치도 철원군 동송읍 태봉로 1825-6 ,033-455-8779  
태백한우골실비식당,NOT,37.158717,128.982483,강원특별자치도 태백시 대학길 35 ,033-554-4599  
늘푸름임꺽정,NOT,37.683847,127.871729,강원특별자치도 홍천군 홍천읍 무궁화로4길 11 ,033-432-9939  
폭포가든,NOT,38.210336,127.265453,강원특별자치도 철원군 동송읍 직탕길 86 ,033-455-3546  
명가,NOT,38.106061,127.704766,강원특별자치도 화천군 화천읍 상승로 57 ,033-442-2957  
월미달팽이해장국,NOT,38.0947392801121,127.760288476795,강원특별자치도 화천군 간동면 어룡동길 5 ,033-442-3155  
차현희순두부청국장,NOT,37.79110565419484,128.9165227664985,강원특별자치도 강릉시 초당순두부길 98 ,033-651-0812  
선창횟집,NOT,37.56291,129.119555,강원특별자치도 동해시 일출로 233 ,010-4803-5862  
충북횟집,NOT,37.556119,129.120787,강원특별자치도 동해시 일출로 151 삼양비취타워 4호,033-535-1485  
삼정식당,NOT,37.436512,129.186046,강원특별자치도 삼척시 새천년도로 30 ,033-573-3233  
곰배령,NOT,37.866830741906654,127.7211776729748,강원특별자치도 춘천시 춘천로 19 ,033-255-5500  
창횟집,NOT,37.93355190296433,128.78953396462967,강원특별자치도 양양군 현남면 동해대로 254 ,033-671-5622  
장남원조보리밥,NOT,37.89988,128.038017,강원특별자치도 홍천군 두촌면 장남길 34 ,033-435-2206  
옛뜰,NOT,38.089561,128.654872,강원특별자치도 양양군 손양면 동명로 289 ,033-672-7009  
엠꼼마카롱,NOT,37.7568980543064,128.896785597947,강원특별자치도 강릉시 경강로2115번길 15 1층,070-8870-8485  
에티오피아,NOT,37.800251,128.864478,강원특별자치도 강릉시 안현로 36 ,033-644-1277  
경포팔도강산,NOT,37.8017724357011,128.91097345761,강원특별자치도 강릉시 창해로 461 ,033-644-1046  
송원,NOT,38.212519,128.493859,"강원특별자치도 고성군 토성면 미시령옛길 1153 델피노골프앤리조트 C동 지하 2층, D동 2층",033-639-8370  
오봉식당,NOT,38.223424,128.588924,강원특별자치도 속초시 중앙로 398 ,033-633-7376  
형제닭집,NOT,38.204591,128.589681,강원특별자치도 속초시 중앙시장로6길 22 ,033-633-3293  
정든식당,NOT,38.211796,128.587883,강원특별자치도 속초시 번영로105번길 39 ,033-631-1287  
수성반점,NOT,38.35482643902393,128.51064762713085,강원특별자치도 고성군 죽왕면 공현진길 37 ,033-631-1492  
만강,NOT,37.857901,127.756501,강원특별자치도 춘천시 동내면 외솔길19번길 61 ,033-262-5900  
진솔메밀국수,NOT,38.1364131567348,128.590390693019,강원특별자치도 양양군 강현면 장산4길 7 ,033-671-0689  
신혼부부,NOT,37.3502285628167,127.948624848521,강원특별자치도 원주시 중앙시장길 11 자유시장 지하 2-1,033-745-8037  
원조춘하추동,NOT,37.751901,128.896553,강원특별자치도 강릉시 임영로116번길 4 ,033-641-2714  
동승루,NOT,37.340159,127.932584,강원특별자치도 원주시 이화4길 30 ,033-742-8166  
월운막국수,NOT,38.218146,128.043704,강원특별자치도 양구군 동면 금강산로 1873-4 ,033-481-0076  
교동899,NOT,37.7611719772364,128.89195835293,강원특별자치도 강릉시 임영로 223 ,033-641-3185  
동진네횟집,NOT,37.89118362076606,128.82776512983492,강원특별자치도 강릉시 주문진읍 시장길 38 주문진수산시장,033-662-7769  
인하선생,NOT,37.765044,128.878828,강원특별자치도 강릉시 율곡초교길43번길 4 ,010-7756-9150
맛과향이있는집,NOT,37.4457987636476,129.163016340373,강원특별자치도 삼척시 대학로 51 ,033-575-0215  
고성생선찜,NOT,37.7600849570496,128.919141212406,강원특별자치도 강릉시 성덕포남로 56 ,033-651-6959  
자매해녀횟집,NOT,38.367383,128.509983,강원특별자치도 고성군 죽왕면 가진해변길 123 ,033-681-1213  
카페폴앤메리,NOT,37.796726,128.916812,강원특별자치도 강릉시 창해로350번길 33 ,033-653-2354  
네이키드베이커리,NOT,37.3261834913973,127.939938585787,강원특별자치도 원주시 남원로 441-14 ,070-8869-2511  
은파횟집,NOT,37.7965737979884,128.916877729021,강원특별자치도 강릉시 창해로350번길 31 ,033-652-9566  
벌집,NOT,37.754505,128.892756,강원특별자치도 강릉시 경강로2069번길 15 ,033-648-0866  
태백실비식당,NOT,37.158971,128.987126,강원특별자치도 태백시 감천로 8 ,033-553-2700  
크래프트루트(속초점),NOT,38.19724342370608,128.53771287788956,강원특별자치도 속초시 관광로 418 ,070-8872-1001  
해촌,NOT,38.0774854837986,128.637129960653,강원특별자치도 양양군 손양면 동명로 81 ,033-673-5050  
버드나무브루어리,NOT,37.748143,128.884472,강원특별자치도 강릉시 경강로 1961 ,033-920-9380  
금화정막국수,NOT,38.28573313508838,128.54396246018564,강원특별자치도 고성군 토성면 화원길 42-21 ,033-632-5466  
강림순대,NOT,37.380643,128.136108,강원특별자치도 횡성군 강림면 주천강로강림5길 35 ,033-342-7148  
풍년식당,NOT,37.6907725678782,127.886421025546,강원특별자치도 홍천군 홍천읍 신장대로 92 ,033-434-4304  
명천명태순대,NOT,38.2023687432796,128.593670063877,강원특별자치도 속초시 아바이마을길 11-4 1층,033-638-8893  
원조생곡막국수,NOT,37.70036166987865,128.22433817921376,강원특별자치도 홍천군 서석면 군두리길 310 ,033-436-5061  
카르페디엠,NOT,37.868426,128.845891,강원특별자치도 강릉시 연곡면 해안로 1443 ,033-662-1131  
카페뤼미에르,NOT,37.7727283699348,128.947154370314,강원특별자치도 강릉시 창해로14번길 18 ,033-642-2221  
주문진횟집테라스제이,NOT,37.870317313951915,128.84297696559884,강원특별자치도 강릉시 연곡면 영진길 63 ,010-5374-1874  
88순대국,NOT,38.2043642434727,128.588938255172,강원특별자치도 속초시 중앙로129번길 35-13 속초중앙시장 아바이순대타운 내,033-636-5798  
창바위식당,NOT,38.20705017843263,128.5111862692824,강원특별자치도 고성군 토성면 원암학사평길 28 ,033-632-1837  
금성각,NOT,38.200897,128.581927,강원특별자치도 속초시 중앙로55번길 7 ,033-638-5255  
삼정,NOT,37.5021826692157,128.207705912571,강원특별자치도 횡성군 둔내면 경강로 4536-3 ,033-342-3365  
남부해장국,NOT,37.86628870188552,127.72318163076427,강원특별자치도 춘천시 퇴계로 12 ,033-257-7785  
용둔막국수,NOT,37.4879,128.072078,강원특별자치도 횡성군 우천면 경강로 2883 ,033-342-2695  
감자네,NOT,37.687809063224,128.558878563129,강원특별자치도 평창군 진부면 방아다리로 360 ,033-335-1948  
냉면권가,NOT,37.5219647129089,129.115070638699,강원특별자치도 동해시 중앙로 236-1 ,033-533-9911  
양반댁함흥냉면,NOT,38.2017753830849,128.590242372179,강원특별자치도 속초시 청초호반로 302 ,033-636-9999  
아날로그소사이어티,NOT,37.77057538703522,128.87748944826856,강원특별자치도 강릉시 하슬라로232번길 13 ,033-645-0833  
다이닝옥남,NOT,38.1889380021958,128.587375114518,강원특별자치도 속초시 선사로5길 43 ,033-631-0414  
에이플레이스,NOT,38.19285877879227,128.601800720543,강원특별자치도 속초시 청호해안길 31 ,033-635-4371  
영화춘,NOT,37.17526132838543,129.33465466292833,강원특별자치도 삼척시 원덕읍 삼척로 437-24 ,033-572-6109  
현대장칼국수,NOT,37.7574784769327,128.892667922832,강원특별자치도 강릉시 임영로182번길 7-1 ,033-645-0929  
퍼베이드,NOT,37.7632275825168,128.886859823307,강원특별자치도 강릉시 화부산로 78 ,033-645-7953  
봉브레드,NOT,38.2029777833961,128.568518881596,강원특별자치도 속초시 동해대로 4344-1 ,033-633-4826  
닌베,NOT,37.9700818854581,128.761501603163,강원특별자치도 양양군 현남면 인구항길 6 ,070-4090-7720  
파머스키친,NOT,37.9804184253442,128.762110298953,강원특별자치도 양양군 현남면 동산큰길 44-39 ,010-3022-0984  
신성원식당,NOT,37.76049525072394,128.8949131006497,강원특별자치도 강릉시 율곡로 2880 ,033-646-0219  
아인53카페,NOT,38.13496807166692,127.98761429858854,강원특별자치도 양구군 양구읍 성곡로 200-1 ,010-4115-5002  
홍천한우애,NOT,37.65849219752267,127.83019528671404,강원특별자치도 홍천군 홍천읍 양지말길 12 ,033-432-9279  
범바우막국수,NOT,38.1331806781815,128.618961419054,강원특별자치도 양양군 강현면 동해대로 3277-22 ,033-671-5966  
플리즈웨잇,NOT,37.9686361739517,128.761890467767,강원특별자치도 양양군 현남면 인구길 28-23 ,1577-8647  
알로하웨이브,NOT,37.9721367966862,128.760741739085,강원특별자치도 양양군 현남면 새나루길 43 ,010-9915-2477  
비치얼스,NOT,38.022348422206,128.7229631196,강원특별자치도 양양군 현북면 하조대4길 32 ,0507-1429-1633  
카루나,NOT,37.9674952649956,128.762053337078,강원특별자치도 양양군 현남면 인구길 36 ,010-4480-4686  
아루나,NOT,38.1967006652993,128.598099975182,강원특별자치도 속초시 청호해안길 85 ,없음  
사니다카페,NOT,37.4069677627641,127.91438200049,강원특별자치도 원주시 호저면 칠봉로 109-128 ,070-7776-4422  
기와집갈비,NOT,37.155804693605,128.988525228897,강원특별자치도 태백시 짐대배기2길 4  ,033-553-6645  
이츠모라멘(강릉점),NOT,37.7848170244325,128.916073583916,강원특별자치도 강릉시 초당원길 34 ,010-2195-2949  
연사랑,NOT,38.2179262730934,127.208596129285,강원특별자치도 철원군 철원읍 금학로339번길 12-28 ,0507-1399-0775  
철원샘통고추냉이,NOT,38.2869562392294,127.213824904134,강원특별자치도 철원군 철원읍 금강산로 23 ,033-455-1140  
왕만두,NOT,37.8694788164144,127.72047703505,강원특별자치도 춘천시 방송길 77 춘천 센트럴타워 푸르지오 프리미엄몰 지하B125호,033-251-5480  
우담,NOT,37.3343611913347,127.929200017682,강원특별자치도 원주시 능라동길 47 401호,033-745-7661  
잉걸,ATTENTION,37.5926105756326,129.090818968519,강원특별자치도 동해시 동해대로 6270-18 ,010-7554-6270  
고기왕김육즙,NEW,37.8628626451183,127.728295907398,강원특별자치도 춘천시 남춘로5번길 16 1층,033-243-3636
서지초가뜰,NEW,37.7911030002888,128.880935949637,강원특별자치도 강릉시 난곡길76번길 43-8 ,033-646-4430  
스톤크릭10마일,NEW,37.3251600854949,127.980445258209,강원특별자치도 원주시 봄마중길 34 102호,0507-1359-7423
펌킨오울,NEW,37.7578511571548,128.893867445651,강원특별자치도 강릉시 강릉대로204번길 8 1층,010-6374-2738
모멘도르,NEW,37.3953102739007,127.871200929547,강원특별자치도 원주시 지정면 송정로 192 모멘도르,070-4035-3341
무튼(원주본점),NOT_RECORD,37.400957023907,127.843070268376,강원특별자치도 원주시 지정면 월송석화로 428-10 무튼,033-747-4729
자유빵집(2호점),NOT_RECORD,37.8593270316839,127.717405759333,강원특별자치도 춘천시 안마산로 5 1층,0507-1400-9871
베노아,NOT_RECORD,37.3529244803812,127.916785011994,강원특별자치도 원주시 전망길 15-1 ,033-900-5109
더블티다이닝,NOT_RECORD,37.7919850495766,128.913553175117,강원특별자치도 강릉시 초당순두부길55번길 38 ,033-652-0709
낭만춘천숯불닭갈비,NOT_RECORD,37.8804818562697,127.726930220315,강원특별자치도 춘천시 낙원길 50 ,033-251-0906
버드랜드커피클럽,NOT_RECORD,37.3389590621332,127.951094958114,강원특별자치도 원주시 향교길 54 지하 1층 ,010-4748-6093
차리프,NOT_RECORD,37.7563505418171,128.89427599505,강원특별자치도 강릉시 토성로 165-6 1층,0507-1338-1307
은달래(강릉점),NOT_RECORD,37.757926941012,128.89895875603,강원특별자치도 강릉시 옥가로 17 ,010-3275-5733
데자뷰로스터리,NOT_RECORD,37.7767275518844,128.874964341182,강원특별자치도 강릉시 죽헌길 84 1층,010-5380-9939
임당동162,NOT_RECORD,37.754788070524,128.892631128644,강원특별자치도 강릉시 토성로 144 ,033-643-1123
고씨네동해막국수(강문본점),NOT_RECORD,37.7963158046398,128.91715963786,강원특별자치도 강릉시 창해로350번길 25 ,033-651-3393
파로호횟집,NOT_RECORD,38.09591545393744,127.77603165291362,강원특별자치도 화천군 간동면 배터길 39 ,033-442-3123
규움카페,NOT_RECORD,38.0617895200892,128.168043201183,강원특별자치도 인제군 인제읍 비봉로44번길 72 선암빌딩,010-3001-9856
밀봄숲,NOT_RECORD,37.7492708263313,127.737238176149,강원특별자치도 춘천시 동산면 종자리로 224-53 ,010-5468-2769
황두막,NOT_RECORD,38.195666,128.538061,강원특별자치도 속초시 관광로 400 ,033-635-0111
광범이네횟집,NOT_RECORD,38.3687144941201,128.509595472138,강원특별자치도 고성군 죽왕면 가진해변길 114 ,033-682-3665
가평잣두부,NOT_RECORD,37.3437288292061,128.002777550974,강원특별자치도 원주시 행구로 421 ,033-747-4415
강희네,NOT_RECORD,37.6913908377895,127.886152201206,강원특별자치도 홍천군 홍천읍 꽃뫼로 112 ,0507-1314-7352
고명 ,NOT_RECORD,37.7671066143312,128.908173278297,강원특별자치도 강릉시 경강로2267번길 20 ,033-645-3388
다리골식당,NOT_RECORD,38.2068440300244,128.352789461137,강원특별자치도 인제군 북면 미시령로 1281 ,0507-1303-9366
다슬기향촌성호식당,NOT_RECORD,37.1825865651719,128.480034409465,강원특별자치도 영월군 영월읍 영월로 2101 ,033-374-3215
백일칼국수,NOT_RECORD,37.8627607169771,127.7279806914,강원특별자치도 춘천시 남춘로5번길 17 ,033-243-0120
샘토명물닭갈비본점,NOT_RECORD,37.9313601707332,127.790376588308,강원특별자치도 춘천시 신북읍 신샘밭로 729 ,010-9568-1120
속초강동호식당,NOT_RECORD,38.1980494482991,128.575524482312,강원특별자치도 속초시 만천1길 4-4 ,033-631-2252
수라상,NOT_RECORD,38.0791597373074,128.672204469321,강원특별자치도 양양군 손양면 수산1길 41 ,0507-1378-5857
황태마을 ,NOT_RECORD,37.8642630414299,127.721464140356,강원특별자치도 춘천시 충혼길8번길 20-1 ,033-251-8253
양지뜨락,NOT_RECORD,37.8876498712425,127.76651999321,강원특별자치도 춘천시 동면 만천양지길 114 ,033-244-6690
연잎밥마실,NOT_RECORD,37.3670752172197,128.002821570679,강원특별자치도 원주시 소초면 황골로 371 ,0507-1352-4697
일미어담,NOT_RECORD,37.4666676990313,129.170555129247,강원특별자치도 삼척시 테마타운길 19 ,033-576-0814
호남식당 닭갈비막국수,NOT_RECORD,37.8856856932545,127.718156245096,강원특별자치도 춘천시 공지로 603-4 ,033-257-6611
풍년식당,NOT_RECORD,37.8541426662904,127.747280316915,강원특별자치도 춘천시 새롬공원길 21-1 ,033-263-2948
해가빛,NOT_RECORD,37.9062819773336,127.753126163286,강원특별자치도 춘천시 동면 하일길 186-5 ,033-252-7434
오대산식당,NOT_RECORD,37.674081062353,128.70875040364,강원특별자치도 평창군 대관령면 횡계길 39 ,033-335-6203
브루티풀,NOT_RECORD,38.201246606225,128.577612123336,강원특별자치도 속초시 만천7길 19-18 ,0507-1454-7800
우동하루,NOT_RECORD,37.3332572175667,127.928600578278,강원특별자치도 원주시 능라동길 30 채움빌당,0507-1367-4507
횡성휴게소(강릉방향),NOT_RECORD,37.4626395207876,128.135665200377,강원특별자치도 횡성군 안흥면 영동고속도로 154-1 ,033-342-4231
횡성축협한우프라자(우천점),NOT_RECORD,37.459912,128.06373,강원특별자치도 횡성군 우천면 우항3길 6 ,033-345-6160
한솔가든,NOT_RECORD,37.614277095168745,127.67533016618943,강원특별자치도 홍천군 서면 한서로 2183 ,033-435-0175
소양강양어장,NOT_RECORD,37.925654,127.782966,강원특별자치도 춘천시 동면 소양강로 675 ,033-242-1002
낙천회관,NOT_RECORD,38.201481891003,128.582878645938,강원특별자치도 속초시 수복로 128 ,033-632-1567
팔팔정육점식당,NOT_RECORD,37.4898113824207,127.988186660343,강원특별자치도 횡성군 횡성읍 문정로19번길 20 ,033-342-1822
금강산숯불구이,NOT_RECORD,37.495357,127.98833,강원특별자치도 횡성군 횡성읍 문화체육로 54 ,033-343-3377
충남실비식당,NOT_RECORD,37.173905765668536,128.98964107405138,강원특별자치도 태백시 먹거리길 108 ,033-552-5074
동가래한우셀프점,NOT_RECORD,37.526505,127.908949,강원특별자치도 횡성군 공근면 경강로 1026 ,033-345-8841
친절막국수,NOT_RECORD,37.747756527167,127.947819573665,강원특별자치도 홍천군 화촌면 구룡령로 11 ,033-435-5435
하주골,NOT_RECORD,37.883326,127.756652,강원특별자치도 춘천시 동면 만천로 163 ,033-243-7963
감자골집막국수,NOT_RECORD,37.90295,127.782987,강원특별자치도 춘천시 동면 연산골길 18 ,033-242-7474
오막집(원주점),NOT_RECORD,37.335638,127.957583,강원특별자치도 원주시 치악로 1716-8 ,033-764-3344
황기족발콧등치기동광식당,NOT_RECORD,37.3466619847448,127.941110429286,강원특별자치도 원주시 남산로 110 ,033-766-8825
우리장터,NOT_RECORD,37.34997693487749,127.95011538533755,강원특별자치도 원주시 중앙시장길 20-33 ,033-742-7205
우성닭갈비(퇴계동점),NOT_RECORD,37.855276,127.731891,강원특별자치도 춘천시 우묵들길 33 ,033-242-8484
삼교리동치미막국수(남항진점),NOT_RECORD,37.765597,128.952542,강원특별자치도 강릉시 공항길127번길 42 ,033-653-0993
삼교리동치미막국수(교동점),NOT_RECORD,37.772582,128.877905,강원특별자치도 강릉시 경포로15번길 6-19 ,033-642-3935
삼교리동치미막국수(춘천점),NOT_RECORD,37.911751,127.752656,강원특별자치도 춘천시 동면 춘천순환로 822 ,033-242-9988
테라로사(임당점),NOT_RECORD,37.7548336587405,128.894407610439,강원특별자치도 강릉시 문화의길 9 ,033-648-2710
감자옹심이,NOT_RECORD,38.2110430985462,128.587351633194,강원특별자치도 속초시 번영로105번길 30 ,033-633-8766
함지레스토랑,NOT_RECORD,37.8771159869517,127.723814868169,강원특별자치도 춘천시 중앙로 101 ,033-254-5221
함흥식당,NOT_RECORD,38.44756,128.4568,강원특별자치도 고성군 거진읍 거탄진로 148 ,033-682-1180
하이랜드,NOT_RECORD,37.212194,128.820755,강원특별자치도 정선군 사북읍 하이원길 175 강원랜드 하이원 호텔 지하 1층,033-590-7155
애비로드,NOT_RECORD,38.172754,128.499252,강원특별자치도 속초시 설악산로 998 켄싱턴스타호텔 9층,033-636-5626
알바트로스,NOT_RECORD,38.166943,128.606341,강원특별자치도 속초시 동해대로 3705 호텔마레몬스 11층,033-630-7000
오리엔,NOT_RECORD,37.2118740498975,128.821453729557,강원특별자치도 정선군 사북읍 하이원길 265 강원랜드호텔 4층,033-590-7561
월드퓨전,NOT_RECORD,37.2118740498975,128.821453729557,강원특별자치도 정선군 사북읍 하이원길 265 강원랜드호텔 3층,033-590-7511
모두랑용평셀프한우마을,NOT_RECORD,37.645336,128.682178,강원특별자치도 평창군 대관령면 올림픽로 715 ,033-335-4811
플레이버스레스토랑,NOT_RECORD,37.664221,128.689884,강원특별자치도 평창군 대관령면 솔봉로 325 인터컨티넨탈알펜시아평창리조트 1층,033-339-1302
가조오리숯불구이,NOT_RECORD,38.213991,128.51039,강원특별자치도 고성군 토성면 용원로 650-20 ,033-638-3309
강화가든,NOT_RECORD,37.437482,129.153395,강원특별자치도 삼척시 원당로2길 69 ,033-575-0011
광동민물매운탕,NOT_RECORD,37.350115,128.942359,강원특별자치도 삼척시 하장면 백두대간로 2524 ,033-553-2107
광천숯불구이,NOT_RECORD,37.17771,128.457242,강원특별자치도 영월군 영월읍 하송로 138 ,033-373-1019
너울가지,NOT_RECORD,37.46461,129.1619,강원특별자치도 삼척시 새천년도로 629-27 ,033-574-1277
대승춘,NOT_RECORD,37.441608,129.163294,강원특별자치도 삼척시 대학로 5 ,033-574-3124
대영매운탕,NOT_RECORD,37.12979,128.535965,강원특별자치도 영월군 김삿갓면 영월동로 1131-21 ,033-372-2989
뚱보냉면,NOT_RECORD,37.2287799891602,129.043102922238,강원특별자치도 삼척시 도계읍 도계로 214-1 ,033-541-2319
라스칼라,NOT_RECORD,37.442614,129.164243,강원특별자치도 삼척시 진주로 20 ,033-574-5599
만월정,NOT_RECORD,37.381429,129.233229,강원특별자치도 삼척시 근덕면 방재로 811 ,033-572-8835
미시령본가막국수,NOT_RECORD,38.207098,128.507693,강원특별자치도 고성군 토성면 고성대로 47-7 ,033-635-8788
병천순대,NOT_RECORD,37.4454631933803,129.162952667658,강원특별자치도 삼척시 대학로 49-9 ,033-572-7737
송죽,NOT_RECORD,37.432975,129.167096,강원특별자치도 삼척시 사직로 15-1 ,033-572-9277
어라연송어장횟집,NOT_RECORD,37.242004,128.513055,강원특별자치도 영월군 영월읍 동강로 955 ,033-375-4242
오동나무식당,NOT_RECORD,37.231089369363,129.044916785403,강원특별자치도 삼척시 도계읍 도계로 244-12 ,033-541-4949
원조죽서뚜구리집,NOT_RECORD,37.4383857311652,129.15718108016,강원특별자치도 삼척시 엑스포로 68 ,033-574-5535
하동식당,NOT_RECORD,37.44573,129.1628,강원특별자치도 삼척시 대학로 49-12 ,033-573-8801
대복추어탕,NOT_RECORD,37.321077,127.964832,강원특별자치도 원주시 치악로 1534 ,033-764-0044
토정추어탕,NOT_RECORD,37.38502,127.977315,강원특별자치도 원주시 소초면 치악로 2358 ,033-731-9354
부흥식당,NOT_RECORD,38.219544,128.370269,강원특별자치도 인제군 북면 황태길 367 ,033-462-1900
명동본가닭갈비,NOT_RECORD,37.87911,127.7272,강원특별자치도 춘천시 금강로62번길 14 ,033-241-4400
태강식육실비,NOT_RECORD,37.178947,128.987837,강원특별자치도 태백시 광장로 42 ,033-553-7893
춘천명물닭갈비막국수,NOT_RECORD,37.8700222011856,127.707382387396,강원특별자치도 춘천시 옛경춘로 813 ,033-255-2069
남문,NOT_RECORD,37.791022,127.525405,강원특별자치도 춘천시 남산면 남이섬길 1 ,031-580-8055
갈매기횟집,NOT_RECORD,37.553341,129.119454,강원특별자치도 동해시 일출로 115 ,033-535-0763
부림해물,NOT_RECORD,37.44833,129.185303,강원특별자치도 삼척시 동해대로 3935 ,033-576-0789
단골식당,NOT_RECORD,37.43712,129.186035,강원특별자치도 삼척시 새천년도로 33 ,033-574-1536
매호리느티나무집,NOT_RECORD,37.414944,127.891365,강원특별자치도 원주시 호저면 새매기길 19-7 ,033-732-9785
김정옥할머니순두부(본점),NOT_RECORD,38.205853,128.528363,강원특별자치도 속초시 원암학사평길 187 ,033-636-9877
검봉산칡국수,NOT_RECORD,37.80328,127.6209,강원특별자치도 춘천시 남산면 강촌구곡길 164-6 ,033-261-2986
양구재래식손두부,NOT_RECORD,38.06156,127.982689,강원특별자치도 양구군 양구읍 학안로 6 ,033-482-4475
동일식당,NOT_RECORD,38.0757578700138,128.624128452504,강원특별자치도 양양군 양양읍 남문3길 11-9 ,033-672-1563
옛터숯불닭갈비,NOT_RECORD,37.809216,127.636054,강원특별자치도 춘천시 남산면 강촌구곡길 4 ,033-261-8815
초당본점,NOT_RECORD,38.199127,128.536048,강원특별자치도 속초시 관광로 440 ,033-638-9877
송어회랑 능이삼계탕,NOT_RECORD,37.3754584971886,127.995492310322,강원특별자치도 원주시 소초면 범골길 47-12 ,033-731-3337
시실리아,NOT_RECORD,37.873411,127.744946,강원특별자치도 춘천시 서부대성로227번길 22 ,070-7768-9255
한탄강매운탕,NOT_RECORD,38.1589844243538,127.311525425216,강원특별자치도 철원군 갈말읍 호국로 4910 ,033-452-8878
양구재래식손두부,NOT_RECORD,37.90937,127.781173,강원특별자치도 춘천시 동면 가산로 59 ,033-242-4473
단천면옥,NOT_RECORD,38.189859,128.573848,강원특별자치도 속초시 소평로 131 ,033-637-6677
모래재순메밀꿩막국수닭갈비,NOT_RECORD,37.86562,127.7223,강원특별자치도 춘천시 우묵길 52 ,033-252-7734
남부막국수(별관),NOT_RECORD,37.869454,127.724326,강원특별자치도 춘천시 춘천로 56 ,033-256-7859
흥업순대,NOT_RECORD,37.333447,127.951023,강원특별자치도 원주시 송림길 25 ,033-762-3303
동이네막국수,NOT_RECORD,37.61274,128.3717,강원특별자치도 평창군 봉평면 이효석길 142 ,033-335-1210
삼거리식당,NOT_RECORD,37.4366141727248,129.184374733637,강원특별자치도 삼척시 새천년도로 15 ,033-574-2424
부영각,NOT_RECORD,38.20227,128.5907,강원특별자치도 속초시 중앙로108번길 86 ,033-633-2161
송어의집,NOT_RECORD,37.363779,128.415408,강원특별자치도 평창군 평창읍 아랫상리길 19-4 ,033-332-0505
동해안회대게도매센터,NOT_RECORD,37.55231,129.11443,강원특별자치도 동해시 일출로 61 ,033-533-4474
전주식당,NOT_RECORD,38.110006438188,127.986316894603,강원특별자치도 양구군 양구읍 비봉로 91-23 ,033-481-7922
명산식당,NOT_RECORD,37.1193546761636,128.949738688177,강원특별자치도 태백시 천제단길 178-9 ,033-552-4989
스시심,NOT_RECORD,37.76804,128.876863,강원특별자치도 강릉시 하슬라로206번길 9 ,033-642-1611
평창송어횟집,NOT_RECORD,37.634995,128.561417,강원특별자치도 평창군 진부면 송정택지2길 33-21 ,033-336-2073
이촌쉼터,NOT_RECORD,37.705208,128.71397,강원특별자치도 평창군 대관령면 꽃밭양지길 405 ,033-336-4640
왕박골식당,NOT_RECORD,38.2256898860244,128.586418847621,강원특별자치도 속초시 중앙로 431-1 ,033-632-5524
진미닭갈비(본점),NOT_RECORD,37.868137,127.736693,강원특별자치도 춘천시 백령로 51 ,033-243-2888
황태해장국,NOT_RECORD,37.317224,127.935277,강원특별자치도 원주시 판부면 남원로 329 ,033-745-7722
시래원,NOT_RECORD,38.075023986235,128.02369215941,강원특별자치도 양구군 남면 국토정중앙로 42 ,033-481-4200
설악스케치,NOT_RECORD,38.182851,128.529893,강원특별자치도 속초시 관광로 156 ,033-636-3837
탑골가든,NOT_RECORD,37.750385,127.707284,강원특별자치도 춘천시 남산면 김유정로 427-12 ,033-263-5291
배나무골가마솥칼국수,NOT_RECORD,37.8601996886099,127.729442419853,강원특별자치도 춘천시 국사봉길 2-9 ,033-256-6868
그린막국수,NOT_RECORD,38.1870219240855,128.560048913655,강원특별자치도 속초시 소평로 8 ,033-635-0357
본가황둔웰빙쌀찐빵,NOT_RECORD,37.2620246216043,128.191916708483,강원특별자치도 원주시 신림면 신림황둔로 1237 ,033-764-2015
손병욱베이커리,NOT_RECORD,37.755624,128.893543,강원특별자치도 강릉시 토성로 157 ,033-646-8484
묵호물회,NOT_RECORD,37.5201673148542,129.106855639344,강원특별자치도 동해시 샘실3길 24 ,033-534-0478
토박이할머니순두부,NOT_RECORD,37.788133,128.913507,강원특별자치도 강릉시 초당순두부길 47 ,033-651-9004
남문뚜거리,NOT_RECORD,38.077018,128.624081,강원특별자치도 양양군 양양읍 남문2길 8-2 ,033-671-8329
초우식당,NOT_RECORD,38.104509,127.988934,강원특별자치도 양구군 양구읍 사명길 50-11 ,033-481-2154
부산감자옹심이,NOT_RECORD,37.173345,128.993356,강원특별자치도 태백시 시장안1길 28 자유시장,033-552-4498
수원양희,NOT_RECORD,37.8961781627439,128.832337363877,강원특별자치도 강릉시 주문진읍 등대1길 3-2 ,033-661-6888
티팩토리,NOT_RECORD,37.7004751097054,128.694262657339,강원특별자치도 평창군 대관령면 차항길 162-11 ,033-336-9912
메밀촌,NOT_RECORD,37.875276,127.777327,강원특별자치도 춘천시 동면 금촌로 397-3 ,033-256-0053
수중횟집,NOT_RECORD,37.518814,129.121619,강원특별자치도 동해시 감추6길 34 ,033-535-3815
추암횟집대게,NOT_RECORD,37.477807,129.158981,강원특별자치도 동해시 추암택지길 60 ,033-521-5222
칠형제곰치국,NOT_RECORD,37.55467,129.120291,강원특별자치도 동해시 일출로 131-1 ,033-533-1544
커피커퍼 커피박물관,NOT_RECORD,37.652274,128.784505,강원특별자치도 강릉시 왕산면 왕산로 2171-19 ,033-645-0592
시골집,NOT_RECORD,37.365685,127.831671,강원특별자치도 원주시 지정면 소금산길 40 ,033-732-9541
사천진리물회,NOT_RECORD,37.8383397945593,128.875204024119,강원특별자치도 강릉시 사천면 진리해변길 59-1 ,033-644-0077
수누리감자탕(춘천점),NOT_RECORD,37.861964,127.746312,강원특별자치도 춘천시 우석로 4 ,033-262-7767
홍천강변애,NOT_RECORD,37.724216,127.92755,강원특별자치도 홍천군 홍천읍 홍천로 913-4 ,033-435-7744
토담막국수,NOT_RECORD,37.5019284846561,128.453366896615,강원특별자치도 평창군 대화면 대화5길 4 ,033-333-3553
세실리아,NOT_RECORD,37.766168,128.874827,강원특별자치도 강릉시 하슬라로177번길 8 ,033-642-9797
미탄집,NOT_RECORD,37.183314,128.46674,강원특별자치도 영월군 영월읍 중앙로 30-1 ,033-374-4090
황태사랑,NOT_RECORD,38.212457,128.358938,강원특별자치도 인제군 북면 미시령로 1364 ,033-463-6030
예원,NOT_RECORD,37.86611,127.75938,강원특별자치도 춘천시 세실로 100-12 ,033-244-9467
샘밭닭갈비,NOT_RECORD,37.92971,127.780545,강원특별자치도 춘천시 신북읍 신샘밭로 646 ,033-243-1712
정가네해물찜,NOT_RECORD,37.3276467827112,127.958760731065,강원특별자치도 원주시 단구로 316 ,033-764-8809
소양호어부의집,NOT_RECORD,37.9297377707444,127.780609022649,강원특별자치도 춘천시 신북읍 신샘밭로 638-1 ,033-242-5919
오직한우,NOT_RECORD,37.760867,128.918129,강원특별자치도 강릉시 성덕포남로 70 ,033-652-5715
태백산한우촌,NOT_RECORD,37.176144,128.993016,강원특별자치도 태백시 태백로 911 ,033-553-7001
은혜횟집,NOT_RECORD,38.20445,128.590153,강원특별자치도 속초시 중앙로147번길 16 ,033-637-0744
해림횟집,NOT_RECORD,37.593904,129.088771,강원특별자치도 동해시 동해대로 6270-37 ,033-534-3898
감자바우,NOT_RECORD,37.1759952875545,128.47765480454,강원특별자치도 영월군 영월읍 중앙로 183-1 ,033-373-3600
안흥찐빵,NOT_RECORD,37.411424,128.155631,강원특별자치도 횡성군 안흥면 안흥로 20 ,033-342-8100
석탄회관,NOT_RECORD,37.227584,128.813822,강원특별자치도 정선군 사북읍 사북1길 39 ,033-592-8233
우리흑염소,NOT_RECORD,37.852467,127.752299,강원특별자치도 춘천시 동내면 춘천순환로72번길 34-13 ,033-262-5076
황골양지가든,NOT_RECORD,37.370353,128.00106,강원특별자치도 원주시 소초면 황골로 353 ,033-732-4947
방동막국수,NOT_RECORD,37.952427,128.358475,강원특별자치도 인제군 기린면 조침령로 496 ,033-461-0419
돌기와집,NOT_RECORD,0.0,0.0,강원특별자치도 철원군 갈말읍 갈말로 97-20 ,033-452-5115
두무대송어횟집,NOT_RECORD,37.968665,128.416662,강원특별자치도 인제군 기린면 조침령로 1233 ,033-463-1020
동명활어센타66호,NOT_RECORD,38.210498,128.601301,강원특별자치도 속초시 영금정로 50 ,033-633-0536
횡성한우이야기,NOT_RECORD,37.4597622295094,128.065273017155,강원특별자치도 횡성군 우천면 수남로 355 ,033-343-2080
동일장칼국수,NOT_RECORD,37.765902,128.923427,강원특별자치도 강릉시 강변로534번길 61 ,033-653-2840
영동횟집,NOT_RECORD,38.20445,128.590153,강원특별자치도 속초시 중앙로147번길 16 ,033-633-6220
명가춘천닭갈비막국수,NOT_RECORD,37.707578,127.694084,강원특별자치도 홍천군 서면 팔봉산로 1145 ,033-436-3100
욜크,NOT_RECORD,37.339589,127.925297,강원특별자치도 원주시 만대공원길 50 ,033-742-1972
신가,NOT_RECORD,38.212068,128.598932,강원특별자치도 속초시 동명항길 45 ,033-635-7339
북청닭강정,NOT_RECORD,38.20445,128.590153,강원특별자치도 속초시 중앙로147번길 16 ,033-633-0078
팔도게찜,NOT_RECORD,38.2128188476013,128.598636296103,강원특별자치도 속초시 영금정로 19 ,033-635-4484
토담숯불닭갈비,NOT_RECORD,37.929619679244986,127.7829656433325,강원특별자치도 춘천시 신북읍 신샘밭로 662 ,033-241-5392
자바커피,NOT_RECORD,37.868591,128.845491,강원특별자치도 강릉시 연곡면 해안로 1447 ,070-4259-5568
카페브라질,NOT_RECORD,37.86829,128.846338,강원특별자치도 강릉시 연곡면 해안로 1439 ,033-662-1259
카페카모메,NOT_RECORD,37.7689076648819,128.876018749361,강원특별자치도 강릉시 하슬라로206번길 3-11 ,010-5501-2198
말자네,NOT_RECORD,38.21491202777073,128.59721013438084,강원특별자치도 속초시 영랑해안길 111 ,033-633-7030
고메팔레스,NOT_RECORD,38.201321367381,128.58705463293097,강원특별자치도 속초시 청초호반로 273 2층,033-801-9028
바로방,NOT_RECORD,37.75434,128.895874,강원특별자치도 강릉시 경강로 2092 ,033-646-4621
테라로사(경포호수점),NOT_RECORD,37.78786132820654,128.90750335958188,강원특별자치도 강릉시 난설헌로 145 ,033-648-2760
대동면옥(강릉점),NOT_RECORD,37.7737901587242,128.891099556147,강원특별자치도 강릉시 종합운동장길 26-8 ,033-644-6008
9남매두부집,NOT_RECORD,37.78692909364905,128.9138813281272,강원특별자치도 강릉시 초당원길 63-2 ,033-653-9909
디어블랙커피컴퍼니,NOT_RECORD,37.3639649115042,128.01170789381794,강원특별자치도 원주시 소초면 황골로 467-1 ,033-731-2522
토우커피,NOT_RECORD,37.3443556164807,128.009381359171,강원특별자치도 원주시 행구로 482 ,010-4747-2742
카페파이프,NOT_RECORD,37.34991925407203,127.9465211960446,강원특별자치도 원주시 일산로 9-1 ,010-7754-4267
카페1001-8,NOT_RECORD,38.107683441454085,128.03314956583273,강원특별자치도 양구군 남면 정중앙로 606-6 ,010-9838-4052
크로프트커피,NOT_RECORD,37.8779013634044,127.722371649823,강원특별자치도 춘천시 가연길16번길 6 ,033-255-1176
함흥막국수,NOT_RECORD,38.2004313775811,128.582422909246,강원특별자치도 속초시 중앙로54번길 3 ,033-632-6707
대포면옥,NOT_RECORD,38.1760092661427,128.602117218122,강원특별자치도 속초시 설악산로4번길 163-11 ,033-632-6688
칠성조선소,NOT_RECORD,38.1982448569158,128.583369029166,강원특별자치도 속초시 중앙로46번길 45 ,033-633-2309
솔밭가든막국수,NOT_RECORD,38.1893069175713,128.594299237043,강원특별자치도 속초시 부월1길 17 ,033-631-2918
산마을,NOT_RECORD,38.2030101283988,128.346900510055,강원특별자치도 인제군 북면 미시령로 1205-20 ,033-462-2580
성호식당,NOT_RECORD,37.1825865651719,128.480034409465,강원특별자치도 영월군 영월읍 영월로 2101 ,033-374-3215
살롱드림,NOT_RECORD,37.1838900297539,128.472796058116,강원특별자치도 영월군 영월읍 봉래산로 4 ,010-3117-2583
종로1973,NOT_RECORD,37.8536228034909,127.754826827456,강원특별자치도 춘천시 동내면 춘천순환로72번길 33-14 ,010-2500-8025
코와붕가,NOT_RECORD,38.0224801670315,128.72450819143,강원특별자치도 양양군 현북면 하조대해안길 31 1층 ,033-671-1300
신세계춘천정통닭갈비,NOT_RECORD,37.9254745305905,127.753434709757,강원특별자치도 춘천시 신북읍 신샘밭로 388-8 ,033-244-7575
보사노바커피로스터스,NOT_RECORD,37.7720449256901,128.947839827855,강원특별자치도 강릉시 창해로14번길 28  ,033-653-0038
소울브릿지,NOT_RECORD,38.2598078699028,128.559296317137,강원특별자치도 고성군 토성면 천진해변길 33 ,033-633-2300
보사노바커피로스터스(속초점),NOT_RECORD,38.1885522085187,128.603809095357,강원특별자치도 속초시 해오름로 161 ,033-635-0038
보사노바커피로스터스(삼척점),NOT_RECORD,37.4657460742469,129.171435882985,강원특별자치도 삼척시 새천년도로 517 ,033-573-0338
라꼬시나,NOT_RECORD,37.791449758958,128.914612776422,강원특별자치도 강릉시 난설헌로 228-13 ,033-652-1006
소울로스터리,NOT_RECORD,37.9237084085176,127.765087165925,강원특별자치도 춘천시 동면 소양강로 510 ,033-253-7876
옐로우트리카페,NOT_RECORD,37.3761877311125,128.521745456144,강원특별자치도 평창군 미탄면 평안한치길 505-94 ,010-4066-4291
천매막국수&어사또왕족발보쌈,NOT_RECORD,37.3208803865341,127.945445334115,강원특별자치도 원주시 판부면 매봉길 49 ,033-761-8233
강릉유환식당,NOT_RECORD,37.784387623574,128.920264809932,강원특별자치도 강릉시 강릉대로587번길 2  ,033-652-1123
남경막국수,NOT_RECORD,37.8983155987917,128.833526505706,강원특별자치도 강릉시 주문진읍 등대길 32 ,033-662-7888
메이트힐 더 로스터리카페,NOT_RECORD,38.1979504456208,128.569883772807,강원특별자치도 속초시 청대로351번길 18 메이트힐 3층,070-8807-0815
대흥정육식당,NOT_RECORD,37.4894651292957,127.987314969834,강원특별자치도 횡성군 횡성읍 읍상서로5번길 15 ,033-343-2312
오늘의숲,NOT_RECORD,38.1888509613785,128.588562065972,강원특별자치도 속초시 선사로4길 32-1 ,010-4033-7443
황정숙막국수,NOT_RECORD,37.5072623292481,129.122459136783,강원특별자치도 동해시 중앙로 42 ,033-535-5545
남경막국수(속초점),NOT_RECORD,38.1821331548355,128.601625942964,강원특별자치도 속초시 동해대로 3888 ,033-633-1060
고등어랑,NOT_RECORD,38.4483715526695,128.458328226343,강원특별자치도 고성군 거진읍 거탄진로 166  ,033-682-1005
큰집횟집,NOT_RECORD,38.2251214285408,128.588226959498,강원특별자치도 속초시 중앙로416번길 5 ,033-632-2177
성심어린(강릉점),NOT_RECORD,37.7681458675843,128.878181176749,강원특별자치도 강릉시 하슬라로206번길 19-4 ,033-641-9285
차이나웍,NOT_RECORD,37.5296406778276,129.117438668673,강원특별자치도 동해시 평원5길 12 ,033-535-0105
암스퀘어커피로스터스,NOT_RECORD,37.3496970546059,127.943353594722,강원특별자치도 원주시 천사로 172 101호,010-3305-5240
차이나웍2 ,NOT_RECORD,37.4800230906531,129.121176258487,강원특별자치도 동해시 전천로 260-7 ,033-522-0106
세렝게티커피,NOT_RECORD,38.2050128910618,128.578157261019,강원특별자치도 속초시 교동로7길 8 ,010-4807-8111
뜰애홍합밥,NOT_RECORD,37.4654164643678,129.16269572355,강원특별자치도 삼척시 새천년도로 615 ,033-573-9544
강냉이소쿠리,NOT_RECORD,37.8815680174752,128.831631169483,강원특별자치도 강릉시 주문진읍 학교담길 32-8 ,033-098-7654
자유빵집,NOT_RECORD,37.8858353771698,127.752166583277,강원특별자치도 춘천시 만천로199번길 28 ,033-911-9871
주문진항#20,NOT_RECORD,37.7699598306712,128.916099003935,강원특별자치도 강릉시 하평길 68 ,033-651-1144
삼척보스대게,NOT_RECORD,37.4669709124289,129.169668227535,강원특별자치도 삼척시 테마타운길 39 ,010-2163-8784
갈매기다방,NOT_RECORD,37.8703181279392,128.842976758593,강원특별자치도 강릉시 연곡면 영진길 63 ,010-9110-1874
초당모꼬지,NOT_RECORD,37.7898284261825,128.914641077556,강원특별자치도 강릉시 난설헌로 228-34 초당모꼬지,070-8287-1361
솔바람물소리,NOT_RECORD,37.1200824666253,128.951247926904,강원특별자치도 태백시 천제단길 166 ,033-552-2440
새말토종순대,NOT_RECORD,37.4494535127144,128.077562799449,강원특별자치도 횡성군 우천면 우항새말길 20-16 ,033-342-6469
만강홍,NOT_RECORD,37.5259038205765,129.11622713311,강원특별자치도 동해시 평원로 20 ,033-532-5644
어느날디저트,NOT_RECORD,37.1836666642528,128.469474455027,강원특별자치도 영월군 영월읍 중앙로 51 ,033-370-0000
저문강에삽을씻고,NOT_RECORD,37.4993760594158,127.992211169132,강원특별자치도 횡성군 횡성읍 화성로 104 ,033-343-0125
페이보릿,NOT_RECORD,37.9675494160012,128.761944369353,강원특별자치도 양양군 현남면 인구길 38 ,0507-1495-5607
퇴골집오리본점,NOT_RECORD,37.8933194322583,127.760361512218,강원특별자치도 춘천시 동면 춘천로 492-14 ,033-253-0506
미트컬쳐,NOT_RECORD,37.7721403195664,128.946793831304,강원특별자치도 강릉시 경강로 2629 ,0507-1318-5439
엔킥바이포에스트,NOT_RECORD,37.2785197965884,127.909403507255,강원특별자치도 원주시 흥업면 세동길 10-30 ,010-2825-7198
경성포차,NOT_RECORD,37.7905471968887,128.920937237098,강원특별자치도 강릉시 해안로 280 ,033-652-6548
신피디통큰생선구이,NOT_RECORD,38.2027217413272,128.592052726955,강원특별자치도 속초시 청초호반로 322 신피디 통큰 생선구이,033-638-3805
이태원왕갈비,NOT_RECORD,38.1184520629514,128.630466383864,강원특별자치도 양양군 강현면 일출로 15-1 ,033-673-4396
참순찰떡방(포남동본점),NOT_RECORD,37.7627245407524,128.905308717024,강원특별자치도 강릉시 남구길5번길 18-1 ,0507-1362-7844
화람한우,NOT_RECORD,37.8726467292822,127.70769343784,강원특별자치도 춘천시 수변공원길 11 ,033-242-1510
꼭지네식당,NOT_RECORD,37.7256171568415,128.97796978901,강원특별자치도 강릉시 강동면 대동안길 15 ,033-644-6175
강릉홍가네옹심이,NOT_RECORD,37.7433561543034,128.881783312308,강원특별자치도 강릉시 범일로 629 1층,033-641-5353
황금돼지저금통,NOT_RECORD,37.8593635853866,127.727905345476,강원특별자치도 춘천시 춘주로 186 ,033-255-9004
애식주,NOT_RECORD,37.8634223909307,127.733087153528,강원특별자치도 춘천시 퇴계로93번길 20-29 ,010-2623-9528
하누성(횡성본점),NOT_RECORD,37.5092700882077,128.226998633433,강원특별자치도 횡성군 둔내면 고원로 215 ,033-345-0006
이진리,NOT_RECORD,37.7620507744671,128.892568075039,강원특별자치도 강릉시 임영로 234 ,0507-1359-1990
몽그리즈치즈카페,NOT_RECORD,37.3697232098627,127.998489474515,강원특별자치도 원주시 소초면 하황골길 45-25 ,0507-1396-6464
금옥,NOT_RECORD,37.9229090212663,127.80680948061,강원특별자치도 춘천시 동면 금옥길 289-27 ,033-241-1791
심야화로,NOT_RECORD,37.8620977833607,127.731241841082,강원특별자치도 춘천시 퇴계로 97 1층,010-9980-2928
메밀꽃사랑,NOT_RECORD,37.6154287858689,128.370434784437,강원특별자치도 평창군 봉평면 메밀꽃길 17 ,033-336-6636
초당110,NOT_RECORD,37.7922884465968,128.917115241913,강원특별자치도 강릉시 초당순두부길 110 ,0507-1316-8624
비와별닭갈비본점,NOT_RECORD,37.8498477590094,127.749035333961,강원특별자치도 춘천시 스무숲길 5 ,033-262-8899
강릉 한우원,NOT_RECORD,37.7594737077429,128.898538198554,강원특별자치도 강릉시 옥천로65번길 3 ,010-9989-2592
비와별닭갈비(소양강점),NOT_RECORD,37.9299961214457,127.788679961355,강원특별자치도 춘천시 신북읍 신샘밭로 710 ,033-262-9882
마지쿠키,NOT_RECORD,37.3277410838969,127.983777279829,강원특별자치도 원주시 양지뜰4길 13 1층 마지쿠키,033-900-0815
송죽원,NOT_RECORD,37.7841162307014,128.904037773857,강원특별자치도 강릉시 난설헌로88번길 5 ,033-651-4225
감자바위한우,NOT_RECORD,37.8765790259628,127.753312936019,강원특별자치도 춘천시 보안길 17 ,033-252-0953
원주장진우식당,NOT_RECORD,37.3475963965473,127.951260898583,강원특별자치도 원주시 감영길 28 1층,010-8384-9010
라타르타,NOT_RECORD,37.8875844320993,127.776340574548,강원특별자치도 춘천시 동면 순환대로 1154-53 ,033-253-3420
수미감자탕,NOT_RECORD,37.3376759578669,127.927375691123,강원특별자치도 원주시 만대공원길 21 1층,033-743-4858
갯배피자,NOT_RECORD,38.2020785505077,128.591222953079,강원특별자치도 속초시 청초호반로 312 갯배피자,070-4274-5600
팡파미유,NOT_RECORD,37.8844364402021,128.825027405505,강원특별자치도 강릉시 주문진읍 주문로 7 ,033-662-3680
홍시,NOT_RECORD,37.6492093553475,127.652234653488,강원특별자치도 홍천군 서면 팔봉산로 96 홍천 홍시,010-3835-0339
중앙닭강정(엑스포직영점),NOT_RECORD,38.1961651305965,128.581010555104,"강원특별자치도 속초시 엑스포로 135-5 제 1동, 중앙닭강정 엑스포직영점",0507-1383-3511
이자카야공작,NOT_RECORD,37.6970703898358,127.900379632699,강원특별자치도 홍천군 홍천읍 갈마로7길 34 1층,033-433-2790
스시카이토,NOT_RECORD,37.7834491282873,128.916863885661,강원특별자치도 강릉시 초당원길 17 ,0507-1431-2535
