name,ribbonType,latitude,longitude,address,phone
이레옥,RIBBON_TWO,35.154195,129.146306,부산광역시 해운대구 마린시티3로 51 더샵해운대아델리스 상가,051-742-6421  
옛날오막집,RIBBON_TWO,35.108997,129.019853,부산광역시 서구 구덕로274번길 14 ,051-243-6973  
동래할매파전,RIBBON_TWO,35.204619,129.083825,부산광역시 동래구 명륜로94번길 43-10 ,051-552-0792  
거대갈비,RIBBON_TWO,35.161575,129.166947,부산광역시 해운대구 달맞이길 22 ,051-746-0037  
히떼로스터리,RIBBON_TWO,35.1557529453563,129.06820567163,부산광역시 부산진구 동성로 59 ,070-7607-7060  
율링,RIBBON_TWO,35.1588665231625,129.170591418833,부산광역시 해운대구 달맞이길62번길 28 미포오션사이드호텔 2층,051-741-3323  
마이클어반팜테이블,RIBBON_TWO,35.1762346398621,129.115567097586,부산광역시 수영구 구락로123번길 20 F1963 4층,051-602-8650  
동백섬횟집,RIBBON_TWO,35.160415,129.154677,부산광역시 해운대구 해운대해변로209번나길 17 ,051-741-3888  
차오란,RIBBON_TWO,35.1613327099223,129.168013841974,부산광역시 해운대구 달맞이길 30 시그니엘 부산 5층,051-922-1250  
팔레드신,RIBBON_TWO,35.1600663074705,129.163127599383,부산광역시 해운대구 해운대해변로 292 그랜드조선부산 호텔 5층,051-922-5100  
팔레트,RIBBON_TWO,35.1316369588506,129.119770650931,부산광역시 남구 분포로 66-30 3층,051-626-2364  
모즈,RIBBON_TWO,35.157037795554,129.143328681551,부산광역시 해운대구 마린시티2로 38 해운대아이파크 주동2동 T2R 판매시설 201호,051-747-5048  
목장원,RIBBON_TWO,35.071622,129.057311,부산광역시 영도구 절영로 355 ,051-404-5000  
사까에,RIBBON_TWO,35.160192,129.165253,부산광역시 해운대구 해운대해변로 296 파라다이스호텔부산 본관 3층,051-749-2248  
모모스커피,RIBBON_TWO,35.219232,129.086487,부산광역시 금정구 오시게로 20 ,051-512-0700
아오모리,RIBBON_TWO,35.167807,129.132831,부산광역시 해운대구 센텀3로 20 해운대센텀호텔 3층,051-720-8201  
동경밥상,RIBBON_TWO,35.1483944403014,129.11385120473,부산광역시 수영구 남천바다로 34-6 ,070-7576-1428  
블랙업커피,RIBBON_TWO,35.156058,129.060001,부산광역시 부산진구 서전로10번길 41 ,051-944-4952  
하레마,RIBBON_TWO,35.1572036560166,129.144817207267,"부산광역시 해운대구 마린시티2로 33 해운대두산위브더제니스 지하 1층, 106호",0507-1354-6558  
오륙도가원,RIBBON_TWO,35.10677,129.1115,부산광역시 남구 백운포로 14 ,051-635-0707  
랩24바이쿠무다,RIBBON_TWO,35.177434696318,129.197177089995,부산광역시 해운대구 송정광어골로 41 쿠무다명상문화센터 4층,051-701-1301  
무궁화,RIBBON_TWO,35.156853,129.056647,부산광역시 부산진구 가야대로 772 롯데호텔부산 43층,051-810-6330  
언양불고기부산집,RIBBON_TWO,35.148042,129.11369,부산광역시 수영구 남천바다로 32 ,051-754-1004  
베르크로스터스,RIBBON_TWO,35.1526155103264,129.066281137311,부산광역시 부산진구 서전로58번길 115 ,051-817-2111  
남풍,RIBBON_TWO,35.160192,129.165253,부산광역시 해운대구 해운대해변로 296 파라다이스호텔부산 신관 3층,051-749-2260  
젠스시,RIBBON_TWO,35.170806,129.171487,부산광역시 해운대구 대천로42번길 28-5 ,051-746-7456  
도림,RIBBON_TWO,35.156854,129.05579,부산광역시 부산진구 가야대로 772 롯데호텔부산 43층,051-810-6340  
거대곰탕,RIBBON_TWO,35.153006221653,129.059606320437,부산광역시 부산진구 중앙대로 672 삼정타워,051-809-2223  
모모야마,RIBBON_TWO,35.156853,129.056647,부산광역시 부산진구 가야대로 772 롯데호텔부산 43층,051-810-6360  
이타쇼,RIBBON_ONE,35.1518415819748,129.116897372933,부산광역시 수영구 광안해변로 197 ,0507-1396-1975  
원산면옥,RIBBON_ONE,35.098971,129.031071,부산광역시 중구 광복로 56-8 ,051-245-2310  
라이옥,RIBBON_ONE,35.1382755065968,129.104077367087,부산광역시 남구 용소로7번길 76 ,0507-1449-8011  
모리,RIBBON_ONE,35.160201591128,129.166579258799,부산광역시 해운대구 해운대해변로298번길 24 팔레드시즈 ,0507-1349-9891
부산족발,RIBBON_ONE,35.0995614535287,129.02664680754,부산광역시 중구 광복로 13-1 ,051-245-5359  
영변횟집,RIBBON_ONE,35.1828881155471,129.205520295074,부산광역시 해운대구 송정강변로 15 ,051-703-7590  
뉼리,RIBBON_ONE,35.1551342050388,129.124005331974,부산광역시 수영구 민락수변로 7 ok타운 8층,010-5381-8102  
신기산업카페,RIBBON_ONE,35.0880587481424,129.06093733221,부산광역시 영도구 와치로51번길 2 ,070-8230-1116  
탐복,RIBBON_ONE,35.2828405392621,129.25761706663,부산광역시 기장군 일광읍 문오성길 31 ,051-727-4213  
금랑횟집,RIBBON_ONE,35.1551800271003,129.131030467408,부산광역시 수영구 광안해변로344번길 17-5  마린리치 6층,051-752-5209  
해목,RIBBON_ONE,35.161820360403,129.159655134617,부산광역시 해운대구 구남로24번길 8 ,0507-1385-3730  
나가하마만게츠,RIBBON_ONE,35.1666896767145,129.157451291448,부산광역시 해운대구 우동1로 57 대영빌딩1층,051-731-0886  
아쁘앙,RIBBON_ONE,35.1986613756611,129.221107738456,부산광역시 기장군 기장읍 기장해안로 267-7 클리퍼B 1층,051-662-7086
제로베이스,RIBBON_ONE,35.1574108535091,129.120957248578,부산광역시 수영구 민락로33번길 17 ,0507-1300-0326  
스미비야키파도,RIBBON_ONE,35.1548762114023,129.119164475633,부산광역시 수영구 광안로61번길 5 ,010-7934-3728  
규우정,RIBBON_ONE,35.160201591128,129.166579258799,부산광역시 해운대구 해운대해변로298번길 24 팔레드시즈 2층 2-3호,051-747-9229  
원조꼬리곰집,RIBBON_ONE,35.2160395437485,129.080942043105,부산광역시 동래구 온천장로 52 1층 ,051-552-1106  
트레져스커피,RIBBON_ONE,35.1557195610927,129.067104920194,부산광역시 부산진구 전포대로216번길 28 ,051-915-0204  
커피스페이스바,RIBBON_ONE,35.145626965806,129.067534638427,부산광역시 남구 황령대로74번길 95 ,051-912-7576  
머그디저트랩,RIBBON_ONE,35.157037795554,129.143328681551,부산광역시 해운대구 마린시티2로 38 해운대아이파크 C2 상가 3층 301호,070-4099-8074  
레스베러,RIBBON_ONE,35.2041320833556,129.079154377407,부산광역시 동래구 충렬대로 173 2층,010-6832-3766  
은해갈치,RIBBON_ONE,35.1570058452744,129.125908288209,부산광역시 수영구 광안해변로295번길 4-7 ,051-925-2524  
칠암사계,RIBBON_ONE,35.2998246855164,129.259159523105,부산광역시 기장군 일광면 칠암1길 7-10 ,051-727-4900  
보느파티쓰리,RIBBON_ONE,35.1952680699079,129.078939381831,부산광역시 연제구 교대로 7 ,051-502-2451  
카페젤라떼리아,RIBBON_ONE,35.1551346198254,129.130845493475,부산광역시 수영구 광안해변로344번길 17-3 베네치아 빌딩 1층,051-754-3106  
무슈뱅상,RIBBON_ONE,35.1463730323694,129.112923396395,부산광역시 수영구 광남로48번길 19 ,051-625-1125  
야키토리해공,RIBBON_ONE,35.1582366420697,129.127113877846,부산광역시 수영구 민락본동로19번길 30-5 ,0507-1479-8334  
이재모피자,RIBBON_ONE,35.1021001982297,129.030579760489,부산광역시 중구 광복중앙로 31 중앙아파트 상가 1층,051-245-1478  
영남돼지,RIBBON_ONE,35.1600053936274,129.155415309483,부산광역시 해운대구 해운대해변로209번가길 13 ,051-747-4228  
해운대밀면,RIBBON_ONE,35.1634173704986,129.165623847105,부산광역시 해운대구 중동2로10번길 21 ,051-743-0392  
동남횟집,RIBBON_ONE,35.1844997475583,129.211331443199,부산광역시 기장군 기장읍 공수해안길 15 ,051-721-4044  
611우드파이어,RIBBON_ONE,35.1477112784785,129.108888435311,부산광역시 수영구 황령산로 14-1 ,0507-1318-6539  
겐츠베이커리본점,RIBBON_ONE,35.1268954263812,129.109627235385,부산광역시 남구 분포로 111 엘지메트로시티,051-612-2040  
고기형,RIBBON_ONE,35.1668023507704,129.113717276496,부산광역시 수영구 수영로679번길 22 ,0507-1445-9312  
브리앙,RIBBON_ONE,35.2217566034894,129.083561526107,부산광역시 동래구 온천장로119번길 26 ,010-8549-5709  
방파제,RIBBON_ONE,0.0,0.0,부산광역시 수영구 광안해변로294번길 24 ,051-753-7325  
달타이,RIBBON_ONE,35.1583076744908,129.18232691377,부산광역시 해운대구 달맞이길 193 ,0507-1403-1127  
디젤앤카멜리아스 ,RIBBON_ONE,35.1639816443536,129.157214149098,부산광역시 해운대구 우동1로20번길 11 ,010-2361-1494  
스시시안,RIBBON_ONE,35.1678450471667,129.130962834729,"부산광역시 해운대구 센텀1로 9 롯데갤러리움센텀 E동, 2층 210호",051-611-2684  
라호짬뽕,RIBBON_ONE,35.1560041848855,129.146859199299,부산광역시 해운대구 마린시티1로 137 ,051-731-1222  
톤쇼우,RIBBON_ONE,35.1564423185533,129.124785928587,부산광역시 수영구 광안해변로279번길 13 ,051-752-7978  
만선참가자미회전문점,RIBBON_ONE,35.211131130309,129.00615094998,부산광역시 북구 금곡대로8번길 19 ,0507-1386-8800  
명가양꼬치,RIBBON_ONE,35.2462489639252,129.216230389223,부산광역시 기장군 기장읍 차성로322번길 43 ,0503-5339-1007  
미각반점,RIBBON_ONE,35.228923670893,129.084924015682,부산광역시 금정구 장전로 38 ,051-512-6108  
바오하우스,RIBBON_ONE,35.1548859834433,129.063342492016,부산광역시 부산진구 서전로38번길 62-9 ,0507-1324-1031  
백산키친,RIBBON_ONE,35.1387281351032,129.06345343296,부산광역시 동구 조방로 14 ,051-635-8219  
부산정,RIBBON_ONE,35.1433406570452,129.055805544287,부산광역시 부산진구 신암로 13-1 ,010-6686-0878  
브레드365,RIBBON_ONE,35.1358161193851,129.086334064016,부산광역시 남구 못골로41번길 13 대연2차동원로얄듀크,051-711-1951  
스케줄해운대,RIBBON_ONE,35.1604439324117,129.162247021768,부산광역시 해운대구 해운대해변로 287 씨클라우드,051-741-1228  
리오네,RIBBON_ONE,35.1715965724359,129.120035876905,부산광역시 수영구 구락로 36 ,051-753-0202  
빈스톡,RIBBON_ONE,35.0709802454456,129.016122498804,부산광역시 서구 암남공원로 56 ,051-243-1239  
초필살돼지구이,RIBBON_ONE,35.1566471472902,129.146930632686,부산광역시 해운대구 마린시티3로 23 벽산이오렌지프라자,051-747-5571  
산동완탕교자관,RIBBON_ONE,35.1226525525869,129.045269995971,부산광역시 동구 중앙대로296번길 11 ,070-8240-2385  
새총횟집,RIBBON_ONE,35.2056976186142,129.124478849782,부산광역시 해운대구 반여로155번길 25 ,0507-1314-8333  
야키토리백탄,RIBBON_ONE,35.1560144578186,129.122478226524,부산광역시 수영구 민락로 7-5 ,0507-1332-6043  
우봉샤브,RIBBON_ONE,35.1607762403214,129.192693453494,부산광역시 해운대구 청사포로 127 ,0507-1349-9256  
우토피아,RIBBON_ONE,35.1551646233162,129.121164349434,부산광역시 수영구 광안해변로 249 ,0507-1388-3199  
의령돼지국밥,RIBBON_ONE,35.2020308646942,129.086914613782,부산광역시 동래구 명륜로98번길 65 ,051-555-4765  
제일횟집,RIBBON_ONE,35.2051119844538,129.081839221506,부산광역시 동래구 삼성대길 34-21 ,051-553-7800  
타카라멘,RIBBON_ONE,35.1554009645619,129.055156037034,부산광역시 부산진구 중앙대로691번가길 25-5 ,0507-1429-8521  
이영식옛날돈까스,RIBBON_ONE,35.1841885048834,129.079498634797,부산광역시 연제구 중앙대로1075번길 7 ,051-852-2577  
봉식당,RIBBON_ONE,35.2217566034894,129.083561526107,부산광역시 동래구 온천장로119번길 26 ,051-556-9911  
남포설렁탕,RIBBON_ONE,35.0984667361187,129.032043057012,부산광역시 중구 구덕로34번길 5 ,051-255-2263  
화남정돼지국밥,RIBBON_ONE,35.1750912324192,129.054956262122,부산광역시 부산진구 성지로 50 ,051-809-8853  
스시쿠도쿠,RIBBON_ONE,35.2085957616265,129.008304541422,부산광역시 북구 의성로128번길 56 2층,010-5026-5971  
램지,RIBBON_ONE,35.1569650933316,129.120821242473,부산광역시 수영구 광안해변로255번길 45 ,0507-1446-3135  
바닷마을과자점,RIBBON_ONE,35.1460920097159,129.114118806297,부산광역시 수영구 광남로48번길 43 ,0507-1314-8780  
음주양식당오스테리아어부,RIBBON_ONE,35.15393617856878,129.06257950408977,부산광역시 부산진구 동천로 58 ,051-802-8858  
디저트시네마,RIBBON_ONE,35.17626406917965,129.09049003992527,부산광역시 연제구 쌍미천로 32-1 ,051-867-5757  
스트럿커피 ,RIBBON_ONE,35.1540996887899,129.066832410219,부산광역시 부산진구 동성로39번길 28 ,070-8840-2635
누아쥬앤모찌꼬,RIBBON_ONE,35.1562465441926,129.11822455579,부산광역시 수영구 광안로49번길 25 ,051-914-0894  
맥퀸즈라운지,RIBBON_ONE,35.19819262814359,129.22858278039445,부산광역시 기장군 기장읍 기장해안로 268-32 힐튼부산호텔 10층,051-509-1371  
복순도가F1963,RIBBON_ONE,35.176727,129.115267,부산광역시 수영구 구락로123번길 20 F1963,051-757-2963  
슌사이쿠보,RIBBON_ONE,35.24088265732257,129.01470439051528,부산광역시 북구 양달로4번길 17 금샘빌딩 1층,051-365-2959  
웨이브온,RIBBON_ONE,35.322270040272926,129.269779558861,부산광역시 기장군 장안읍 해맞이로 286 ,051-727-1660  
모티,RIBBON_ONE,35.1265644969754,129.039337916419,부산광역시 동구 망양로 669 ,051-469-8253  
밤나무집,RIBBON_ONE,35.2684151426294,129.148538005304,부산광역시 기장군 철마면 개좌로 763-15 ,051-721-9048  
먼스커피바,RIBBON_ONE,35.1581324184655,129.067912588795,부산광역시 부산진구 동성로87번길 5 ,0507-1351-1850  
미미루,RIBBON_ONE,35.2194947299668,129.082953641258,부산광역시 동래구 온천장로 91-1 ,051-555-6609  
르꽁비브,RIBBON_ONE,35.176675,129.12544,부산광역시 해운대구 센텀북대로 60 센텀IS타워,051-783-3693  
제일장횟집,RIBBON_ONE,35.15551931105345,129.1265241125179,부산광역시 수영구 민락수변로7번길 60 e편한세상 광안비치 2층,051-752-9252  
무진장횟집,RIBBON_ONE,35.216991,129.22612,부산광역시 기장군 기장읍 연화1길 137 ,051-721-2956  
라꽁띠,RIBBON_ONE,35.162568,129.188998,부산광역시 해운대구 청사포로 85 ,051-701-7890  
빠따슈,RIBBON_ONE,35.16838202402967,129.1557916049448,부산광역시 해운대구 우동1로85번길 8 1층,051-731-2459  
가가와,RIBBON_ONE,35.14476633932806,129.05980269865856,부산광역시 부산진구 중앙번영로 6 ,051-634-5303  
해성막창집,RIBBON_ONE,35.163905,129.163292,부산광역시 해운대구 중동1로19번길 29 ,051-731-3113  
의령식당,RIBBON_ONE,35.16646,129.158315,부산광역시 해운대구 우동1로50번길 15 ,051-746-9661  
마라톤집,RIBBON_ONE,35.155111,129.05712,부산광역시 부산진구 가야대로784번길 54 ,051-806-5914  
커피어웨이크,RIBBON_ONE,35.229839,129.083827,부산광역시 금정구 부산대학로63번길 46-4 ,051-517-5721  
삼오불고기,RIBBON_ONE,35.160026,129.114907,부산광역시 수영구 수영로610번길 24-2 ,051-754-3610  
홍소족발,RIBBON_ONE,35.09955021929684,129.02747473681845,부산광역시 중구 광복로 21-2 ,051-257-2575  
서진섭돼지국밥,RIBBON_ONE,35.1019367993296,129.029343284082,부산광역시 중구 광복로39번길 30-1 ,051-254-5074  
영진돼지국밥,RIBBON_ONE,35.096635,128.957881,부산광역시 사하구 하신번영로157번길 39 ,051-206-3820  
비비비당,RIBBON_ONE,35.162483,129.185075,부산광역시 해운대구 달맞이길 239-16 ,051-746-0705  
깃발집,RIBBON_ONE,35.220434,129.083865,부산광역시 동래구 온천장로107번길 10 혜원빌딩 2층,051-553-4012  
이랴이랴(남산점),RIBBON_ONE,35.260716,129.091198,부산광역시 금정구 중앙대로 1975 ,051-517-1003  
상황삼계탕오리불고기,RIBBON_ONE,35.174115,129.173588,부산광역시 해운대구 좌동로91번길 45 1층,051-703-5298  
고옥,RIBBON_ONE,35.143608,129.109723,부산광역시 수영구 광남로 6 ,051-622-1638  
일광양곱창,RIBBON_ONE,35.09705328557333,129.02783833604138,부산광역시 중구 자갈치로 33 ,051-243-4909  
산해갈비,RIBBON_ONE,35.102328,129.029084,부산광역시 중구 광복로39번길 35 ,051-245-1622  
석화한정식,RIBBON_ONE,35.13878,129.062,부산광역시 동구 조방로 21 ,051-632-5005  
춘하추동밀면,RIBBON_ONE,35.161473,129.055536,부산광역시 부산진구 서면문화로 48-1 ,051-809-8659  
마당집,RIBBON_ONE,35.156286,129.054516,부산광역시 부산진구 부전로 69 ,051-806-8602  
양산국밥,RIBBON_ONE,35.167854,129.172718,부산광역시 해운대구 좌동로10번길 75 ,051-703-3544  
합천국밥집,RIBBON_ONE,35.1112444649127,129.111258148054,부산광역시 남구 용호로 235 ,051-628-4898  
기장방우횟집,RIBBON_ONE,35.241416,129.094242,부산광역시 금정구 오륜대로 15 ,051-581-4346  
거북선횟집,RIBBON_ONE,0.0,0.0,부산광역시 해운대구 달맞이길62번길 69 ,051-741-8850  
대관원,RIBBON_ONE,35.2067468230822,129.07616994053,부산광역시 동래구 충렬대로137번길 30 ,051-554-0334  
셔블,RIBBON_ONE,35.15596,129.153982,부산광역시 해운대구 동백로 67 부산웨스틴조선호텔 해변층,051-749-7437  
60년전통할매국밥,RIBBON_ONE,35.141016,129.056196,부산광역시 동구 중앙대로533번길 4 ,051-646-6295  
태백관,RIBBON_ONE,35.201803,129.090884,부산광역시 동래구 충렬대로285번길 31 ,051-556-6663  
밀양국밥,RIBBON_ONE,35.1639567195984,128.984242057254,부산광역시 사상구 사상로212번길 6 ,051-311-1270  
새진주식당,RIBBON_ONE,35.104775,129.024922,부산광역시 중구 흑교로 60 ,051-256-9110  
원조18번완당발국수,RIBBON_ONE,35.10571260795181,129.02045116768213,부산광역시 서구 구덕로238번길 6 ,051-256-3391  
우미,RIBBON_ONE,35.157204455063585,129.1448178866254,부산광역시 해운대구 마린시티2로 33 해운대두산위브더제니스 A동 127-1 ,010-8901-9315  
동화반점,RIBBON_ONE,35.105793,129.023468,부산광역시 중구 흑교로75번길 3 ,051-253-6661  
못난이식당,RIBBON_ONE,35.244614654136484,129.21524366029482,부산광역시 기장군 기장읍 차성동로73번길 12 ,051-722-2527  
비엔씨,RIBBON_ONE,35.0997204203411,129.029587140355,부산광역시 중구 광복로39번길 6 ,051-260-5201
백구당,RIBBON_ONE,35.104822,129.035765,부산광역시 중구 중앙대로81번길 3 ,051-465-0109  
가미,RIBBON_ONE,35.167188,129.131221,부산광역시 해운대구 센텀1로 9 롯데갤러리움센텀 S동 212호,051-746-5252  
개금밀면,RIBBON_ONE,35.152412080565,129.025073233379,부산광역시 부산진구 가야공원로14번길 88-8 ,051-892-3466  
금용,RIBBON_ONE,35.205451,128.996694,부산광역시 북구 구포만세길 75 ,051-332-1261  
칠성횟집,RIBBON_ONE,35.155716,129.122599,부산광역시 수영구 광안해변로 263 파로스오피스텔,051-753-3704  
해주냉면,RIBBON_ONE,35.100637,128.981795,부산광역시 사하구 낙동대로324번길 5 ,051-291-4841  
내당,RIBBON_ONE,35.219469,129.081898,부산광역시 동래구 금강공원로20번길 23 호텔농심 별관 1층,051-550-2335  
대길숯불갈비,RIBBON_ONE,35.221969,129.081156,부산광역시 동래구 금강로 150 ,051-555-5935  
태산손만두칼국수,RIBBON_ONE,35.206554,129.101193,부산광역시 동래구 시실로 209-1 ,051-522-2597  
신창국밥,RIBBON_ONE,35.100912,129.022553,부산광역시 서구 보수대로 53 ,051-244-1112  
사미헌,RIBBON_ONE,35.158988,129.056675,부산광역시 부산진구 서면문화로 19 ,051-819-6677  
미소오뎅,RIBBON_ONE,35.133834,129.091777,부산광역시 남구 유엔평화로 14 ,051-902-2710  
명당만두,RIBBON_ONE,35.128407,129.046835,부산광역시 동구 진성로9번길 42 ,051-469-6326  
쉐프리,RIBBON_ONE,35.1596158504847,129.153828860927,부산광역시 해운대구 해운대해변로209번길 13 ,051-757-6127  
박옥희할매집원조복국,RIBBON_ONE,35.158818,129.170661,부산광역시 해운대구 달맞이길62번길 28 ,051-747-7625  
초원복국,RIBBON_ONE,35.137776,129.105916,부산광역시 남구 황령대로492번길 30 ,051-628-3935  
은하갈비,RIBBON_ONE,0.0,0.0,부산광역시 동구 초량중로 86 ,051-467-4303  
카파도키아,RIBBON_ONE,35.259879,129.092248,부산광역시 금정구 금단로 123-9 ,051-515-5981  
아저씨대구탕,RIBBON_ONE,35.158777,129.171829,부산광역시 해운대구 달맞이길62번가길 31 마린하우스,051-746-2847  
기장손칼국수,RIBBON_ONE,35.15565900037182,129.0581417389067,부산광역시 부산진구 서면로 56 ,051-806-6832  
알로이타이레스토랑 ,RIBBON_ONE,35.162518920484544,129.12901519148312,부산광역시 수영구 민락수변로239번길 26 ,051-756-0275  
송정3대국밥,RIBBON_ONE,35.155566110011,129.058538257152,부산광역시 부산진구 서면로68번길 33 ,051-806-5722  
기장곰장어,RIBBON_ONE,35.185384,129.211399,부산광역시 기장군 기장읍 기장해안로 70 ,051-721-2934  
스시이루카,RIBBON_ONE,35.157037795554,129.143328681551,부산광역시 해운대구 마린시티2로 38 해운대아이파크 판매동 C2 2층 212호,0507-1361-9442  
평산옥,RIBBON_ONE,35.114282,129.037131,부산광역시 동구 초량중로 26 ,051-468-6255  
구포촌국수,RIBBON_ONE,35.26657906950981,129.08473900435,부산광역시 금정구 금샘로 490 ,051-515-1751  
쇼진,RIBBON_ONE,35.1633069847366,129.159614124407,부산광역시 해운대구 구남로 9 라마다앙코르해운대 호텔 2층 214호,0507-1354-8060  
부다면옥,RIBBON_ONE,35.1623835504262,129.162973570497,부산광역시 해운대구 중동1로 36 ,051-746-8872  
원조할매낙지,RIBBON_ONE,35.1421407221157,129.060146286184,부산광역시 부산진구 골드테마길 10 ,051-643-5037  
레망파티쓰리,RIBBON_ONE,35.1923142397145,129.102939621975,부산광역시 동래구 온천천로471번가길 38 ,010-4140-3723  
부우사안,RIBBON_ONE,35.1601348208773,129.154492375182,부산광역시 해운대구 해운대해변로209번나길 16 ,051-741-3310  
옵스(남천점),RIBBON_ONE,35.139607,129.108783,부산광역시 수영구 황령대로489번길 37 ,051-625-4300  
금수복국,RIBBON_ONE,35.16243,129.16456,부산광역시 해운대구 중동1로43번길 23 ,051-742-3600  
떼떼오네,RIBBON_ONE,35.1526203304441,129.06641588951,부산광역시 부산진구 동성로25번길 35 ,0507-1399-7911  
쌍둥이돼지국밥,RIBBON_ONE,35.1317702724979,129.092306249124,부산광역시 남구 유엔평화로 35-1 ,051-628-7020  
신발원,RIBBON_ONE,35.114808,129.038722,부산광역시 동구 대영로243번길 62 ,051-467-0177  
물꽁식당,RIBBON_ONE,35.104482,129.024399,부산광역시 중구 흑교로59번길 3 ,051-257-3230  
부산명물횟집,RIBBON_ONE,35.09711367503743,129.03112054346374,부산광역시 중구 자갈치해안로 55 ,051-245-4995  
레땅,RIBBON_ONE,35.1725158544022,129.055165697438,부산광역시 부산진구 성지로 22 ,051-807-3636  
할매재첩국,RIBBON_ONE,35.193357,128.986144,부산광역시 사상구 낙동대로1530번길 20-15 ,051-301-5321  
서울깍두기,RIBBON_ONE,35.0985447819427,129.032402896207,부산광역시 중구 구덕로34번길 8 ,051-245-3950  
신흥관,RIBBON_ONE,35.162691,129.162967,부산광역시 해운대구 중동1로 31-1 ,051-746-0062  
고스락,RIBBON_ONE,35.322246,129.26957,부산광역시 기장군 장안읍 해맞이로 286 ,051-727-0101  
배종관동래삼계탕,RIBBON_ONE,35.205262,129.084765,부산광역시 동래구 동래로116번길 39 ,051-555-2464  
원조전복죽집,RIBBON_ONE,35.160131,129.166595,부산광역시 해운대구 해운대해변로298번길 24 1층,051-742-4690  
속씨원한대구탕,RIBBON_ONE,35.158744,129.170767,부산광역시 해운대구 달맞이길62번길 28 ,051-744-0238  
클라우드32,RIBBON_ONE,35.154386,129.145144,부산광역시 해운대구 마린시티3로 52 한화리조트 32층,051-749-5320  
포항회관,RIBBON_ONE,35.187585,129.079643,부산광역시 연제구 거제천로182번길 42-2 ,051-866-0480  
밍주,RIBBON_ONE,35.16366537449376,129.16941915438136,부산광역시 해운대구 좌동순환로 473 ,051-743-3105  
장성향,RIBBON_ONE,35.113557,129.037714,부산광역시 동구 대영로243번길 29 ,051-467-4496  
개화,RIBBON_ONE,35.099569262169815,129.0274138029116,부산광역시 중구 광복로 21-1 ,051-245-6205  
중남해,RIBBON_ONE,35.113474,129.037627,부산광역시 동구 대영로243번길 27 ,051-469-9333  
돌고래순두부,RIBBON_ONE,35.1015516915783,129.029598334626,부산광역시 중구 중구로40번길 15 ,051-246-1825  
영남식육식당,RIBBON_ONE,35.140327,129.109995,부산광역시 수영구 황령대로489번길 61 ,051-624-2228  
청송집,RIBBON_ONE,35.119363,128.96136,부산광역시 사하구 하신번영로 432 ,051-292-2173  
옥미아구찜,RIBBON_ONE,35.1737,129.10882,부산광역시 수영구 망미번영로55번길 35 ,051-754-3789  
백화양곱창,RIBBON_ONE,35.096938,129.027025,부산광역시 중구 자갈치로23번길 6 ,051-245-0105  
원향재,RIBBON_ONE,35.1147489234496,129.038671552195,부산광역시 동구 대영로243번길 60 ,051-467-4868  
청죽,RIBBON_ONE,35.1129086078974,129.01302646429394,부산광역시 서구 망양로 23 ,051-247-8555  
할매집,RIBBON_ONE,35.098849098939425,129.03145746857538,부산광역시 중구 남포길 25-3 ,051-246-4741  
개미집,RIBBON_ONE,35.10052971399559,129.03011753628928,부산광역시 중구 중구로30번길 22 ,051-246-3186  
경북횟집,RIBBON_ONE,35.158866,129.170634,부산광역시 해운대구 달맞이길62번길 28 ,051-743-5917  
구포집,RIBBON_ONE,35.101223,129.024659,부산광역시 중구 보수대로36번길 14-1 ,051-244-2146  
남항횟집,RIBBON_ONE,35.224209,129.226997,부산광역시 기장군 기장읍 기장해안로 572 ,051-721-2302  
미나미,RIBBON_ONE,35.1604045038317,129.158921337521,부산광역시 해운대구 해운대로594번가길 46 ,051-746-5645  
어가초밥,RIBBON_ONE,35.22115334711958,129.08268888480987,부산광역시 동래구 온천장로107번길 32 ,051-554-0331  
머스트루,RIBBON_ONE,35.161507412932416,129.17638470864551,부산광역시 해운대구 좌동순환로433번길 29 ,051-747-2369  
서가원국수,RIBBON_ONE,35.18993,129.08733,부산광역시 연제구 반송로 68 ,051-851-3313  
예이제,RIBBON_ONE,35.160881,129.167009,부산광역시 해운대구 해운대해변로298번길 29 푸르지오시티 2층,051-731-1100  
뚱보집,RIBBON_ONE,35.1006950852985,129.036117527715,부산광역시 중구 중앙대로29번길 2-11 ,051-246-7466  
백광상회,RIBBON_ONE,35.098772,129.031499,부산광역시 중구 남포길 25-3 ,051-246-3089  
스시코우,RIBBON_ONE,35.1589242224756,129.125964146081,부산광역시 수영구 민락본동로31번길 46 ,010-9231-8440  
마라도,RIBBON_ONE,35.157488,129.126615,부산광역시 수영구 민락본동로11번길 38 ,051-755-1564  
호로롯쿠,RIBBON_ONE,35.1592815106648,129.062050273793,부산광역시 부산진구 중앙대로756번길 26 ,없음  
포구나무집,RIBBON_ONE,35.3029912141532,129.112725712338,부산광역시 금정구 조리2길 13-7 ,051-517-5815  
삼형제오리,RIBBON_ONE,35.0934902383255,129.039277450895,부산광역시 영도구 태종로73번길 23 ,051-417-7043  
원조소문난산곰장어,RIBBON_ONE,35.220611,129.081507,부산광역시 동래구 금강공원로26번길 34 ,051-554-8400  
마산식당,RIBBON_ONE,35.141584,129.061979,부산광역시 부산진구 자유평화로 19 ,051-631-6906  
깡통집,RIBBON_ONE,35.1382099077343,129.103942170065,부산광역시 남구 수영로346번길 17 ,051-990-4360  
금문,RIBBON_ONE,35.221872,129.081798,부산광역시 동래구 온천장로119번길 57 ,051-555-4987  
일품향,RIBBON_ONE,35.11308070565428,129.03788213915826,부산광역시 동구 대영로243번길 22 ,051-467-1016  
화수목,RIBBON_ONE,35.188133,129.082464,부산광역시 연제구 중앙대로1124번길 24 ,051-466-9289  
쿠루미과자점,RIBBON_ONE,35.2127551847224,129.080466522883,부산광역시 동래구 온천천로 71-1 ,051-553-8725  
커피맘스,RIBBON_ONE,35.25903511749771,129.08387772583802,부산광역시 금정구 금샘로 403 ,051-582-4445  
헤아릴,RIBBON_ONE,35.2105190530281,129.075318426884,부산광역시 동래구 중앙대로1367번길 56-10 ,070-7622-9262  
급행장,RIBBON_ONE,35.158081,129.058029,부산광역시 부산진구 서면문화로 4 ,051-809-2100  
동래별장,RIBBON_ONE,35.22084097945897,129.07926346795668,부산광역시 동래구 금강로123번길 12 ,051-552-0157  
커피프론트,RIBBON_ONE,35.1659324519479,129.132411521392,부산광역시 해운대구 APEC로 17 센텀리더스마크 113호,051-731-2635  
백객도,NOT,35.2123357196656,129.063469116458,부산광역시 동래구 금정마을로 70 ,051-554-5873  
토로,NOT,35.0691748976658,129.078172065646,부산광역시 영도구 태종로750번길 46 1층 토로,051-403-8939  
고향카츠,NOT,35.1508750261637,129.113939961626,부산광역시 수영구 수영로510번길 43 ,051-757-1202  
마가만두,NOT,35.1144924399674,129.038527521843,부산광역시 동구 대영로243번길 56 ,051-468-4059  
헨리스가든,NOT,35.1620784685036,129.17493498904,"부산광역시 해운대구 좌동순환로 418 1층, 지하 1층",051-710-4578  
취밍,NOT,35.2341381844005,129.012625665188,부산광역시 북구 금곡대로285번길 16 1층 106호 ,051-362-3376  
엣지993,NOT,35.1564105450054,129.175132215367,부산광역시 해운대구 달맞이길62번길 78 ,051-703-9930  
바딜란,NOT,35.1487533393925,129.114023309705,부산광역시 수영구 남천바다로 31-1 3층,070-7778-8520  
18번완당집,NOT,35.098974921728434,129.02846490014426,부산광역시 중구 비프광장로 31 지하 1층,051-245-0018  
가마솥생복집,NOT,35.24694,129.213436,부산광역시 기장군 기장읍 차성로 327-2 ,051-722-2995  
기장혼국보미역,NOT,35.1835901193388,129.210844586315,부산광역시 기장군 기장읍 공수1길 3 ,051-723-2332  
초량밀면,NOT,35.1173594336581,129.040679305625,부산광역시 동구 중앙대로 225-1 ,051-462-1575  
225토마토스트릿(광안점),NOT,35.1588379416124,129.1262128529,부산광역시 수영구 광안해변로307번길 42 1층,051-754-0225  
안덕스시,NOT,35.1608763696878,129.172544292406,부산광역시 해운대구 달맞이길65번길 6 ,010-5641-8877  
스시하루,NOT,35.1490092879515,129.111806074669,부산광역시 수영구 남천바다로10번길 19 다원빌딩 1층,051-625-5195  
소수인 ,NOT,35.1566786108333,129.053834676446,부산광역시 부산진구 가야대로750번길 17 ,051-808-4036  
으뜸이로리바타,NOT,35.1418930768257,129.109187982387,부산광역시 수영구 수영로408번길 20 ,010-6640-2884  
마레,NOT,35.273911,129.25447,부산광역시 기장군 일광면 일광로 350 ,051-721-1442  
아임타이,NOT,35.1546146320587,129.064448368204,부산광역시 부산진구 전포대로199번길 12 1층  ,070-8873-1324  
로와맨션,NOT,35.2591366304508,129.243495658398,부산광역시 기장군 일광읍 학리2길 6 ,051-723-9313  
모아횟집,NOT,35.076837,129.017474,부산광역시 서구 송도해변로 93 ,051-246-2305  
밀레니엄횟집,NOT,35.154801,129.131826,부산광역시 수영구 민락수변로 103 밀레니엄프라자,051-755-0005  
백경,NOT,35.13838045320367,129.1126636697171,부산광역시 수영구 광안해변로 31-13 ,051-621-9776  
정동진해물탕해물찜,NOT,35.1604429383303,129.0553650934,부산광역시 부산진구 서면문화로 37 ,051-809-8208  
사해방,NOT,35.115226,129.038612,부산광역시 동구 중앙대로195번길 14 ,051-463-9883  
섬진강,NOT,35.099755,129.034785,부산광역시 중구 광복로85번길 15-1 ,051-246-6471  
레플랑시,NOT,35.1465492971022,129.113186878968,부산광역시 수영구 남천동로108번길 38 9층,0507-1400-2216  
오스테리아오로,NOT,35.1737847596914,129.175137543763,부산광역시 해운대구 세실로 105 2층,051-702-0248  
수변최고돼지국밥,NOT,35.1567572881633,129.134260506525,부산광역시 수영구 광안해변로370번길 9-32 ,0507-1333-9222  
기장끝집,NOT,35.2346842641796,129.243311246848,부산광역시 기장군 기장읍 기장해안로 895 ,0507-1491-0272  
송도공원,NOT,35.070518,129.018204,부산광역시 서구 암남공원로 75 ,051-245-2441  
영주동삼대복국집,NOT,35.0973544535171,128.923778340385,부산광역시 강서구 명지국제8로 284 ,051-465-7210  
고갈비남마담,NOT,35.099456,129.03203,부산광역시 중구 광복로67번길 22 ,051-241-6076  
장춘향,NOT,35.113467,129.037685,부산광역시 동구 대영로243번길 23 ,051-467-8563  
황산밀냉면,NOT,35.120979,129.112807,부산광역시 남구 용호로 138-2 ,051-902-6918  
홍복작은면가게,NOT,35.089414,129.040037,부산광역시 영도구 절영로49번길 30 ,051-417-0763  
프루터리포레스트,NOT,35.1795955814326,129.192819878955,부산광역시 해운대구 달맞이길 491 프루터리포레스트,051-703-2018
달뜨네,NOT,35.0970739269777,129.02405890084,부산광역시 서구 구덕로118번길 18 1층 102호,051-418-2212  
스무고개,NOT,35.1645986324747,129.175028120511,부산광역시 해운대구 좌동순환로468번가길 81 ,0507-1416-2759  
해운대가야밀면,NOT,0.0,0.0,부산광역시 해운대구 좌동순환로 27 ,051-747-9404  
파노라마라운지,NOT,35.15596,129.153982,부산광역시 해운대구 동백로 67 부산웨스틴조선호텔 로비층,051-749-7435  
해운대원조할매국밥,NOT,35.16202403680393,129.16324364910957,부산광역시 해운대구 중동1로 40 ,051-731-2866  
평안도족발,NOT,35.16194,129.166372,부산광역시 해운대구 달맞이길 14 ,051-741-6568  
황금어장,NOT,35.1636662184916,129.169417311289,부산광역시 해운대구 좌동순환로 473 해운대로데오아울렛,051-731-1888  
청춘식당,NOT,35.15937,129.15481,부산광역시 해운대구 해운대해변로209번길 8-12 ,051-746-6511  
새아침식당,NOT,35.158822,129.170621,부산광역시 해운대구 달맞이길62번길 28 ,051-742-4053  
기와집대구탕,NOT,35.158127,129.174569,부산광역시 해운대구 달맞이길104번길 46 ,051-731-5020  
미포집,NOT,35.1607572387712,129.17144402728,부산광역시 해운대구 달맞이길62번길 3 ,051-747-2203  
하진이네,NOT,35.161952,129.194013,부산광역시 해운대구 청사포로 151 ,051-702-4092  
키친동백,NOT,35.1577879564722,129.17876543266965,부산광역시 해운대구 달맞이길117번가길 85 ,051-731-0022  
미포할매복국,NOT,35.159164,129.170716,부산광역시 해운대구 달맞이길62번길 27-1 ,051-741-4114  
벨라루나,NOT,35.175684,129.195933,부산광역시 해운대구 송정광어골로 66-1 ,051-742-2427  
강남횟집,NOT,35.180903,129.203613,부산광역시 해운대구 송정해변로 22-1 ,051-703-8285  
중앙모밀,NOT,35.101868,129.035305,부산광역시 중구 중앙대로49번길 9-1 ,051-246-8686  
실비집,NOT,35.1006977376138,129.036002566535,부산광역시 중구 해관로 22-8 ,051-245-6806  
삼송초밥,NOT,35.099686,129.029879,부산광역시 중구 광복로55번길 13 2층,051-245-7870  
남포수제비,NOT,35.099883,129.030524,부산광역시 중구 광복로49번길 7-1 2층,051-245-6821  
성일집,NOT,35.0994165807824,129.037469319734,부산광역시 중구 대교로 103 ,051-463-5888  
까사오로,NOT,35.099161,129.02972,부산광역시 중구 광복로 42-2 2층,051-744-8299  
부산숯불갈비,NOT,35.102312973656105,129.02888975092546,부산광역시 중구 중구로48번길 9 ,051-245-5534  
석기시대,NOT,35.1061560853273,129.034868802202,부산광역시 중구 동광길 75-1 ,051-465-0358  
인앤빈,NOT,35.1033825566958,129.026488877115,부산광역시 중구 대청로 61-3 ,051-231-6030  
영빈관,NOT,35.100141,129.034904,부산광역시 중구 광복로97번길 17 ,051-246-0328  
깡통골목할매유부전골,NOT,35.10202,129.027068,부산광역시 중구 부평3길 29 ,051-245-1878  
김해식당,NOT,35.09747970844967,129.02992786190097,부산광역시 중구 자갈치로 51-2 ,051-255-8242  
옥생관,NOT,35.102851,129.02703,부산광역시 중구 대청로 66 ,051-245-0298  
화국반점,NOT,35.102567,129.034251,부산광역시 중구 백산길 3 ,051-245-5305  
할매가야밀면,NOT,35.0989350141599,129.031224287784,부산광역시 중구 광복로 56-14 ,051-246-3314  
새벽집,NOT,35.15579937139768,129.12288849951688,부산광역시 수영구 광안해변로 267 ,051-753-5821  
자매국밥,NOT,35.158299,129.125699,부산광역시 수영구 민락본동로27번길 56 ,051-752-1912  
나룻터국수,NOT,35.169174,129.120726,부산광역시 수영구 수영로741번길 25 ,051-754-2619  
홍순덕전포양곱창,NOT,35.173473,129.109987,부산광역시 수영구 과정로16번길 23 ,051-756-0543  
본가제일면가,NOT,35.146039,129.111905,부산광역시 수영구 남천동로108번길 11 ,051-626-7574  
뱅델올리브,NOT,35.17572,129.117964,부산광역시 수영구 좌수영로 129-1 ,051-752-7300  
더셰프,NOT,35.144223,129.108684,부산광역시 수영구 수영로427번길 11 신흥빌딩 지하 1층,051-626-0762  
다리집,NOT,35.1467237050672,129.110730062746,부산광역시 수영구 남천바다로10번길 70 ,051-625-0130  
메트르아티정,NOT,35.141435,129.11026,부산광역시 수영구 남천동로22번길 21 ,070-8829-0513  
향나무집,NOT,35.144084,129.110415,부산광역시 수영구 남천동로9번길 27 ,051-622-6727  
씨그린,NOT,35.154032,129.118782,부산광역시 수영구 광안해변로 225 호텔아쿠아팰리스 2층,051-790-2322  
프랭클린커피로스터스,NOT,35.1529654593889,129.068259307226,부산광역시 부산진구 동성로 29 ,051-756-0002  
풍원장시골밥상집,NOT,35.1974101800571,129.223212498997,부산광역시 기장군 기장읍 기장해안로 250 ,051-721-7719  
비바라쵸,NOT,35.168758635973724,129.17845238670395,부산광역시 해운대구 세실로 43 경동코아 102호,051-701-0248  
일번횟집,NOT,35.223862,129.227029,부산광역시 기장군 기장읍 기장해안로 560-9 ,051-724-0101  
용암할매횟집,NOT,35.223765,129.230881,부산광역시 기장군 기장읍 기장해안로 615 ,051-721-2483  
평양집,NOT,35.212128,129.005881,부산광역시 북구 금곡대로20번길 21 ,051-331-5455  
아뜰리에마카롱,NOT,35.155839,129.063983,부산광역시 부산진구 서전로38번길 41 ,051-818-2908  
오스테리아라치베타,NOT,35.15548229516693,129.05687322949333,부산광역시 부산진구 가야대로784번길 46-6 ,051-819-6190  
합천식당,NOT,35.14154992275924,129.0624072939891,부산광역시 부산진구 자유평화로 23 ,051-631-9561  
삼대돼지불고기,NOT,35.205307,129.066632,부산광역시 동래구 사직북로28번길 197 ,051-505-0388  
본전돼지국밥,NOT,35.116595,129.041411,부산광역시 동구 중앙대로214번길 3-8 ,051-441-2946  
돈갑,NOT,35.13714750603801,129.1025217256463,부산광역시 남구 용소로13번길 37 ,051-612-8244  
늘해랑,NOT,35.172269,129.071685,부산광역시 부산진구 중앙대로928번길 12 ,051-863-6997  
포항돼지국밥,NOT,35.155796339296295,129.0585446076955,부산광역시 부산진구 서면로68번길 27 ,051-807-5439  
오사카,NOT,35.100375,128.98203,부산광역시 사하구 낙동대로324번길 2 ,051-205-8408  
녹산횟집,NOT,35.18390900435032,129.08110121451458,부산광역시 연제구 월드컵대로99번길 37 연산오피스텔 2층,051-852-8939  
할매팥빙수단팥죽,NOT,35.124252,129.111101,부산광역시 남구 용호로90번길 24 ,051-623-9946  
다다우동,NOT,35.134225,129.092192,부산광역시 남구 유엔평화로 7-1 ,051-645-7733  
내호냉면,NOT,35.126498,129.070873,부산광역시 남구 우암번영로26번길 17 ,051-646-6195  
구조방낙지,NOT,35.204058,129.083941,부산광역시 동래구 명륜로94번길 39 ,051-558-0295  
일광대복집,NOT,35.2669709895718,129.23351097849,부산광역시 기장군 일광읍 이화로 3 ,051-721-1561  
칠성식당,NOT,35.135778,129.068331,부산광역시 남구 지게골로 7 ,051-632-0749  
77돌곱창,NOT,35.15716325049214,128.98508610692366,부산광역시 사상구 괘감로 98 ,051-317-0470  
부산자갈치왕곰장어,NOT,35.2207991112241,129.081971087676,부산광역시 동래구 온천장로107번길 44 ,051-552-5874  
양가손만두,NOT,35.152326,129.024672,부산광역시 부산진구 가야대로482번길 16 ,051-894-9870  
미청식당,NOT,35.260266,129.233223,부산광역시 기장군 일광면 기장해안로 1303 ,051-721-7050  
1983암돼지갈비,NOT,35.2180391597713,129.0793976572,부산광역시 동래구 금강로 106 ,051-554-2497  
아데초이,NOT,35.2864537125445,129.258200533011,부산광역시 기장군 일광면 문오성길 162-1 ,070-8804-1355  
헤이든,NOT,35.2823815761636,129.25668703928,부산광역시 기장군 일광면 문오성길 22 ,051-728-4717  
어쭈 ,NOT,35.153122801605,129.058123816228,부산광역시 부산진구 서면로 26 ,051-803-5244
스시류,NOT,35.1813267308598,129.076220783681,부산광역시 연제구 시청로 12 더샵시티애비뉴2차 근린생활시설동 2층,051-867-4916  
더브릭하우스,NOT,35.15914571315787,129.05850612116214,부산광역시 부산진구 부전로152번길 70 ,051-805-7749  
문스시,NOT,35.17028789735641,129.1661447578186,부산광역시 해운대구 좌동순환로 43 ,051-744-3316  
주문진막국수,NOT,35.195948,129.059576,부산광역시 동래구 사직로58번길 8 ,051-501-7856  
산성목살,NOT,35.155617,129.056739,부산광역시 부산진구 부전로66번길 36-5 병구빌딩,051-806-5443  
석정갈비,NOT,35.21048159567992,129.0742074963779,부산광역시 동래구 중앙대로1367번길 72 ,051-555-7021  
루반도르,NOT,35.129055,129.048699,부산광역시 동구 중앙대로 375-1 ,051-467-6666  
부산압구정한우갈비,NOT,35.27505,129.0857,부산광역시 금정구 청룡로 61 ,051-512-0025  
미동암소정,NOT,35.288184,129.170847,부산광역시 기장군 철마면 미동길 21 ,051-721-9441  
아미산,NOT,35.157964,129.148518,부산광역시 해운대구 해운대해변로 154 마리나센타 8층,051-747-0131  
꺼먹동네,NOT,35.298518643361724,129.25949603957014,부산광역시 기장군 일광면 문오성길 509 ,051-727-1427  
경희궁,NOT,35.262475,129.084176,부산광역시 금정구 금샘로 441 ,051-517-9292  
메르데쿠르,NOT,35.2330732998624,129.244129676673,부산광역시 기장군 기장읍 기장해안로 871-1 ,051-724-5145  
양산도집,NOT,35.1305383498779,128.97054327193524,부산광역시 사상구 낙동대로 799-34 ,051-311-4098  
홍성방,NOT,35.11339,129.038547,부산광역시 동구 중앙대로179번길 1 ,051-467-3682  
국제밀면,NOT,35.196848,129.077898,부산광역시 연제구 중앙대로1235번길 23-6 ,051-501-5507  
약콩밀면,NOT,35.1231064484569,129.113322859182,부산광역시 남구 동명로145번길 80 ,051-611-1231  
장춘방,NOT,35.113415,129.037978,부산광역시 동구 대영로243번길 30 ,051-467-5820  
서문국수,NOT,35.2291085575241,129.088301385596,부산광역시 금정구 장전로12번길 32-5 ,051-516-6555  
나들목,NOT,35.13236,129.093523,부산광역시 남구 유엔로157번길 48 ,051-611-1999  
아미치,NOT,35.0723097437023,129.016475618763,부산광역시 서구 송도해변로 33 송도타워맨션,051-244-4359  
오스테리아비비,NOT,35.125273376129,129.039060349358,부산광역시 동구 홍곡남로18번길 5 ,010-4949-6760  
칼질천번,NOT,35.1445334652882,129.059898861466,부산광역시 부산진구 골드테마길 63 ,051-638-7942  
모토201호,NOT,35.15360331985,129.065998454663,부산광역시 부산진구 서전로58번길 94 ,051-911-6262  
원조할매추어탕,NOT,35.214807,128.91453,부산광역시 강서구 식만로 252 ,051-972-5858  
복성반점,NOT,35.103642,128.962469,부산광역시 사하구 하신중앙로 289 ,051-291-7834  
부광반점,NOT,35.201269,129.089655,부산광역시 동래구 명륜로98번길 118 ,051-557-5915  
신흥반점,NOT,35.09596420520529,129.02463156843092,부산광역시 서구 충무대로 284-1 ,051-242-6164  
용문각,NOT,35.191582,129.079794,부산광역시 연제구 거제천로 209 ,051-852-7160  
원조짚불곰장어기장외가집,NOT,35.1857648319727,129.211775919248,부산광역시 기장군 기장읍 공수2길 5-1 ,051-721-7098  
다온한정식,NOT,35.158122,129.148538,부산광역시 해운대구 해운대해변로 154 마리나센타,051-959-0119  
월강,NOT,35.151424,129.057616,부산광역시 부산진구 서면로 7 월강빌딩,051-806-2500  
할매복집,NOT,35.101191,128.976124,부산광역시 사하구 다대로 12 ,051-206-9938  
태화육개장,NOT,35.159275,129.056989,부산광역시 부산진구 서면문화로 18 ,051-802-5995  
명성횟집,NOT,35.12976733931322,129.04768326945842,부산광역시 동구 고관로 128-1 ,051-468-8089  
주차장산꼼장어,NOT,35.163463,129.060322,부산광역시 부산진구 부전로 177-2 ,051-808-0407  
쉐라미과자점,NOT,35.099775,128.991045,부산광역시 사하구 낙동대로 238 ,051-208-0033  
에프엠커피,NOT,35.1546246237968,129.063756360117,부산광역시 부산진구 전포대로199번길 26 ,051-803-0926  
올더어글리쿠키,NOT,35.1567521971997,129.064960508804,부산광역시 부산진구 전포대로 225 경무빌딩,070-7755-2502  
라라관,NOT,35.15303070254262,129.06198607915832,부산광역시 부산진구 동천로 47-1 ,051-512-8878  
정림전통한식,NOT,35.203026,129.085193,부산광역시 동래구 충렬대로237번길 31-3 ,051-552-1211  
산성집,NOT,35.2442214828468,129.0555755130261,부산광역시 금정구 산성로 524 ,051-517-7900  
커피텍로스터스,NOT,35.137973,129.065094,부산광역시 동구 자성로133번길 10 천일빌딩,051-631-6004  
이튼밸리,NOT,35.171243,129.166211,부산광역시 해운대구 좌동순환로 51-4 ,051-746-0349  
용궁해물야채쟁반짜장,NOT,35.194033,129.22073,부산광역시 기장군 기장읍 기장해안로 208 ,051-723-0944  
호호면옥,NOT,35.21212220496056,129.0057447961472,부산광역시 북구 금곡대로20번길 19 ,051-338-4442  
팔각정,NOT,35.228526,129.223883,부산광역시 기장군 기장읍 대변로 101 ,051-723-1717  
우남정,NOT,35.283794,129.156151,부산광역시 기장군 철마면 곰내길 115 ,051-721-0341  
원조태성하모횟집,NOT,35.0766965102662,129.022502310846,부산광역시 서구 송도해변로 149 ,051-242-1886  
미성하모샤브샤브,NOT,35.08135,129.02521,부산광역시 서구 충무대로 124 ,051-244-6143  
칠칠켄터키,NOT,35.232584,129.084914,부산광역시 금정구 금강로 271-8 ,051-518-9777  
팔복통닭,NOT,35.166194,129.040049,부산광역시 부산진구 당감로50번길 20 ,051-895-5384  
오채담,NOT,35.0716400952136,129.057362356798,부산광역시 영도구 절영로 355 목장원 3층,051-404-5012  
소문난팥빙수,NOT,35.124144,129.113425,부산광역시 남구 동명로145번길 102 ,051-627-1615  
레썽스,ATTENTION,35.1446033601617,129.111351664341,부산광역시 수영구 광남로22번길 17 ,0507-1325-7050  
옥산티하우스,NEW,35.1524676736722,129.066848944886,부산광역시 부산진구 동성로25번길 27-6 ,010-8233-8689  
코스피어,NEW,35.2321573599801,129.088575703601,부산광역시 금정구 장전온천천로79번길 4 1층,070-4400-7942  
르도헤,NEW,35.1554490471091,129.146606834695,부산광역시 해운대구 마린시티3로 37 ,0507-1438-8522  
만다꼬,NEW,35.1564423185533,129.124785928587,부산광역시 수영구 광안해변로279번길 13 ,0507-1476-2388  
레스토랑샵,NEW,35.2419483705548,129.213710462347,부산광역시 기장군 기장읍 차성로 274 1층 레스토랑샵,0507-1381-9597
만석꾼풍천산삼민물장어,NEW,35.2268937872771,129.011512192705,부산광역시 북구 금곡대로 206 수정새마을회관,051-363-0906
바로해장,NEW,35.1501077151386,129.114651163228,부산광역시 수영구 광남로94번길 2 ,051-756-5515  
참못골돼지국밥,NEW,35.1351792865983,129.084108139026,부산광역시 남구 못골로12번길 4 ,051-632-5353
조개대표,NEW,35.1499463327673,129.115305735423,부산광역시 수영구 광남로94번길 16 지웰에스더테라스 204호,010-7468-1109
음주가밀(전포점),NEW,35.151994997292,129.062695188102,부산광역시 부산진구 동천로24번길 26 ,051-808-2426
우나기;만,NEW,35.1823933169182,129.074203254718,부산광역시 연제구 시청로32번길 17 ,051-868-7440
비스트로호텔엠비언스,NEW,35.2085239735956,129.207278983975,부산광역시 기장군 기장읍 내리1길 10 2동 1층,010-4480-3441
요오면,NEW,35.1581458236253,129.124859431599,부산광역시 수영구 광안해변로295번길 39 ,051-757-5105
연향정돼지국밥,NEW,35.1302303473776,128.913209771601,부산광역시 강서구 에코델타스마트로4길 8 101호,051-205-8545
설야멱(서면직영점),NEW,35.1579627195169,129.062782349144,부산광역시 부산진구 서전로 27 2층,0507-1361-6518
산성식육점(전포직영점),NEW,35.1555811081799,129.066658119087,부산광역시 부산진구 전포대로210번길 19 ,010-4308-3464
오리마루(명지본점),NEW,35.0959668103765,128.900832278638,부산광역시 강서구 명지국제6로1번가길 15 1층 오리마루,051-292-1253
석화연,NEW,35.1521270885189,129.1170095548,부산광역시 수영구 광안해변로 199 2층 201호,051-754-3392
씨오터스파이,NEW,35.1570139569364,129.115925907723,부산광역시 수영구 광안로21번가길 11-1 ,010-2115-5024
기온,NEW,35.1651418390172,129.158621350485,부산광역시 해운대구 우동1로38번가길 25-8 2층,010-7374-7803
토리이에(광안점),NEW,35.1595056027066,129.126715793768,부산광역시 수영구 광남로 256 ,070-7543-7887
라운지비,NEW,35.0957525907141,129.067550597483,부산광역시 영도구 해양로111번길 33 6층 ,0507-1358-9984
이가솜씨,NEW,35.1540570459646,129.145834012644,부산광역시 해운대구 마린시티3로 51 더샵해운대아델리스 203호,051-741-1225
올선데이(광안점),NEW,35.1549195164882,129.120500183729,부산광역시 수영구 광안로61번길 28 올선데이,051-755-9275
온들랑샤브샤브,NEW,35.1994902280642,129.117121494335,부산광역시 해운대구 선수촌로 57-30 ,055-521-0504
감성양고기,NEW,35.1390447688674,129.107641594484,부산광역시 수영구 황령대로481번길 10-9 ,051-900-9292  
청기와타운(서면점),NEW,35.1547801394963,129.056553034277,부산광역시 부산진구 중앙대로691번길 46 청기와타운 1층,051-804-0510
스페샬돼지,NOT_RECORD,35.1821859696921,129.074539346581,부산광역시 연제구 시청로32번길 16-1 ,051-939-7788
솔방구리삼겹살,NOT_RECORD,35.2100881887753,129.00917283579,부산광역시 북구 덕천2길 75 1층,070-8289-9282
핏제리아곳간,NOT_RECORD,35.1123480043468,128.964112425262,부산광역시 사하구 낙동대로 543 핏제리아곳간,051-294-0033
다이치,NOT_RECORD,35.1570778855136,129.125218110478,부산광역시 수영구 광안해변로295번길 15 ,010-6686-3421
옛골,NOT_RECORD,35.1546252758895,129.056253094633,부산광역시 부산진구 중앙대로691번길 52 1층 옛골,051-807-2655
프리미엄겟201해운대,NOT_RECORD,35.1572036560166,129.144817207267,부산광역시 해운대구 마린시티2로 33 해운대두산위브더제니스 104동 205-2호,051-746-6001
오몬드커피스토어,NOT_RECORD,35.1797300358366,129.047291732804,부산광역시 부산진구 새싹로265번길 6 1층,010-3737-8591
드메르,NOT_RECORD,35.0929476534795,129.040256650412,부산광역시 영도구 절영로 15 1층 ,070-7677-4013
드메르(중앙점),NOT_RECORD,35.1040432546171,129.035272998352,부산광역시 중구 40계단길 7-1 ,
하나호라,NOT_RECORD,35.2102171206188,129.007784162778,부산광역시 북구 덕천1길 41 하나호라,010-3887-2993
양귀빈식당(3호점),NOT_RECORD,35.1632766402427,129.116005864976,부산광역시 수영구 수영로646번길 15 ,051-761-0840
양귀빈식당,NOT_RECORD,35.1560657337018,129.122822673441,부산광역시 수영구 민락로6번길 1 ,051-756-0840
명자네아구찜,NOT_RECORD,35.1591466194807,129.058505814797,부산광역시 부산진구 부전로152번길 70 1층,051-817-5585
오늘김해뒷고기,NOT_RECORD,35.1103383584735,128.964023499309,부산광역시 사하구 낙동대로519번길 25 1층,010-8946-4849
라운지아카네,NOT_RECORD,35.1548994504362,129.119247481947,부산광역시 수영구 광안로61번길 7 2층,010-3016-3010
구포수미아구찜,NOT_RECORD,35.0924393538552,128.979456129076,부산광역시 사하구 다대로 109 상가 구포수미아구찜,051-203-4748
복합성,NOT_RECORD,35.138215055907,129.091567252747,부산광역시 남구 진남로36번길 2 ,010-9525-9358
미림양장,NOT_RECORD,35.1562054016641,129.067298814502,부산광역시 부산진구 서전로68번길 37 ,051-802-7608
수월경화,NOT_RECORD,35.1761007071334,129.196568604772,부산광역시 해운대구 송정중앙로6번길 188 ,010-5555-8450
생어거스틴(일루아호텔점),NOT_RECORD,35.1589266349244,129.174483899297,부산광역시 해운대구 달맞이길 97 호텔일루아 로비층,051-747-0053
초힛사츠,NOT_RECORD,35.1486535914577,129.113563210332,부산광역시 수영구 광남로 74 1층,0507-1414-5516
영동밀면&돼지국밥,NOT_RECORD,35.1162650613474,129.039324501045,부산광역시 동구 중앙대로209번길 12 ,070-4214-8347
다이도코로,NOT_RECORD,35.1465983082992,129.112546978234,부산광역시 수영구 남천동로108번길 27 2층,070-8631-8402
원조부산밀면,NOT_RECORD,35.1178388077591,129.040516329452,부산광역시 동구 중앙대로231번길 7 1층,051-466-6999
연화덮밥,NOT_RECORD,35.1542714950768,129.057302821914,부산광역시 부산진구 서면로 39 KT&G 상상마당부산 8층,010-2100-6063
볼로네제,NOT_RECORD,35.1326695529587,129.10968594313,부산광역시 남구 신선로 566 GS하이츠자이 401동 1층 148호,051-628-1379
EL16.52,NOT_RECORD,35.0631174044683,129.019438172979,부산광역시 서구 암남공원로 177 ,0507-1409-8881
담잔느,NOT_RECORD,35.1806983706637,129.107549271758,부산광역시 연제구 과정로 104-1 ,010-4546-4920
미포집(광안리직영점),NOT_RECORD,35.148493760019,129.114428688464,부산광역시 수영구 광안해변로 153-1  2층,051-751-9888
카센미세,NOT_RECORD,35.1768525694357,129.089808715911,부산광역시 연제구 쌍미천로 42-1 ,070-4189-5584
양지횟집,NOT_RECORD,35.1653875882885,129.042007569135,부산광역시 부산진구 백양대로60번길 70 1층,051-895-7977
낙양,NOT_RECORD,35.2326918826701,129.088264640802,부산광역시 금정구 장전온천천로83번길 14 ,051-515-7196
홍콩가든,NOT_RECORD,35.1549982525993,129.065669442159,부산광역시 부산진구 전포대로 206-1 ,051-818-9629
보들우동,NOT_RECORD,35.1678955285857,129.176412756177,부산광역시 해운대구 양운로 53 투모로우 오피스텔 1층 111호,010-2052-1986
청사포쌀국수,NOT_RECORD,35.1607651948088,129.192213522529,부산광역시 해운대구 청사포로128번길 6 2층,051-701-7797
본본레스토랑,NOT_RECORD,35.2186916639885,129.224888288741,부산광역시 기장군 기장읍 기장해안로 500 ,051-722-3033
토암공원,NOT_RECORD,35.228898,129.224998,부산광역시 기장군 기장읍 대변로 107-27 ,051-721-2231
우연,NOT_RECORD,35.1742209532835,129.173539469735,부산광역시 해운대구 좌동로91번길 49 1층 ,051-917-0831
두놈닭칼국수,NOT_RECORD,35.1294198499329,129.04907961683,부산광역시 동구 중앙대로 381 ,051-466-1677
미담1974,NOT_RECORD,35.0927867753126,128.908847401726,부산광역시 강서구 명지국제2로28번길 34 에코팰리스,051-201-1974
피셋,NOT_RECORD,35.158078935105,129.067339868287,"부산광역시 부산진구 서전로67번길 6 2층, A호 피셋 (phises)",01095417424
에테르,NOT_RECORD,35.0772567895242,129.046493480617,부산광역시 영도구 절영로 234 ,051-263-5055
헤일르,NOT_RECORD,35.0789290758782,129.044545567586,부산광역시 영도구 흰여울길 127 ,
빨간등대영도본점,NOT_RECORD,35.0849553647222,129.035724402913,부산광역시 영도구 남항서로 40 2층,010-5205-5282
정성담은,NOT_RECORD,35.1432139376337,129.059684140223,부산광역시 부산진구 범일로 148 아이에프 A동,051-643-0074
애국돼지,NOT_RECORD,35.0988923563594,128.95770848313,부산광역시 사하구 하신번영로201번길 9 1층,0507-1411-9287
디아펠리즈,NOT_RECORD,35.0725211881687,129.016203053201,부산광역시 서구 암남공원로 39 송도 풍림아이원 1층,0507-1381-1874
주옥같은인생,NOT_RECORD,35.1488601748871,129.113819147771,부산광역시 수영구 남천바다로 29 1층 ,0507-1356-6513
따귀집,NOT_RECORD,35.1566471472902,129.146930632686,"부산광역시 해운대구 마린시티3로 23 벽산이오렌지프라자 1층, 106호",0507-1429-5603
송도키친,NOT_RECORD,35.0776929951861,129.019261113815,부산광역시 서구 송도해변로 113 페어필드바이메리어트 부산송도비치 22층,
톤섬,NOT_RECORD,35.0913239887317,129.0386028191,부산광역시 영도구 남항로9번길 36 ,0507-1337-0279
오구카페,NOT_RECORD,35.0855833761443,129.034834546647,부산광역시 영도구 남항서로 52 ,051-414-5949
다미복국,NOT_RECORD,35.0898974307863,129.037841709307,부산광역시 영도구 남항로9번길 2 ,051-417-7383
영도빨간등대밀면,NOT_RECORD,35.0860351248094,129.034926461517,부산광역시 영도구 남항남로 1-1 1층,없음
여울책장,NOT_RECORD,35.0770491277301,129.046602081071,부산광역시 영도구 흰여울길 381 ,051-412-7230
브레드밋파리,NOT_RECORD,35.0923051642487,129.058990829961,"부산광역시 영도구 청학로37번길 22 1, 2층",051-728-7077
리콰이얼먼트커피브루얼스,NOT_RECORD,35.1061477906186,129.035282238906,부산광역시 중구 해관로 81 동진빌딩,010-3408-6890
정담칼국수,NOT_RECORD,35.1432139376337,129.059684140223,부산광역시 부산진구 범일로 148 아이에프빌딩 1층,051-643-0074
갯마을식당,NOT_RECORD,35.2662210477302,129.235034641966,부산광역시 기장군 일광읍 이천길 3 1층,051-722-4981
동해횟집,NOT_RECORD,35.2180788200142,129.227278206317,부산광역시 기장군 기장읍 연화1길 167 ,051-721-2976
외가집,NOT_RECORD,35.1451151088584,129.067138460395,부산광역시 남구 전포대로92번길 3 ,051-804-6365
고현곰장어,NOT_RECORD,35.1394831673807,129.107740772525,부산광역시 수영구 황령대로481번길 22 ,051-622-2228
본가벌나무복집,NOT_RECORD,35.2418049922533,129.088771184714,부산광역시 금정구 구서온천천로 23 ,0507-1308-6643
한방장어구이,NOT_RECORD,35.1862877508734,129.070755418088,부산광역시 연제구 아시아드대로 8 ,051-503-3353
부영집,NOT_RECORD,35.0961240014857,129.025876299473,부산광역시 서구 자갈치로 12-1 ,051-243-6495
해저도시,NOT_RECORD,35.1558782873551,129.13232797908,부산광역시 수영구 광안해변로 362 ,051-753-4240
토라후구가,NOT_RECORD,35.1640800813671,129.170077834284,부산광역시 해운대구 좌동순환로 480 금호어울림상가,051-743-5432
메르시마담,NOT_RECORD,35.1816079714725,129.045884049597,부산광역시 부산진구 초읍천로 103-1 메르시마담,070-7739-7979
머랭파티스리,NOT_RECORD,35.1661646215769,129.15781821286,부산광역시 해운대구 우동1로50번길 5 1층 ,0507-1323-5364
마파람해물찜해물탕(시청직영점),NOT_RECORD,35.1799554812023,129.072289317986,부산광역시 연제구 거제천로 64 ,
마파람해물찜해물탕(구서본점),NOT_RECORD,35.2447595504152,129.088584888713,부산광역시 금정구 금강로 418 마파람해물찜 ,0507-1473-5657
코스터커피,NOT_RECORD,35.0952062983669,128.922868104764,부산광역시 강서구 명지국제6로 222 서하빌딩,0507-1333-1848
몽실종가돼지국밥,NOT_RECORD,35.1001884856653,129.017178050131,부산광역시 서구 까치고개로197번길 3 ,051-256-0133
사랑방(청사포점),NOT_RECORD,35.1611899140433,129.193824920119,부산광역시 해운대구 청사포로 141-1 ,0507-1327-5732
샤브야,NOT_RECORD,35.1583076744908,129.18232691377,부산광역시 해운대구 달맞이길 193 샤브야,1899-4717
골목갈비집 ,NOT_RECORD,35.1174822721824,129.039024718748,부산광역시 동구 중앙대로221번길 30 ,051-714-2999
삼계명가 ,NOT_RECORD,35.1306007560264,129.117841721094,부산광역시 남구 분포로 66-15 ,051-611-0345
칠리앤버건디,NOT_RECORD,35.2334843226529,129.086197717792,부산광역시 금정구 부산대학로50번길 45 2층 201호,051-581-9303
단가루곳간,NOT_RECORD,35.1578757064495,129.115462900245,부산광역시 수영구 수영로588번길 40 ,0507-1427-1379
리에또,NOT_RECORD,35.0529546023675,128.96153609906,"부산광역시 사하구 다대낙조2길 85 504,505호",051-262-8004
속시원한대구탕,NOT_RECORD,35.160999,129.184144,부산광역시 해운대구 달맞이길 229 ,051-747-1666
툇마루,NOT_RECORD,35.2342104940333,129.009012144217,부산광역시 북구 금곡대로285번길 81 두꺼비빌딩 2층,051-363-7377
거루캥테이블,NOT_RECORD,35.1869083109402,129.203823976084,부산광역시 해운대구 송정중앙로5번길 79 ,0507-1321-2511
화현동,NOT_RECORD,35.0990694774934,129.025505429485,부산광역시 중구 보수대로24번길 5 1층 ,010-9189-7431
반달호떡,NOT_RECORD,35.1658839964079,129.157788410038,부산광역시 해운대구 우동1로50번길 2 1층 반달호떡,010-5196-2095
폭폭,NOT_RECORD,35.0978294987286,128.91888769212,부산광역시 강서구 명지국제8로 240 국제메디컬빌딩 102호,051-208-2514
고귀관,NOT_RECORD,35.220625751703,128.990677854816,부산광역시 강서구 대저중앙로 399 1층 고귀관,010-8546-5424
황가추어탕,NOT_RECORD,35.2722871607045,129.0853202269,부산광역시 금정구 금샘로 560 황가추어탕,051-583-9933
푯,NOT_RECORD,35.1553228098097,129.065988834522,부산광역시 부산진구 전포대로210번길 8 ,051-807-6860
백양육식장,NOT_RECORD,35.1559749093952,129.065649590245,부산광역시 부산진구 전포대로 216-1 1층 백양육식장,010-4504-0760
야가와,NOT_RECORD,35.1590105586735,129.143314832388,부산광역시 해운대구 마린시티1로 9 마린시티자이,0507-1386-3581
레스피로,NOT_RECORD,35.0529546023675,128.96153609906,부산광역시 사하구 다대낙조2길 85 506호,051-266-8004
신기숲,NOT_RECORD,35.0868516521463,129.060273374294,부산광역시 영도구 와치로 65 ,051-414-7774
마구로테이블,NOT_RECORD,35.1022235084999,129.035160638079,부산광역시 중구 대청로138번길 7 ,0507-1431-0106
톰스다이너,NOT_RECORD,35.1238832599939,129.110013053207,부산광역시 남구 용호로42번길 67 ,051-623-8884
진저하우스,NOT_RECORD,35.1072251818111,128.922038340045,부산광역시 강서구 명지국제5로148번길 5-1 ,010-5206-4023
차선책(서면점),NOT_RECORD,35.153709087558,129.059762403649,부산광역시 부산진구 신천대로50번길 65 ,010-2553-0286
차선책,NOT_RECORD,35.1547241491262,129.119923556336,부산광역시 수영구 광안해변로 237 테마타워 3층,010-2553-0286
몽키브라운,NOT_RECORD,35.1612997818826,129.064375816041,부산광역시 부산진구 전포대로275번길 17 운암빌딩 1층,051-818-9887
삿뽀로참치,NOT_RECORD,35.1538657526683,129.056885962846,부산광역시 부산진구 부전로20번길 42 ,051-817-2663
다이츠로스터스,NOT_RECORD,35.1508946511378,128.838986989043,부산광역시 강서구 과학산단2로20번길 69 금강펜테리움상가 1층,010-2358-2311
백쉐프본스시,NOT_RECORD,35.1674520417221,129.03669020563,부산광역시 부산진구 당감서로 79 2층,051-891-3398
트래포드,NOT_RECORD,35.158956477922,129.066506063326,부산광역시 부산진구 전포대로246번길 13-10 1층,070-8764-0123
엄지척닭도리,NOT_RECORD,35.2067461074039,129.08120669181,부산광역시 동래구 명륜로139번길 22 명륜자이,051-556-1163
더피자스탠드(부산점),NOT_RECORD,35.0695062361511,129.079844477197,부산광역시 영도구 태종로 746 ,051-403-1529
드메르(전포점),NOT_RECORD,35.1539580837588,129.067752930747,부산광역시 부산진구 동성로39번길 11 ,070-4042-4013
수수하지만굉장해! ,NOT_RECORD,35.1534253333494,129.067123783635,부산광역시 부산진구 서전로68번길 98 1층,070-4189-1009
우적(센텀점),NOT_RECORD,35.1729576549741,129.13158500122,"부산광역시 해운대구 센텀5로 55 센텀큐 1층 114,115,116호",0507-1410-9192
베터커피베터라이프,NOT_RECORD,35.1468332032487,129.113561434752,부산광역시 수영구 남천동로108번길 49 상가 2동 2층 201호,051-710-7736
크림웨이브케이크,NOT_RECORD,35.196622026793,129.070228424397,부산광역시 동래구 아시아드대로126번길 66 ,051-505-2333
산성식육점(동래본점),NOT_RECORD,35.2067682086648,129.081860320786,부산광역시 동래구 명륜로 145 ,010-4525-3464
이상한나라의 밀가루공장,NOT_RECORD,35.2108969296613,129.035387065593,부산광역시 북구 만덕2로44번길 42-14 1층,051-921-4083
우주옥 숯불한우소갈비전문점,NOT_RECORD,35.1742209532835,129.173539469735,부산광역시 해운대구 좌동로91번길 49 디아이하우스 1층,051-703-1235
고랑식당,NOT_RECORD,35.2097716819925,129.008402903694,부산광역시 북구 만덕대로28번길 22 ,051-337-7987
청기와타운(광안리점),NOT_RECORD,35.1485744348206,129.114251938216,부산광역시 수영구 남천바다로 35 1층,051-751-7999
모루비,NOT_RECORD,35.1655799839409,129.158014118813,부산광역시 해운대구 우동1로38번길 11 우일맨션 1층 127호,010-4810-0336
키친187다이닝바,NOT_RECORD,35.1606287270853,129.173519031911,부산광역시 해운대구 달맞이길65번길 26 상가 1층,051-744-4524
장원육전밀면,NOT_RECORD,35.1496756332474,129.002446676086,부산광역시 사상구 가야대로 274-11 ,051-327-5858
아티성블렁제리 빵빵빵,NOT_RECORD,35.154532464031,129.14454331149,부산광역시 해운대구 마린시티1로 91 마린시티두산위브포세이돈 102동 102호,051-866-6666
레이븐커피로스터리,NOT_RECORD,35.1770271936885,129.07316183223,부산광역시 부산진구 진연로9번길 39 엔에스 타워 ,070-7576-0566
나막집,NOT_RECORD,35.1342294576999,129.111216765972,부산광역시 남구 분포로 145 스퀘어 상가 1068호,051-746-4882
맛소문오리불고기,NOT_RECORD,35.1739016949905,129.176758910781,부산광역시 해운대구 좌동로 109-17 ,051-703-5293
토오루,NOT_RECORD,35.1551337662558,129.066373253328,부산광역시 부산진구 동성로49번길 38-1 ,0507-1386-6012
윤우재 문현샤브칼국수,NOT_RECORD,35.1362909579584,129.070460615253,부산광역시 남구 수영로 26 대림문현시티프라자,051-631-0224
할매집,NOT_RECORD,35.1632000941408,129.164903819836,부산광역시 해운대구 중동2로10번길 7 ,051-741-1184
전포여관,NOT_RECORD,35.1547322271411,129.060411116548,"부산광역시 부산진구 중앙대로692번길 21-5 1,2층 ",051-802-8517
삼수집,NOT_RECORD,35.1656534685838,129.036916844679,부산광역시 부산진구 당감서로 58 ,010-2427-9725
주마등,NOT_RECORD,35.159119388319,129.064568150081,부산광역시 부산진구 서전로47번길 27 체리빌딩 1층,0507-1338-6872
야키토리 규,NOT_RECORD,35.1534200225381,129.055729765553,부산광역시 부산진구 신천대로102번길 34 1층 소설담,051-817-3837
메이리,NOT_RECORD,35.1802811883235,129.072850889603,부산광역시 연제구 거제시장로 3 ,051-853-0502
메이리연,NOT_RECORD,35.1825172703947,129.073343117786,부산광역시 연제구 거제천로 93 ,051-853-0501
미드타운볼,NOT_RECORD,35.1564394587299,129.121685190903,부산광역시 수영구 민락로19번길 19 ,070-7576-2245
원카츠,NOT_RECORD,35.2049184336864,129.084984574728,부산광역시 동래구 동래로136번길 23 ,051-554-2233
나탄약선요리 ,NOT_RECORD,35.1871098746253,129.048434194562,부산광역시 부산진구 성지곡로51번길 4 ,051-504-7733
랑돼지,NOT_RECORD,35.1865642334557,129.085365274189,부산광역시 연제구 쌍미천로155번길 33 ,010-3593-9141
멘테네,NOT_RECORD,35.2085957616265,129.008304541422,부산광역시 북구 의성로128번길 56 ,010-5026-5971
흑송(2호점),NOT_RECORD,35.3294142603243,129.172546808698,부산광역시 기장군 정관읍 용수로 89 ,051-704-9956
스시로운,NOT_RECORD,35.0764412514408,129.016922719061,부산광역시 서구 송도해변로 85-1 ,051-231-0268
시쿠,NOT_RECORD,35.1569897466324,129.121384237113,부산광역시 수영구 민락로27번길 17 ,010-3190-4900
황금칼국수,NOT_RECORD,35.2328255096288,129.08741940485,부산광역시 금정구 부산대학로38번길 35 송림아파트 101동,051-515-3005
몫몫,NOT_RECORD,35.1571054220807,129.061603494057,부산광역시 부산진구 동천로95번길 11 우목빌딩 2층,010-3691-3870
대보름,NOT_RECORD,35.1877059586015,129.212396915489,부산광역시 기장군 기장읍 기장해안로 98 오시리아스퀘어 D-101호,1670-8515
꼬까자,NOT_RECORD,35.1531561760044,129.066921993782,부산광역시 부산진구 전포대로186번길 23 ,010-8538-6536
플라잉스콘,NOT_RECORD,35.1572036560166,129.144817207267,부산광역시 해운대구 마린시티2로 33 해운대두산위브더제니스상가 125호,051-622-2202
흑송,NOT_RECORD,35.1750130888429,129.196506300492,부산광역시 해운대구 송정광어골로 73 블루웨이브,051-704-9955
낙화,NOT_RECORD,35.1554903014708,129.064400163466,부산광역시 부산진구 전포대로209번길 14 ,010-9666-8068
수라상,NOT_RECORD,35.1536599469326,129.060712258131,부산광역시 부산진구 중앙대로680번가길 5 ,010-9666-8068
3파운드,NOT_RECORD,35.153719117011,129.063498344453,부산광역시 부산진구 전포대로189번길 30  몽뜨레 1층 103호,010-9666-8068
오후의홍차,NOT_RECORD,35.1641035234731,129.128255094692,"부산광역시 수영구 민락수변로 243 프레임 4, 5층",051-753-5115
지즈,NOT_RECORD,35.1562755406682,129.065913517387,부산광역시 부산진구 서전로58번길 34-1 1층 101호,070-7731-1331
해물왕창칼국수,NOT_RECORD,35.1726983453411,128.983766139519,부산광역시 사상구 사상로 316 ,051-939-2579
쁘띠롱,NOT_RECORD,35.0988959981025,128.957990708597,부산광역시 사하구 하신번영로201번길 5 1층,010-9889-3086
순두부마을,NOT_RECORD,35.1816848742819,129.045743395738,부산광역시 부산진구 초읍천로 113-7 초읍파크빌리지,051-806-1166
페이센동(전포본점),NOT_RECORD,35.15744403347,129.064716513065,부산광역시 부산진구 서전로46번길 6 동명빌딩 1층,051-808-9399
명란김밥,NOT_RECORD,35.1632342927233,129.060905765166,부산광역시 부산진구 중앙대로783번길 23 ,010-8988-2148
원더러스트,NOT_RECORD,35.2275569744396,129.088499050849,부산광역시 금정구 장전온천천로 27 ,051-963-1212
오르디,NOT_RECORD,35.1397434729986,128.979127979692,부산광역시 사상구 대동로107번길 17 ,010-2377-8669
베이커리굴,NOT_RECORD,35.1570763332398,129.064723348674,부산광역시 부산진구 서전로46번길 14 ,010-4560-5644
샤브테이(부산점),NOT_RECORD,35.1548172363353,129.061574383506,부산광역시 부산진구 중앙대로692번길 45-7 ,051-802-0720
한월관,NOT_RECORD,35.1544039279275,129.118277940394,부산광역시 수영구 광안로62번길 10 광안비치올리브씨 1층,051-711-7025
하선집숯불돼지갈비전문점,NOT_RECORD,35.1621854272246,129.177337267349,부산광역시 해운대구 좌동순환로 395 한라프라자 1층,051-704-1139
용호동골목집,NOT_RECORD,35.1139846812025,129.11131646801,부산광역시 남구 용호로 203-4 ,051-623-4592
버들로스터리,NOT_RECORD,35.2374416773284,129.085556700558,부산광역시 금정구 수림로61번길 53 장성시장,050713213996
육돼,NOT_RECORD,35.1570634209043,129.06172565989,부산광역시 부산진구 동천로95번길 9-1 ,0507-1335-1228
갈매기타운(광안본점),NOT_RECORD,35.155479457306,129.131108503355,부산광역시 수영구 광안해변로344번길 9-9 ,070-8287-2239
진우린해장,NOT_RECORD,35.1617668654949,129.163192394835,부산광역시 해운대구 중동1로 44 1층,051-746-0222
황금고래촌,NOT_RECORD,35.140635537107,129.061945282144,부산광역시 동구 조방로38번길 9 ,051-637-5292
알제로스터즈,NOT_RECORD,35.1427828718894,129.110181650757,부산광역시 수영구 남천동로 11-1 ,010-2542-8590
종갓집양곱창,NOT_RECORD,35.1841157562023,129.07326331985,부산광역시 연제구 거제대로178번길 51-2 1층,051-853-0339
쏠레젤라또,NOT_RECORD,35.1579124752114,129.063552264986,부산광역시 부산진구 서전로 35 한진상가 1층,010-5152-9719
빈끌로,NOT_RECORD,35.1637666061429,129.162818057002,부산광역시 해운대구 중동1로19번길 21 ,010-9944-1259
요시라멘,NOT_RECORD,35.1699443801953,129.162419269148,부산광역시 해운대구 우동3로11번길 35 ,010-8720-2433
우적(명지점),NOT_RECORD,35.0951390804414,128.900532029694,부산광역시 강서구 명지국제6로1번가길 6 ,051-292-0673
우적,NOT_RECORD,35.106884201263,128.96474619181,부산광역시 사하구 낙동남로1405번길 9-7 1층,051-291-5567
홍유단(남포본점),NOT_RECORD,35.0984667361187,129.032043057012,부산광역시 중구 구덕로34번길 5 ,051-255-4001
쉽커피(사상점),NOT_RECORD,35.1615970175374,128.98552154247,부산광역시 사상구 사상로 182 청호빌딩 1층,070-7543-6598
쉽커피,NOT_RECORD,35.1601966007822,129.064670657225,부산광역시 부산진구 서전로47번길 51 ,070-4042-9377
웁스차이나,NOT_RECORD,35.2013530057444,129.004689179562,부산광역시 북구 시랑로 48 ,051-336-8817
못난이식당(해운대점),NOT_RECORD,35.1545054848614,129.144499481748,부산광역시 해운대구 마린시티1로 91 해운대두산위브포세이돈 2층,051-744-2527
홍이집,NOT_RECORD,35.1140544595347,129.110668253174,부산광역시 남구 용호로 204-1 서동빌딩 1층,051-711-8184
쭈꾸미가알고싶다,NOT_RECORD,35.0959339898496,128.923324015572,부산광역시 강서구 명지국제6로232번길 6 리베르 1층,010-9013-6143
언네임드커피,NOT_RECORD,35.1533282853577,129.0663576484,부산광역시 부산진구 서전로58번길 99 ,010-3398-0257
무국적신사,NOT_RECORD,35.15487220509,129.063759762022,부산광역시 부산진구 서전로38번길 62 지하1층 무국적신사,051-999-9492
포맨티코,NOT_RECORD,35.2284331858253,129.087818745151,부산광역시 금정구 장전로12번길 16 ,051-583-2682
다담블랑제리,NOT_RECORD,35.1952384059756,129.090472779539,부산광역시 동래구 온천천로339번길 27 유림스텐상사,051-913-7070
모티에과자점,NOT_RECORD,35.1548261795711,129.14324343864,부산광역시 해운대구 마린시티2로 47 트럼프월드마린아파트 C동 상가 101호,051-747-1230
소우데스,NOT_RECORD,35.1997184541055,129.060258589211,부산광역시 동래구 석사북로 5 ,070-7677-5911
한우야밥묵자,NOT_RECORD,35.2080349814329,129.072575910838,부산광역시 동래구 충렬대로107번길 27 ,010-6586-6667
다옴(서면심정타워점),NOT_RECORD,35.153006221653,129.059606320437,부산광역시 부산진구 중앙대로 672 삼정타워 5층 ,051-520-3778
다옴,NOT_RECORD,35.1473379314718,129.110916206941,"부산광역시 수영구 수영로464번길 9 준정빌딩 105호, 106호 ",070-4207-0372
미포집(송정직영점),NOT_RECORD,35.1727110253227,129.197664960772,부산광역시 해운대구 송정구덕포길 70 1-3층 ,051-703-6660
장덕풍천산삼민물장어(거제리직영점),NOT_RECORD,35.1769192419104,129.068255862773,부산광역시 연제구 거제대로 94 대진빌딩,051-867-5078
한남동스지,NOT_RECORD,35.1562599943634,129.059720837606,부산광역시 부산진구 서전로10번길 38 2층,010-7765-4433
꽃가람(서면직영점),NOT_RECORD,35.1585567897461,129.060795964543,부산광역시 부산진구 서전로9번길 18 ,051-816-4865
꽃가람 ,NOT_RECORD,35.1099991150563,129.038548379857,부산광역시 중구 충장대로9번길 53 ,051-466-4600
돗간,NOT_RECORD,35.1048967171145,128.924539994878,부산광역시 강서구 명지국제12로29번길 4 다정빌 1층 ,010-8366-0630
육삼정,NOT_RECORD,35.1751629116698,129.124506074509,부산광역시 해운대구 센텀중앙로 97 센텀스카이비즈 B동 1층 108호,051-917-6363
쁘렛,NOT_RECORD,35.1017165268215,129.021466735408,부산광역시 서구 보수대로 65-1 ,051-257-9244
콕콕,NOT_RECORD,35.1579136940403,129.182297074709,부산광역시 해운대구 달맞이길 189 ,051-741-1122
요이쿠마(본점),NOT_RECORD,35.1579690940204,129.126595463726,부산광역시 수영구 광안해변로307번길 20 ,0507-1315-5497
모닝베어,NOT_RECORD,35.1846122046886,129.211425374497,부산광역시 기장군 기장읍 공수해안길 17 ,0507-1333-5497
에타리(교대본점),NOT_RECORD,35.1956148781754,129.077782130354,부산광역시 연제구 교대로 18-1 ,051-503-9307
에타리,NOT_RECORD,35.228990181781,129.087427214933,부산광역시 금정구 장전로18번길 23 ,
우미남본인미트,NOT_RECORD,35.1765866865981,129.126489620138,부산광역시 해운대구 센텀동로 102 센텀필 상가 1층,010-8055-1352
서끝,NOT_RECORD,35.0485885803432,128.965360439629,부산광역시 사하구 다대로 698 4층,051-266-5530
단독,NOT_RECORD,35.138704405758,129.105553169167,부산광역시 남구 용소로13번길 101-6 1층,010-8305-0311
정짓간돼지국밥&막국수,NOT_RECORD,35.095694521066,128.962482014543,부산광역시 사하구 비봉로 6 ,051-293-2900
트와엣모아,NOT_RECORD,35.1521633925329,129.067791553404,부산광역시 부산진구 전포대로176번길 40 ,010-7574-4533
릴레이지,NOT_RECORD,35.1521105560894,129.063190759889,부산광역시 부산진구 전포대로175번길 37 ,010-8322-8247
수매풍생선구이식당,NOT_RECORD,35.1897379119281,129.077277985473,부산광역시 연제구 월드컵대로188번길 39 1층,051-852-0235
이흥용과자점(문현점),NOT_RECORD,35.137134,129.072477,부산광역시 남구 수영로39번길 2-1 ,051-635-4454
이흥용과자점(부산대점),NOT_RECORD,35.2302824273626,129.083929819482,부산광역시 금정구 부산대학로63번길 30 ,051-711-4454
이흥용과자점(사직점),NOT_RECORD,35.192647,129.067487,부산광역시 연제구 아시아드대로 90 ,051-502-6268
송정물총칼국수,NOT_RECORD,35.1763321166419,129.196628281737,부산광역시 해운대구 송정중앙로6번길 184 1층,070-7758-6662
멀틴,NOT_RECORD,35.1620624914999,129.117466466889,부산광역시 수영구 수영로636번길 47 ,010-4929-7698
에르마나,NOT_RECORD,35.077857525133,129.064652742881,부산광역시 영도구 와치로 195 제이상가 101호,051-405-0823
그라치에,NOT_RECORD,35.0890251834784,129.061561483318,부산광역시 영도구 청학동로 12 1층  ,070-4150-9999
러버커피,NOT_RECORD,35.1551382672248,129.065686808293,부산광역시 부산진구 전포대로 208 2층 러버커피,010-9258-7354
그린애플,NOT_RECORD,35.1892332005049,129.087241217944,부산광역시 연제구 반송로 62-17 ,010-9551-7655
갓포신,NOT_RECORD,35.0988479365312,129.029342915273,부산광역시 중구 남포길 6  ,010-4560-1409
보사노바커피로스터스(부산롯데월드점),NOT_RECORD,35.1960289048182,129.212971319364,부산광역시 기장군 기장읍 동부산관광로 42 롯데월드어드벤처 부산 ,051-794-5944
오르,NOT_RECORD,35.1681333894814,129.156151467948,부산광역시 해운대구 우동1로71번길 26-1 1층,051-731-2359
정움,NOT_RECORD,35.1752588677792,129.104610671364,부산광역시 수영구 과정로41번길 54-2 정움,010-3826-1431
브로쓰마카롱,NOT_RECORD,35.1556582045371,129.058140841025,부산광역시 부산진구 서면로 56 서면시장 2층,010-6684-6257
양화옥,NOT_RECORD,35.1358445327458,129.101066942189,부산광역시 남구 용소로19번길 5 ,051-622-7372
남천낙지,NOT_RECORD,35.144173386034,129.110490077736,부산광역시 수영구 남천동로9번길 31 ,051-626-2017
이튼,NOT_RECORD,35.1964987924371,129.069672543438,부산광역시 동래구 아시아드대로126번길 56 1층 EETEN,010-6626-5032
파니니브런치(송도점),NOT_RECORD,35.0709472509659,129.018354647374,부산광역시 서구 송도해변로 11 ,0507-1458-1906
카페686,NOT_RECORD,35.3358448313731,129.169712340303,부산광역시 기장군 정관읍 모전2길 19-5 ,051-727-6883
명지광복경양식,NOT_RECORD,35.0953268493727,128.924085193906,부산광역시 강서구 명지국제6로220번길 19 ,051-291-2400
샐픽,NOT_RECORD,35.1562465529703,129.034874574564,부산광역시 부산진구 가야대로507번길 164 우수스크린건물 3층,051-903-5017
해신해물찜,NOT_RECORD,35.1146427363445,129.015612675625,부산광역시 서구 구덕로 346-1 2층 ,051-231-3082
양지바름,NOT_RECORD,35.2088927163383,129.008998327616,부산광역시 북구 만덕대로28번길 43 1층,010-8941-0277
화명옥,NOT_RECORD,35.2313887204965,129.009438763052,부산광역시 북구 용당로9번길 3 야호 하우스 1층 ,051-364-3344
광안리남매,NOT_RECORD,35.1467159304824,129.114074496346,부산광역시 수영구 남천동로108번길 54 태광 201호,070-4312-6566
명지첫집,NOT_RECORD,35.095816126424,128.924447353214,부산광역시 강서구 명지국제6로232번길 18 1층 ,051-202-9599
오데뜨(부산점),NOT_RECORD,35.1597295871407,129.150704866293,부산광역시 해운대구 해운대로 540 ,051-731-2722
요이쿠마,NOT_RECORD,35.1579690940204,129.126595463726,부산광역시 수영구 광안해변로307번길 20 1층 요이쿠마,051-755-5497
정재집,NOT_RECORD,35.1375739262404,129.105437932465,부산광역시 남구 용소로21번길 109 1층 정재집,051-925-1866
부산밀면거제옥,NOT_RECORD,35.1896888304025,129.077958753952,부산광역시 연제구 거제대로272번길 22 1층 거제옥,051-851-8255
에타리(광안리점),NOT_RECORD,35.1567777014,129.125218749092,부산광역시 수영구 광안해변로279번길 25 ,070-8722-0333
삼보아구찜,NOT_RECORD,35.1507012511204,129.016369074792,부산광역시 부산진구 진사로 9 삼보아구찜,051-891-2329
장덕풍천산삼민물장어,NOT_RECORD,35.1568124461,129.134474818443,부산광역시 수영구 민락수변로 147 1층,051-757-5078
소막골본점,NOT_RECORD,35.1714840302377,129.176548590157,부산광역시 해운대구 세실로 77 성부빌딩,051-731-1117
구포국수(해운대본점),NOT_RECORD,35.1625391557254,129.163252246854,부산광역시 해운대구 중동1로 33-1 ,051-747-7894
크리스탈가든,NOT_RECORD,35.160134,129.164688,부산광역시 해운대구 해운대해변로 296 파라다이스호텔부산 본관 1층,051-749-2230
시골쌈밥집,NOT_RECORD,35.16395,129.163466,부산광역시 해운대구 중동1로19번길 33 ,051-746-0978
나마스테(해운대점),NOT_RECORD,35.160217,129.160626,부산광역시 해운대구 해운대해변로265번길 7 ,051-746-1946
속씨원한대구탕(리베라점),NOT_RECORD,35.1608598597668,129.155440494412,부산광역시 해운대구 해운대로570번길 11 ,051-731-4222
초원복국(해운대점),NOT_RECORD,35.162901,129.16596,부산광역시 해운대구 해운대해변로 329-2 ,051-628-3935
소문난원조쌈밥,NOT_RECORD,35.163648,129.162356,부산광역시 해운대구 중동1로19번길 11 ,051-747-4602
원산면옥,NOT_RECORD,35.162798,129.169739,부산광역시 해운대구 좌동순환로 473 해운대로데오아울렛101호,051-747-8001
면옥향천,NOT_RECORD,0.0,0.0,부산광역시 해운대구 해운대로383번길 26 ,051-747-4601
중식궁,NOT_RECORD,35.1664869604816,129.157747389738,부산광역시 해운대구 우동1로 58 ,051-746-1278
부성회관,NOT_RECORD,35.16202,129.1637,부산광역시 해운대구 중동1로 13-5 ,051-746-7575
사북칼국수,NOT_RECORD,35.162886,129.16282,부산광역시 해운대구 중동1로 29 ,051-744-0117
일번지자갈치산곰장어,NOT_RECORD,35.160995,129.162039,부산광역시 해운대구 구남로41번길 12 ,051-743-5340
까밀리아,NOT_RECORD,35.15596,129.153982,부산광역시 해운대구 동백로 67 부산웨스틴조선호텔 로비층,051-749-7434
일품한우,NOT_RECORD,35.160238,129.159412,부산광역시 해운대구 해운대로570번길 49 ,051-747-9900
강가(해운대점),NOT_RECORD,35.159693,129.159594,부산광역시 해운대구 해운대해변로 257 엘지하버타운,051-740-6670
딤타오,NOT_RECORD,35.1639381934054,129.156456150697,부산광역시 해운대구 우동1로 25 ,051-741-3638
해운대소문난삼계탕,NOT_RECORD,35.162628,129.165008,부산광역시 해운대구 중동2로 6 ,051-741-4545
옵스(해운대점),NOT_RECORD,0.0,0.0,부산광역시 해운대구 중동1로 31 ,051-747-6886
스페인클럽,NOT_RECORD,35.160204,129.166597,부산광역시 해운대구 해운대해변로298번길 24 팔레드시즈,051-746-1164
은쏨,NOT_RECORD,35.1683818379794,129.155791929248,부산광역시 해운대구 우동1로85번길 8 ,010-5324-0799
오킴스,NOT_RECORD,35.15597,129.153993,부산광역시 해운대구 동백로 67 웨스틴조선호텔부산 1층,051-749-7439
복미아구찜(본점),NOT_RECORD,35.16904,129.170258,부산광역시 해운대구 좌동로 33 ,0503-5339-0428
미각원,NOT_RECORD,35.1715718576974,129.172807604468,부산광역시 해운대구 좌동로53번길 31 ,051-743-0333
리리파이,NOT_RECORD,35.1611826061236,129.173697603189,부산광역시 해운대구 달맞이길65번길 33 달맞이 유림노르웨이숲 상가동 1층 105호,0507-1344-8343
고동운식당,NOT_RECORD,35.1631650904754,129.184575033896,부산광역시 해운대구 달맞이길117번나길 151  벨로스 1층,010-9721-7216
미포끝집,NOT_RECORD,35.156554,129.174908,부산광역시 해운대구 달맞이길62번길 77 ,051-746-0969
몽,NOT_RECORD,35.157444,129.175554,부산광역시 해운대구 달맞이길 120 ,051-742-8994
호랑이젤라떡,NOT_RECORD,35.158500786398,129.171182572303,부산광역시 해운대구 달맞이길62번길 38 ,0507-1302-4130
원조할매복국,NOT_RECORD,35.160908,129.171518,부산광역시 해운대구 달맞이길62번길 1 ,051-742-2789
수민이네,NOT_RECORD,35.160588,129.190993,부산광역시 해운대구 청사포로58번길 118 ,051-701-7661
솔마루,NOT_RECORD,35.158139,129.175574,부산광역시 해운대구 달맞이길117번길 11 ,051-747-5888
카페디아트,NOT_RECORD,35.1607289239226,129.191867554605,부산광역시 해운대구 청사포로128번길 12 ,051-702-1253
오페라하우스,NOT_RECORD,35.159002,129.175454,부산광역시 해운대구 달맞이길117번길 29 ,051-746-6670
할매집원조복국(해운대 2호점),NOT_RECORD,35.160337,129.170824,부산광역시 해운대구 달맞이길62번길 10-2 ,051-747-7625
미포이씨할매횟집,NOT_RECORD,35.1579862593401,129.172080732723,부산광역시 해운대구 달맞이길62번길 46 ,051-744-1157
시골집추어탕,NOT_RECORD,35.208309,129.123651,부산광역시 해운대구 반여로185번길 64 ,051-526-7309
엄마손대구탕,NOT_RECORD,35.182786,129.200969,부산광역시 해운대구 송정중앙로6번길 20 ,051-703-8683
송정집,NOT_RECORD,35.176170856997025,129.196337819108,부산광역시 해운대구 송정광어골로 59 ,051-704-0577
길조,NOT_RECORD,35.174051,129.196243,부산광역시 해운대구 송정광어골로 84 ,051-704-5662
자연횟집,NOT_RECORD,35.1701854177399,129.197247985138,부산광역시 해운대구 송정구덕포길 128 ,051-703-9335
카페벨라비,NOT_RECORD,35.178859,129.198226,부산광역시 해운대구 송정광어골로 25 ,051-704-9588
테이블4,NOT_RECORD,35.175553,129.19593,부산광역시 해운대구 송정광어골로 66 ,051-701-7707
곤국,NOT_RECORD,35.1476949894647,129.067558877244,부산광역시 남구 황령대로74번길 51-1 1층,0507-1305-6586
광복경양식남포본점,NOT_RECORD,35.1001681461177,129.03074784905,부산광역시 중구 광복중앙로 9 새부산타운 ,051-244-4668
소설담,NOT_RECORD,35.1558589610766,129.064109704721,부산광역시 부산진구 서전로38번길 43-3 ,051-804-5263
카페윤,NOT_RECORD,35.1819077121661,129.21135273795,부산광역시 기장군 기장읍 기장해안로 34-16 ,010-4944-0631
명송초밥,NOT_RECORD,35.1017486801928,129.0358849493909,부산광역시 중구 해관로 32 ,051-246-1225
중앙곰탕,NOT_RECORD,35.10611139201,129.037346476446,부산광역시 중구 충장대로9번길 9 ,051-469-4117
옵스(롯데광복점),NOT_RECORD,0.0,0.0,부산광역시 중구 중앙대로 2 롯데백화점광복점 B1,051-678-3053
큰집,NOT_RECORD,35.100267,129.029836,부산광역시 중구 중구로24번길 19 ,051-245-3320
원미돌솥밥숯불갈비,NOT_RECORD,35.101588,129.037012,부산광역시 중구 중앙대로46번길 4 ,051-462-3068
중앙식당,NOT_RECORD,35.100621980423526,129.03600605525398,부산광역시 중구 해관로 20-3 ,051-246-1129
모티커리,NOT_RECORD,0.0,0.0,부산광역시 중구 중앙대로42번길 6 1층,051-466-0998
커피산책,NOT_RECORD,35.104886,129.035652,부산광역시 중구 중앙대로81번길 3-1 ,051-465-7017
종각집,NOT_RECORD,35.0998431113065,129.030515435215,부산광역시 중구 광복로49번길 7 ,051-246-0737
그집곱도리탕,NOT_RECORD,35.110144,129.038371,부산광역시 중구 충장대로5번길 56-2 ,051-807-5564
깡통골목원조비빔당면,NOT_RECORD,35.102294,129.026419,부산광역시 중구 중구로47번길 28 ,051-254-4240
한양족발,NOT_RECORD,35.099573,129.026493,부산광역시 중구 광복로 13 ,051-246-3039
부평통닭,NOT_RECORD,35.10218,129.025815,부산광역시 중구 부평1길 59 ,051-255-9245
아치베이커리,NOT_RECORD,35.1019130832091,129.029979138833,부산광역시 중구 중구로44번길 19-1 ,070-4190-9393
이화양곱창,NOT_RECORD,35.100403,129.02605,부산광역시 중구 중구로29번길 33 ,051-246-9282
언양불고기,NOT_RECORD,0.0,0.0,부산광역시 중구 부평2길 35 ,051-245-7060
멸치쌈밥집,NOT_RECORD,35.102028,129.034209,부산광역시 중구 백산길 10 ,051-245-8330
멕코이치킨(부평점),NOT_RECORD,35.099072288132,129.026145977308,부산광역시 중구 보수대로24번길 9-1 ,051-246-5592
대정양곱창,NOT_RECORD,35.0999588364497,129.026093795456,부산광역시 중구 중구로23번길 31 ,051-248-0228
올레,NOT_RECORD,35.101654,129.031367,부산광역시 중구 광복중앙로24번길 4-4 ,051-241-2011
새부평한우갈비,NOT_RECORD,35.1008155120753,129.026335295866,부산광역시 중구 부평2길 29 ,051-246-2371
남해양곱창,NOT_RECORD,35.0970547948845,129.02783968921,부산광역시 중구 자갈치로 33 ,051-246-5335
백화양곱창(2호점),NOT_RECORD,35.096938,129.027025,부산광역시 중구 자갈치로23번길 6 ,051-245-0105
소문난김밥집,NOT_RECORD,35.1007824609015,129.025277299063,부산광역시 중구 흑교로 16 ,051-246-0443
바다집,NOT_RECORD,0.0,0.0,부산광역시 중구 광복로43번길 18 ,051-245-1924
산청돼지국밥,NOT_RECORD,35.1013614984089,129.034840833733,부산광역시 중구 대청로134번길 18 ,051-245-4582
남포삼계탕,NOT_RECORD,35.09877275439449,129.03042046250266,부산광역시 중구 남포길 16 ,051-245-5075
우리보리밥,NOT_RECORD,35.097387649815,129.031054972076,부산광역시 중구 자갈치로 64 ,051-245-4397
고래1번지,NOT_RECORD,35.097342,129.030575,부산광역시 중구 자갈치로 58 ,051-231-1105
상미상회,NOT_RECORD,35.0966137768508,129.030583690953,부산광역시 중구 자갈치해안로 52 1층,051-244-1731
파머스버거,NOT_RECORD,35.101327,129.031372,부산광역시 중구 광복중앙로24번길 4-9 ,051-244-5706
친구네집,NOT_RECORD,35.096639,129.030593,부산광역시 중구 자갈치해안로 52 자갈치시장,010-6414-7390
서울삼계탕,NOT_RECORD,35.098278255944784,129.0326099887927,부산광역시 중구 남포길 36 ,051-245-3696
꼬모도,NOT_RECORD,35.09934,129.031765,부산광역시 중구 광복로 59-1 ,051-245-5599
미나미(남포점),NOT_RECORD,35.098394,129.032787,부산광역시 중구 남포길 35-2 ,051-245-9854
창녕돼지국밥,NOT_RECORD,35.163052,129.115352,부산광역시 수영구 무학로9번길 28-3 ,051-752-2412
해초록,NOT_RECORD,35.156397,129.124704,부산광역시 수영구 광안해변로279번길 11 ,051-758-3200
명송회오리탕,NOT_RECORD,35.156909,129.126251,부산광역시 수영구 광안해변로 299 민락동씨랜드활어센타,051-755-0990
비스포레,NOT_RECORD,35.1636454218449,129.128673102943,부산광역시 수영구 민락수변로239번길 4 3층,051-759-8828
둔내막국수,NOT_RECORD,35.168509,129.115284,부산광역시 수영구 수영로725번길 62-3 ,051-751-0097
부산횟집,NOT_RECORD,35.153183,129.124689,부산광역시 수영구 민락수변로 29 바다마루 B/D 4층,051-753-8881
대만만두,NOT_RECORD,35.168916,129.118907,부산광역시 수영구 수영로 727-8 ,051-756-5245
신라횟집,NOT_RECORD,35.1552453748854,129.124562006162,부산광역시 수영구 민락수변로7번길 16 비치프라자 2층,051-753-2800
서울김밥,NOT_RECORD,35.139128,129.109057,부산광역시 수영구 광안해변로15번길 77 남천해변시장,051-625-1919
보성녹차,NOT_RECORD,35.140688,129.108663,부산광역시 수영구 수영로394번길 28 ,051-625-5544
할매손,NOT_RECORD,35.144893,129.107271,부산광역시 수영구 남천서로20번길 31 ,051-626-3873
다케다야,NOT_RECORD,35.146675,129.112887,부산광역시 수영구 남천동로108번길 31 ,051-611-5711
청도추어탕,NOT_RECORD,35.159441,129.122,부산광역시 수영구 감포로8번길 23 ,051-754-5454
테라로사(수영점),NOT_RECORD,35.17675979522431,129.1154916984382,부산광역시 수영구 구락로123번길 20 F1963,033-648-2760
덩굴아나고,NOT_RECORD,35.138888,129.107411,부산광역시 수영구 황령대로 483-7 ,051-626-3592
하모횟집,NOT_RECORD,35.157186,129.126644,부산광역시 수영구 광안해변로295번길 4-19 ,051-757-0205
로옹,NOT_RECORD,35.14789874379,129.114371050111,부산광역시 수영구 광안해변로 145 ,070-8848-3774
동화반점(남천동점),NOT_RECORD,35.144219,129.108687,부산광역시 수영구 수영로427번길 11 ,051-611-6686
갈매기브루잉,NOT_RECORD,35.1475298728401,129.112699539488,부산광역시 수영구 광남로 58 2층,051-627-4328
신창국밥(남천점),NOT_RECORD,35.1405020867206,129.110195058347,부산광역시 수영구 남천동로24번길 42 남천힐대중탕,051-626-6015
발리우드,NOT_RECORD,35.1530535306512,129.117253666063,부산광역시 수영구 광남로130번길 9 ,051-987-9673
옛날쌈밥,NOT_RECORD,35.146295,129.110551,부산광역시 수영구 수영로 452-7 ,051-621-1350
언양불고기부산집,NOT_RECORD,35.14872,129.114296,부산광역시 수영구 남천바다로33번길 8 ,051-752-9922
진미횟집,NOT_RECORD,35.152664,129.11747,부산광역시 수영구 광안해변로 207 로즈모텔 1층,051-758-8700
정국수,NOT_RECORD,35.160547978705,129.112634186893,부산광역시 수영구 수영로611번길 17 ,051-758-9994
시장할매칼국수,NOT_RECORD,35.1604365509478,129.111996172436,부산광역시 수영구 수영로607번길 28-3 ,051-752-4949
수복식당,NOT_RECORD,35.166384,129.11619,부산광역시 수영구 수영로680번길 21 ,051-751-3613
장가계,NOT_RECORD,35.1575138371245,129.112058634956,부산광역시 수영구 장대골로7번길 36 ,051-751-3242
연합횟집,NOT_RECORD,35.1402231925496,129.109837348817,부산광역시 수영구 황령대로489번길 59 ,051-623-6039
진주한우양곱창,NOT_RECORD,35.1671398225212,129.11734386091,부산광역시 수영구 무학로9번길 138 ,051-758-1460
세잔네작은커피가게,NOT_RECORD,35.1610115886099,129.108737696449,부산광역시 수영구 광일로29번가길 34 비치-그린아파트 상가동,051-758-5657
빵소쿠리,NOT_RECORD,35.1574319393608,129.113586571518,부산광역시 수영구 수영로582번길 10 성원상떼빌 상가동 103호,051-757-6660
우성삼계탕,NOT_RECORD,35.167189,129.114112,부산광역시 수영구 광서로10번길 68 ,051-751-2984
양산왕돼지국밥,NOT_RECORD,35.184966,129.126381,부산광역시 해운대구 재반로 70 ,051-781-2722
굿손(전포점),NOT_RECORD,35.1526154731084,129.06755589952,부산광역시 부산진구 동성로25번길 15 ,
듀코비다이너,NOT_RECORD,35.1543321420614,129.064711263602,부산광역시 부산진구 전포대로199번길 9 ,070-4146-7760
유밀,NOT_RECORD,35.1542766932637,129.067116578471,부산광역시 부산진구 서전로68번길 78 ,010-8536-0747
미가정,NOT_RECORD,35.178313,129.05231,부산광역시 부산진구 성지로93번길 16 ,051-803-9185
애경이네집,NOT_RECORD,35.0663132749525,129.013444604395,부산광역시 서구 원양로144번길 24 ,051-253-4464
기와집,NOT_RECORD,35.187576,129.048702,부산광역시 부산진구 성지곡로 59 ,051-503-4075
유씨집,NOT_RECORD,35.2767681113279,129.074037527178,부산광역시 금정구 상마2길 17-1 ,051-508-4003
오소리순대,NOT_RECORD,35.187331,129.078949,부산광역시 연제구 월드컵대로 162 ,051-852-2066
산성창녕집,NOT_RECORD,35.244537,129.055322,부산광역시 금정구 산성로 520 ,051-517-5288
라뽀아르,NOT_RECORD,35.244698,129.087062,부산광역시 금정구 수림로72번길 120 ,051-753-1111
영진돼지국밥(명지점),NOT_RECORD,35.085652,128.911214,부산광역시 강서구 명지오션시티8로 31 ,051-271-7878
밀양돼지국밥,NOT_RECORD,35.1528463499554,129.025536940208,부산광역시 부산진구 가야대로 488-3 ,051-891-0079
랑돼지(덕천점),NOT_RECORD,35.2093397485975,129.008419493443,부산광역시 북구 의성로122번길 52-6 ,010-8107-8843
차이797플러스(롯데부산본점),NOT_RECORD,35.156789983664,129.056416218143,부산광역시 부산진구 가야대로 772 ,051-810-2091
옥천사세탁,NOT_RECORD,35.1569956657522,129.0660187458,부산광역시 부산진구 서전로58번길 18 ,010-3931-1643
미미떡집,NOT_RECORD,35.1103828694975,129.01915319516,부산광역시 서구 대영로 72-1 ,051-242-0775
하트&나비,NOT_RECORD,35.2048999529876,129.079317128029,부산광역시 동래구 충렬대로179번길 27-9 ,010-4713-8656
원할머니보쌈(부산명지점),NOT_RECORD,35.0935748115891,128.905970751219,부산광역시 강서구 명지국제1로 56-2 제이티프라자 106호, 051-206-5355
김유순대구뽈찜전문집,NOT_RECORD,35.136304,129.0914,부산광역시 남구 못골로 79-10 ,051-627-4319
아빠와돈까스,NOT_RECORD,35.206846,129.075365,부산광역시 동래구 중앙대로1335번길 43 ,051-553-2052
옵스(구서골드점),NOT_RECORD,0.0,0.0,부산광역시 금정구 금강로 477 구서골드2상가 105호,051-581-7070
옵스(LG메트로시티점),NOT_RECORD,0.0,0.0, LG메트로시티상가 1005-111,051-612-1970
옵스(마린시티점),NOT_RECORD,0.0,0.0,부산광역시 해운대구 마린시티1로 167 카멜리아상가 1층,051-743-1950
삼생원,NOT_RECORD,35.114518,129.038543,부산광역시 동구 대영로243번길 56 ,051-468-4881
고궁삼계탕,NOT_RECORD,35.112492,129.039678,부산광역시 동구 중앙대로180번길 12-10 ,051-463-6360
호야스시,NOT_RECORD,35.1963895550612,129.07898662985,부산광역시 연제구 교대로22번길 51 ,051-557-0676
브라운핸즈백제,NOT_RECORD,35.1163390608248,129.03914165301,부산광역시 동구 중앙대로209번길 16 ,051-464-0332
소문난칼국수,NOT_RECORD,35.1225586870286,129.110160951087,부산광역시 남구 용호로110번길 38 ,051-621-7600
선어마을,NOT_RECORD,35.0971326235742,129.024278335463,부산광역시 서구 구덕로114번길 17 ,051-255-9668
모모스로스터리&커피바,NOT_RECORD,35.0960261533655,129.042578733,부산광역시 영도구 봉래나루로 160 ,070-5129-0184
우마이도,NOT_RECORD,35.230142,129.084436,부산광역시 금정구 금강로 247-5 ,051-514-8785
우디브룩,NOT_RECORD,35.134256539049,128.998516737722,부산광역시 사상구 학감대로 2 ,051-314-2593
현우동(부산점),NOT_RECORD,35.1761561548515,129.12584611422,부산광역시 해운대구 센텀동로 99 벽산이센텀클래스원 1차 112호,051-784-5048
조장,NOT_RECORD,35.1576453640189,129.066411881854,부산광역시 부산진구 서전로 62 ,051-818-8185
메이크씨,NOT_RECORD,35.3083457177993,129.259332212758,부산광역시 기장군 일광읍 일광로 754 ,051-1360-1469
코랄라니,NOT_RECORD,35.1823746936464,129.208957923809,부산광역시 기장군 기장읍 기장해안로 32 ,051-721-6789
공극샌드커피,NOT_RECORD,35.1844862961937,129.213098144996,부산광역시 기장군 기장읍 공수해안길 41 ,051-723-9770
구내식당,NOT_RECORD,35.0899019673685,129.026369121927,부산광역시 서구 충무대로 202 부산공동어시장,051-254-7019
가마솥돼지국밥,NOT_RECORD,35.0874974889359,129.044152952941,부산광역시 영도구 남항시장길 350 ,051-413-8609
진목카페,NOT_RECORD,35.1058911701386,128.931293538889,부산광역시 강서구 명지새동네길2번길 56-3 ,0507-1351-5363
오버랩,NOT_RECORD,35.2001640994822,129.228896295351,부산광역시 기장군 기장읍 기장해안로 268-31 아난티코브 1층,
모루식당,NOT_RECORD,35.1559851909963,129.063994717674,부산광역시 부산진구 서전로38번길 37 ,010-3676-6949
아하스시,NOT_RECORD,35.2294092184426,129.01284424083,부산광역시 북구 금곡대로 238 롯데캐슬멤버스아파트,051-364-3455
바오나이트마켓,NOT_RECORD,35.1569904220616,129.065935219113,부산광역시 부산진구 서전로58번길 18-1 ,0507-1389-4269
소인수분해,NOT_RECORD,35.1584975140978,129.063165868686,부산광역시 부산진구 동천로108번길 11 ,010-7264-0611
다도서귀포,NOT_RECORD,35.0959722841611,129.025970899438,부산광역시 서구 자갈치로 14-10 ,051-246-2611
연산낙지해물탕,NOT_RECORD,35.1823203548958,129.106907013778,부산광역시 연제구 과정로 121 ,051-758-8838
함경면옥,NOT_RECORD,35.202485,129.083027,부산광역시 동래구 충렬대로 213 ,051-556-2020
조방낙지,NOT_RECORD,35.138844,129.061889,부산광역시 동구 조방로 21 ,051-637-1001
기장곰장어,NOT_RECORD,35.1728720214496,129.174192987288,부산광역시 해운대구 좌동로91번길 19 ,051-701-8921
솥이랑(서면점),NOT_RECORD,35.153006221653,129.059606320437,부산광역시 부산진구 중앙대로 672 삼정타워 6층 602호,051-520-3776
경주박가국밥(토곡점),NOT_RECORD,35.184352,129.107454,부산광역시 연제구 고분로 232 ,051-759-8202
소문난가야밀면,NOT_RECORD,35.181709,129.072816,부산광역시 연제구 거제시장로14번길 28 (주)거제시장,051-862-5880
황금오리알,NOT_RECORD,35.172467,128.914957,부산광역시 강서구 제도로 667 ,051-971-0002
엄마손팥집,NOT_RECORD,35.131001,129.092302,부산광역시 남구 유엔평화로 43 ,051-627-7555
김해원조뒷고기,NOT_RECORD,35.232702,129.086058,부산광역시 금정구 금강로 276-9 ,051-517-6148
제이엠커피로스터스,NOT_RECORD,35.18289,129.210284,부산광역시 기장군 기장읍 기장해안로 44 ,051-722-3810
라마앤바바나(서면점),NOT_RECORD,35.1532278388789,129.061263035783,부산광역시 부산진구 중앙대로680번길 38 ,051-804-0901
아티스타,NOT_RECORD,35.167187,129.171778,부산광역시 해운대구 좌동로10번길 52-1 ,010-2787-8705
밍주(센텀점),NOT_RECORD,35.166932,129.1333,부산광역시 해운대구 센텀2로 29 센텀마커스 빌딩 2층,051-747-1849
수비가든,NOT_RECORD,35.168651,129.141469,부산광역시 해운대구 해운대로469번길 142 ,051-746-8998
한끼뚝딱,NOT_RECORD,35.1243802794733,129.112038580419,부산광역시 남구 용호로90번길 12-4 삼성주택,051-627-2017
초원복국(영도동점),NOT_RECORD,35.137809,129.105921,부산광역시 영도구 태종로89번길 12 ,051-413-0495
동신참치,NOT_RECORD,35.21765,129.081747,부산광역시 동래구 온천장로 69-1 ,051-553-3511
옥미아구찜(남산점),NOT_RECORD,35.263623,129.086537,부산광역시 금정구 금강로611번길 36 ,051-516-1122
리스또란떼,NOT_RECORD,35.219814,129.082072,부산광역시 동래구 금강공원로20번길 23 호텔농심,051-550-2301
풍년오리박사,NOT_RECORD,35.275753,129.088286,부산광역시 금정구 청룡로 40 ,051-508-4642
하동재첩국,NOT_RECORD,35.1934,128.985859,부산광역시 사상구 낙동대로1518번길 33 ,051-301-7200
새미골해물아구찜,NOT_RECORD,35.192711,129.099425,부산광역시 동래구 안연로 58-1 ,051-525-0555
가야할매밀면,NOT_RECORD,35.185178,129.079872,부산광역시 연제구 월드컵대로145번길 32 석정빌딩,051-865-8017
청담,NOT_RECORD,35.20467,129.0821,부산광역시 연제구 연안로 1 ,051-761-0002
제주복국,NOT_RECORD,35.071005,129.068879,부산광역시 영도구 절영로 481 ,051-405-5050
바다횟집,NOT_RECORD,35.16864,129.036525,부산광역시 부산진구 당감서로 92-1 ,051-804-7226
대수정,NOT_RECORD,35.140826,129.063016,부산광역시 동구 자성로133번길 46 ,051-647-0147
금호복요리전문점,NOT_RECORD,35.086285,129.024132,부산광역시 서구 충무대로177번길 7 ,051-255-4379
대티물꽁,NOT_RECORD,35.102439,129.000453,부산광역시 사하구 낙동대로135번안길 15 ,051-203-4425
함안매운탕,NOT_RECORD,35.26048,129.0894,부산광역시 금정구 두실로 17 태광빌딩,051-514-8216
예원한정식,NOT_RECORD,35.203925,129.082348,부산광역시 동래구 삼성대길 22 ,051-556-1155
여의도족발,NOT_RECORD,35.203269,129.084003,부산광역시 동래구 명륜로94번길 22 ,051-555-6874
더포,NOT_RECORD,35.194677,129.066081,부산광역시 동래구 아시아드대로 113 효림빌딩 1층,051-505-0043
미조리초밥,NOT_RECORD,35.161764,128.983009,부산광역시 사상구 광장로 60 르네상스 호텔,051-326-5775
새들원,NOT_RECORD,35.128122,128.969456,부산광역시 사상구 낙동대로 749 2층,051-311-1916
멜버른,NOT_RECORD,35.191892,129.101216,부산광역시 동래구 온천천로441번길 3 ,051-523-1135
커피팜,NOT_RECORD,35.101768,128.977029,부산광역시 사하구 다대로 3 ,051-292-1028
구룡가식당,NOT_RECORD,35.298784,129.25784,부산광역시 기장군 일광면 박영준길 3 ,051-727-0457
신선식당,NOT_RECORD,35.139732,129.060577,부산광역시 동구 조방로49번길 13 제일상가아파트,051-631-9209
덕미생선구이,NOT_RECORD,35.117524,129.038896,부산광역시 동구 중앙대로221번길 32 ,051-464-1213
장수꼬리곰탕,NOT_RECORD,35.23308,129.008466,부산광역시 북구 용당로20번길 26 ,051-361-7500
주례칼국수,NOT_RECORD,35.149679,129.004206,부산광역시 사상구 가야대로284번길 7-6 ,051-311-4628
메종드아올스,NOT_RECORD,35.233335,129.086192,부산광역시 금정구 부산대학로50번길 43-1 ,070-8760-0522
미미참족발,NOT_RECORD,35.199076,129.111927,부산광역시 동래구 안락로 137 정씨빌딩,051-531-1235
삼돌식당,NOT_RECORD,35.154618,129.06594,부산광역시 부산진구 전포대로200번길 7 ,051-806-8622
겐로쿠우동(부산점),NOT_RECORD,35.137033,129.103279,부산광역시 남구 수영로334번길 35 ,051-611-8945
맥켄양념치킨,NOT_RECORD,35.139163,129.059947,부산광역시 동구 조방로49번길 18-1 ,051-635-0822
콩마을,NOT_RECORD,35.172085,129.175763,부산광역시 해운대구 세실로69번길 19 블루스퀘어,051-704-1030
외양간,NOT_RECORD,35.173435,129.175386,부산광역시 해운대구 세실로 99-1 ,051-704-4611
서포선지국,NOT_RECORD,35.132084,129.089488,부산광역시 남구 천제등로 46 ,051-628-8665
영분식,NOT_RECORD,35.115347,129.093964,부산광역시 남구 신선로329번길 18 ,051-628-8840
옛날전통추어탕,NOT_RECORD,35.133119,129.089601,부산광역시 남구 천제등로37번길 11 ,051-627-3357
지수농원,NOT_RECORD,35.195657,129.223142,부산광역시 기장군 기장읍 동암해안길 17 ,051-721-8155
교통부돼지국밥,NOT_RECORD,35.170817,129.051357,부산광역시 부산진구 연지로 12-1 ,051-805-3591
연산숯불갈비,NOT_RECORD,35.18748,129.098009,부산광역시 연제구 과정로265번가길 5 ,051-866-5258
다빈분식,NOT_RECORD,35.176772,129.172976,부산광역시 해운대구 대천로103번길 29 ,051-701-0993
정성식당,NOT_RECORD,35.154903,129.058298,부산광역시 부산진구 서면로68번길 46 ,051-805-3355
예담골,NOT_RECORD,35.154018,129.057151,부산광역시 부산진구 부전로20번길 44-1 ,051-802-9288
다미국수,NOT_RECORD,35.188087,129.105372,부산광역시 연제구 과정로 200-1 ,051-751-0379
올레,NOT_RECORD,35.177823,129.124519,부산광역시 해운대구 센텀동로 123 더샵센텀스타 A동,070-8861-4305
가덕도병어집,NOT_RECORD,35.188034,129.095097,부산광역시 연제구 과정로291번길 8 선경아트빌라,051-853-2612
신흥반점,NOT_RECORD,35.077299,129.070363,부산광역시 영도구 동삼로 45 ,051-403-6879
천서리이가네막국수,NOT_RECORD,35.224429,129.085043,부산광역시 금정구 식물원로 27 ,051-517-2226
전주식당,NOT_RECORD,35.062546,129.081013,부산광역시 영도구 태종로 830 ,051-405-3617
비학산보리밥생칼국수,NOT_RECORD,35.166945,129.132987,부산광역시 해운대구 센텀2로 25 센텀드림월드,051-746-7763
골목안국수집,NOT_RECORD,35.129207,129.048001,부산광역시 동구 진성로9번길 13-3 ,051-442-5110
도화,NOT_RECORD,35.188111,129.086015,부산광역시 연제구 고분로13번길 61 ,051-868-6106
시골농장,NOT_RECORD,35.257905,129.049494,부산광역시 금정구 북문로 137 ,051-517-1946
마루한,NOT_RECORD,35.210267,129.075401,부산광역시 동래구 중앙대로1367번길 48-5 ,051-553-3070
형제돼지국밥,NOT_RECORD,35.137072,129.102076,부산광역시 남구 용소로13번길 29-1 ,051-625-1014
오복통닭,NOT_RECORD,35.129282,129.047744,부산광역시 동구 진성로9번길 14 ,051-441-0607
단골식당,NOT_RECORD,35.165807,129.038791,부산광역시 부산진구 당감로45번길 6 ,051-894-2634
녹차밀면갈비마을,NOT_RECORD,35.209676,129.037003,부산광역시 북구 덕천로 301 ,051-337-7497
언양민물매운탕,NOT_RECORD,35.205191,129.082767,부산광역시 동래구 명륜로112번가길 39 ,051-557-6464
미성버섯수제비,NOT_RECORD,35.210266,129.076366,부산광역시 동래구 중앙대로1367번길 32-11 ,051-555-2265
할매집,NOT_RECORD,35.12889,129.008361,부산광역시 서구 엄광산로39번길 13-1 ,051-254-6555
금강가든,NOT_RECORD,35.161071,128.898908,부산광역시 강서구 둔치강변길 192 ,051-971-8465
양지추어탕,NOT_RECORD,35.130658,129.045676,부산광역시 동구 중앙대로371번길 70-4 ,051-467-3924
경회루,NOT_RECORD,35.112208,129.039296,부산광역시 동구 중앙대로180번길 6-13 ,051-463-6589
대궁삼계탕,NOT_RECORD,35.1049809422743,129.020964627734,부산광역시 서구 보수대로 101-1 ,051-254-3039
휴고,NOT_RECORD,35.11086,129.017202,부산광역시 서구 구덕로 303 ,051-256-0258
청기와,NOT_RECORD,35.19638249009421,129.09834334825413,부산광역시 동래구 안연로102번길 7-2 ,051-531-1818
민물가든,NOT_RECORD,35.160536,128.894626,부산광역시 강서구 둔치중앙길 5 ,051-971-8428
남포식당,NOT_RECORD,35.085764,129.02454,부산광역시 서구 충무대로 169-1 ,051-254-8029
대궐안집,NOT_RECORD,35.161656,128.983876,부산광역시 사상구 광장로 68 ,051-322-1223
통영숯불장어구이,NOT_RECORD,35.101575,128.976846,부산광역시 사하구 괴정로 117 대호상가아파트 1층,051-291-3305
카페해인,NOT_RECORD,35.0748206929608,129.012463060658,부산광역시 서구 암남로94번길 94 ,051-245-6615
우드사이드,NOT_RECORD,35.152774,129.057612,부산광역시 부산진구 서면로 23 미소미빌딩 6층,051-803-2775
하코네,NOT_RECORD,35.134983,129.100166,부산광역시 남구 용소로28번길 10 ,051-611-2541
밥도둑1번지,NOT_RECORD,35.202619524285,129.084282422449,부산광역시 동래구 명륜로98번길 15 ,051-556-2230
영희네분식,NOT_RECORD,35.15214,129.024886,부산광역시 부산진구 가야대로482번길 19 ,051-895-0205
화전국수,NOT_RECORD,35.15564451468398,129.06026569580553,부산광역시 부산진구 중앙대로702번길 17-2 ,051-804-1110
초량1941,NOT_RECORD,35.119818,129.029512,부산광역시 동구 망양로 533-5 ,051-462-7774
커피미미,NOT_RECORD,35.0889084559411,129.039236365364,부산광역시 영도구 남항로 26-10 ,070-7537-1236
희망통닭,NOT_RECORD,35.2015130376273,129.088441693798,부산광역시 동래구 명륜로98번길 94 ,051-555-0073
하가원,NOT_RECORD,35.1734026818461,129.174269348837,부산광역시 해운대구 좌동로91번길 28 ,051-702-5511
클라임타워,NOT_RECORD,35.2828330033557,129.258078522752,부산광역시 기장군 일광면 문오성길 39 ,051-727-5100
경주박가국밥(서면점),NOT_RECORD,35.1559923424503,129.058480967209,부산광역시 부산진구 서면로68번길 21 ,051-806-2706
대저할매국수,NOT_RECORD,35.221348,128.983753,부산광역시 강서구 대저중앙로 337 ,051-973-0837
칠보락,NOT_RECORD,35.1883584504825,129.086849240648,부산광역시 연제구 쌍미천로 175-10 ,051-865-7732
한우애가,NOT_RECORD,35.0560285197546,128.970949063791,부산광역시 사하구 다대로 559-4 1층,051-263-0600
드마히니(마린시티점),NOT_RECORD,35.1575616591512,129.1504892230035,부산광역시 해운대구 마린시티1로 167 현대카멜리아 1층,051-741-1278
돈갑,NOT_RECORD,35.13714750603801,129.1025217256463,부산광역시 남구 용소로13번길 37 ,051-612-8244
에끄로와,NOT_RECORD,35.1740006805248,129.128422232875,부산광역시 해운대구 센텀중앙로 66 센텀T타워 1층,070-8809-5353
원조기장손칼국수(기장시장본점),NOT_RECORD,35.2436967938759,129.214868508134,부산광역시 기장군 기장읍 읍내로104번길 16 201호, 010-2689-8757
보림한우전문점,NOT_RECORD,35.271979,129.159406,부산광역시 기장군 철마면 한들길 3-6 ,051-722-8444
옥미아구찜(하단점),NOT_RECORD,35.1052463265321,128.970599875807,부산광역시 사하구 승학로2번길 34 ,051-202-9939
서울깍두기 전포동점,NOT_RECORD,35.158112,129.065158,부산광역시 부산진구 서전로 49 ,051-816-3950
신창국밥,NOT_RECORD,35.168864,129.177797,부산광역시 해운대구 세실로27번길 23 샤인빌딩,051-702-4779
도날드,NOT_RECORD,35.0858102646962,129.042942251709,부산광역시 영도구 꿈나무길 267 ,051-413-9990
허심청브로이,NOT_RECORD,35.219814,129.082072,부산광역시 동래구 금강공원로20번길 23 허심청 1층,051-550-2345
동경초밥,NOT_RECORD,35.11194,129.015696,부산광역시 서구 구덕로321번길 21 남영빌딩,051-242-5788
동명횟집,NOT_RECORD,35.0742550552019,129.015683152394,부산광역시 서구 송도해변로 59 ,051-247-9192
라세느(롯데호텔부산),NOT_RECORD,35.156853,129.056647,부산광역시 부산진구 가야대로 772 부산롯데호텔 42층,051-810-6390
얌차이나,NOT_RECORD,35.169843,129.131102,부산광역시 해운대구 센텀남대로 59 롯데백화점센텀시티점 7층,051-730-3905
언양봉계숯불갈비,NOT_RECORD,35.19389,129.1306,부산광역시 해운대구 재반로 186 ,051-782-3662
일신초밥,NOT_RECORD,35.1602431446287,129.057684442905,부산광역시 부산진구 새싹로28번길 10 ,051-807-9083
참숯골,NOT_RECORD,35.1385542718279,129.060305027454,부산광역시 동구 조방로49번길 25 ,051-643-8000
뜰아래채,NOT_RECORD,35.1671970117476,129.132039053517,부산광역시 해운대구 센텀2로 20 센텀타워메디컬,051-744-0125
죽전가,NOT_RECORD,35.1608275351473,128.899116010823,부산광역시 강서구 둔치강변길 144 ,051-971-8874
활력은장수국밥,NOT_RECORD,35.1603646330636,129.056564378619,부산광역시 부산진구 새싹로29번길 8 ,051-804-2277
아리한정식,NOT_RECORD,35.15813,129.0575,부산광역시 부산진구 가야대로 785 인제메디칼B동 202호,051-851-1212
선미아구찜,NOT_RECORD,35.1725673796059,129.1767138913,부산광역시 해운대구 좌동로 106 ,051-701-0006
해적해물나라,NOT_RECORD,35.076886,129.023868,부산광역시 서구 송도해변로 174 ,051-243-1146
홍복,NOT_RECORD,35.1167830406222,129.017350253755,부산광역시 서구 보수대로 254-1 ,051-257-9993
조방낙지(대신직영점),NOT_RECORD,35.1150726941653,129.01590480137,부산광역시 서구 구덕로 350 ,051-231-1076
박서방한정식,NOT_RECORD,35.071614,129.01719,부산광역시 서구 송도해변로 27 ,051-253-2212
송원재첩국,NOT_RECORD,35.1020989565766,129.019565857061,부산광역시 서구 구덕로193번길 4 ,051-253-1273
송일횟집,NOT_RECORD,35.075193,129.015969,부산광역시 서구 송도해변로 67 ,051-248-6883
 고메회초밥,NOT_RECORD,35.140279089316,129.061402128032,부산광역시 동구 조방로38번길 3 ,051-635-0777
만포장횟집,NOT_RECORD,35.218058,129.227817,부산광역시 기장군 기장읍 연화1길 177 ,051-721-1288
부대꼬마김밥,NOT_RECORD,35.2300539638419,129.088890571496,부산광역시 금정구 장전온천천로 57 ,051-583-9330
동보현,NOT_RECORD,35.135675,129.092485,부산광역시 남구 못골로 94 , 051-622-3338
일디오보,NOT_RECORD,35.267934,129.084632,부산광역시 금정구 금샘로 509 ,051-517-9818
맛나분식,NOT_RECORD,0.0,0.0,부산광역시 금정구 서동시장길 42-4 ,051-522-9757
정가네합천돼지국밥,NOT_RECORD,35.2181545982471,129.103626956,부산광역시 금정구 서금로 17 ,051-527-1302
봉평면옥,NOT_RECORD,35.179286,129.071592,부산광역시 연제구 거제천로 53-1 ,051-865-3141
항도반점,NOT_RECORD,0.0,0.0,부산광역시 동래구 온천장로 125 ,051-555-7557
영도해장국,NOT_RECORD,35.089986,129.037914,부산광역시 영도구 남항로9번길 4 ,051-413-3847
동보성,NOT_RECORD,35.202225,129.079137,부산광역시 동래구 온천천로 193 ,051-552-8418
꼼빠뇽,NOT_RECORD,35.1411504333145,129.055786216018,부산광역시 동구 범곡로28번길 16 ,010-2425-3266
카카오두,NOT_RECORD,35.232889,129.085395,부산광역시 금정구 금강로 277 ,010-7399-9702
송미횟집,NOT_RECORD,35.238455,129.245021,부산광역시 기장군 기장읍 월전해안길 29 ,051-721-4080
더포(서면일번가점),NOT_RECORD,35.151455,129.061126,부산광역시 부산진구 중앙대로666번길 50 더샵 센트럴스타 A동 1층,051-932-5151
자두나무집,NOT_RECORD,35.296742264117,129.081966749462,부산광역시 금정구 노포사송로 231-31 ,051-508-3404
수복돼지국밥,NOT_RECORD,35.1858997797471,129.086904684877,부산광역시 연제구 고분로 41-1 2층,051-866-3349
하연정순두부,NOT_RECORD,35.1554507616782,129.058501115477,부산광역시 부산진구 서면로68번길 35 2층,051-816-3935
포이안,NOT_RECORD,35.156853,129.056647,부산광역시 부산진구 가야대로 772 롯데백화점부산본점 9F,051-816-1312
테디네,NOT_RECORD,35.2603506043331,129.086402671427,부산광역시 금정구 금샘로420번길 38 ,051-515-3200
산마루,NOT_RECORD,35.1364170999216,129.068573437793,부산광역시 남구 수영로 4 ,051-627-5285
자연이주는밥상,NOT_RECORD,35.103681,129.113049,부산광역시 남구 백운포로 43 용호뉴타운,051-612-8624
 화성왕족발,NOT_RECORD,35.167275,129.037068,부산광역시 부산진구 당감서로 78 ,051-896-4007
모이세식당,NOT_RECORD,35.173829,129.176549,부산광역시 해운대구 좌동로 107-18 ,051-702-1960
콩나라(센텀1호점),NOT_RECORD,35.173565,129.130192,부산광역시 해운대구 센텀동로 51 ,051-747-7729
영진돼지국밥(경성대점),NOT_RECORD,35.120109,129.110505,부산광역시 남구 동명로 123 삼신스타빌라,051-625-5366
보리밥분식,NOT_RECORD,35.187775749644,129.129330707678,부산광역시 해운대구 재반로84번길 80 ,051-783-5849
하동집,NOT_RECORD,35.0993848271812,129.022633096674,부산광역시 서구 구덕로124번길 59-1 ,051-257-3081
오복돼지국밥,NOT_RECORD,35.184714,129.122114,부산광역시 해운대구 해운대로143번길 17 ,051-784-1854
시골장터,NOT_RECORD,35.1587542907844,129.048778637771,부산광역시 부산진구 가야대로703번길 40 ,051-894-1770
요시노스시,NOT_RECORD,35.1538,129.055654,부산광역시 부산진구 부전로 41 ,051-808-7774
하와이김밥,NOT_RECORD,35.1683485565665,129.142766503431,부산광역시 해운대구 해운대로469번길 110 ,051-747-0025
할매집,NOT_RECORD,35.0452479468215,128.969238036101,부산광역시 사하구 몰운대1길 55 ,051-263-2801
남촌설렁탕,NOT_RECORD,35.0764114859029,129.016480100029,부산광역시 서구 충무대로 8 기산비치타운 2층,051-248-1393
진주통닭(1호점),NOT_RECORD,35.181709,129.072816,부산광역시 연제구 거제시장로14번길 28 (주)거제시장,051-862-8425
부부냉면,NOT_RECORD,35.2060524722481,129.071900561307,부산광역시 동래구 미남로132번길 41 ,051-552-6964
어리목도새기촌,NOT_RECORD,35.071165,129.069387,부산광역시 영도구 절영로 485 ,051.403.8050
자연담은떡,NOT_RECORD,35.1895223388832,129.085800608477,부산광역시 연제구 반송로 53 ,051-851-9003
종로떡집,NOT_RECORD,35.173223,129.174554,부산광역시 해운대구 좌동로 99-27 재래시장 D4-10호,051-704-8388
금수복국(센텀시티점),NOT_RECORD,35.1671509103775,129.133464374305,부산광역시 해운대구 센텀3로 26 센텀스퀘어,051-746-7888
소희네집,NOT_RECORD,35.0122884112569,128.828254616878,부산광역시 강서구 가덕해안로 1206 ,051-971-8886
오륙도횟집,NOT_RECORD,35.1131779004878,129.094569438411,부산광역시 남구 신선로301번길 20 ,051-624-0356
쌍희반점,NOT_RECORD,35.1186467851811,129.079769378798,부산광역시 남구 8부두로 3-1 ,051-636-4571
바다산곰장어,NOT_RECORD,35.163327,129.060504,부산광역시 부산진구 부전로 180 ,051-816-1010
수구리보리밥집,NOT_RECORD,35.114192,129.113038,부산광역시 남구 동명로158번길 112 ,051-623-9878
콩나물비빔밥집,NOT_RECORD,35.1286664811517,129.046898830487,부산광역시 동구 중앙대로361번길 24-4 ,051-464-2386
삼부식당,NOT_RECORD,35.1654193355136,129.050990978031,부산광역시 부산진구 시민공원로19번길 53-7 ,051-809-8778
이웃집,NOT_RECORD,35.1643757682533,128.984098931318,부산광역시 사상구 사상로212번길 5-6 ,051-311-2683
장수돌곱창,NOT_RECORD,35.22398,129.082639,부산광역시 금정구 온천장로125번길 60 유정빌딩,051-582-9787
황가산오징어,NOT_RECORD,35.150632,129.011836,부산광역시 사상구 가야대로360번길 11 ,051-323-3505
다래산곰장어,NOT_RECORD,35.165053,129.037476,부산광역시 부산진구 동평로 72-1 ,051-896-6538
사상꼬리집,NOT_RECORD,35.1657134599431,128.980918058141,부산광역시 사상구 사상로233번길 34 ,051-323-3146
구포추어탕,NOT_RECORD,35.210484261435,129.009058191169,부산광역시 북구 덕천1길 67 ,051-342-3457
한빛기사식당,NOT_RECORD,35.1929019088738,129.122871259466,부산광역시 해운대구 해운대로61번길 31 ,051-782-0077
포항물회일번지,NOT_RECORD,35.0910729819122,129.039509880537,부산광역시 영도구 절영로35번길 6 ,051-412-5052
정원식당,NOT_RECORD,35.274429577734125,129.149403895503,부산광역시 기장군 철마면 철마로 482 ,051-721-9910
왔다산곰장어,NOT_RECORD,35.1862024480944,129.107350496523,부산광역시 연제구 과정로 166 ,051-757-5047
오븐의온도,NOT_RECORD,35.1559460199003,129.064563982545,부산광역시 부산진구 서전로38번길 43-13 ,010-6301-5179
탱쓰커피하우스,NOT_RECORD,35.2302722053997,129.081911479919,부산광역시 금정구 금강로 225 ,0507-1433-4924
