name,ribbonType,latitude,longitude,address,phone
서령,RIBBON_TWO,37.6222079894992,126.47976700447,인천광역시 강화군 길상면 보리고개로 96 ,032-937-8774  
임페리얼트레져,RIBBON_TWO,37.438028,126.456713,인천광역시 중구 영종해안남로321번길 186 파라다이스시티,032-729-2227  
형제식당,RIBBON_ONE,37.478149,126.61519,인천광역시 중구 월미로50번길 8 ,032-765-5393  
농가의식탁,RIBBON_ONE,37.7081838842712,126.514820267929,인천광역시 강화군 선원면 해안동로 1037-8 농가의식탁,010-4417-9348  
아뚜드스윗,RIBBON_ONE,37.7484806470159,126.481559688009,인천광역시 강화군 강화읍 강화대로 456-14 ,032-932-5282  
금문도,RIBBON_ONE,37.7397766771195,126.490406706965,인천광역시 강화군 강화읍 중앙로 43 강화여객 터미널 213호,032-933-0833  
숙성명작,RIBBON_ONE,37.530802862996296,126.66116238443087,인천광역시 서구 담지로8번길 14 ,032-566-9298  
비스트로페르레이,RIBBON_ONE,37.53386631106574,126.63692747385267,인천광역시 서구 크리스탈로 100 청라호수공원프라자 305호,032-561-3666  
스시이와,RIBBON_ONE,37.393785630906656,126.64187294130727,인천광역시 연수구 센트럴로 194 더샵 센트럴파크2 C동 109호,010-5639-5725  
카페꼼마,RIBBON_ONE,37.39803937685553,126.63394268920703,"인천광역시 연수구 센트럴로 263 송도IBS타워 업무동 1, 2층",032-719-7222  
스시요로코부,RIBBON_ONE,37.393785630906656,126.64187294130727,인천광역시 연수구 센트럴로 194 더샵 센트럴파크2 A동 123호,032-834-6809  
제이라운지,RIBBON_ONE,37.3937818483729,126.633289319826,인천광역시 연수구 인천타워대로 257 아트포레 C동 207호,010-6481-1672  
멜팅룸,RIBBON_ONE,37.40451962512449,126.725848798049,인천광역시 남동구 은봉로312번길 29-16 ,032-428-8003  
툴롱,RIBBON_ONE,37.38599150946484,126.6435586122863,인천광역시 연수구 인천타워대로132번길 30 휴먼빌파크 208호,032-831-2003  
파니노구스토,RIBBON_ONE,37.4438,126.703225,인천광역시 남동구 인하로507번길 14 탑플라자 2층,032-421-0046  
만복정,RIBBON_ONE,37.741527,126.492891,인천광역시 강화군 강화읍 중앙로 17-9 강화풍물시장 2층 32호,032-933-3085  
복화루,RIBBON_ONE,37.494263,126.723941,인천광역시 부평구 부평대로32번길 16 ,032-503-9725  
열두바구니,RIBBON_ONE,37.39488,126.651559,인천광역시 연수구 신송로125번길 7 이리옴프라자 2층,032-834-4433  
충남서산집,RIBBON_ONE,37.7046601088169,126.391045725067,인천광역시 강화군 내가면 중앙로 1200 ,032-933-8403  
충남서산꽃게탕집,RIBBON_ONE,37.417637,126.652544,인천광역시 연수구 대암로22번길 11 ,032-831-7339  
꼭대기집약수터,RIBBON_ONE,37.611703,126.510658,인천광역시 강화군 길상면 장흥로101번길 31-11 ,032-937-0914  
레벨19,RIBBON_ONE,37.388092,126.640783,인천광역시 연수구 테크노파크로 151 오라카이송도파크호텔 19층,032-210-7360  
권오길손국수,RIBBON_ONE,37.615402,126.686621,인천광역시 서구 검단로 789 ,032-564-7541  
해장국,RIBBON_ONE,37.475057,126.644915,인천광역시 동구 동산로87번길 6 ,032-766-0335  
신포순대,RIBBON_ONE,37.471484,126.62625,인천광역시 중구 제물량로166번길 33 ,032-773-5735  
송원식당,RIBBON_ONE,37.4561479304308,126.602780672066,인천광역시 중구 연안부두로 24-1 ,032-884-2838  
오구당당,RIBBON_ONE,37.493513,126.722037,인천광역시 부평구 경원대로1377번길 47 ,032-505-3388  
금문도,RIBBON_ONE,37.527794,126.725752,인천광역시 계양구 효서로 268 ,032-544-6665  
안스베이커리,RIBBON_ONE,37.449175,126.710864,인천광역시 남동구 인주대로 664 메인프라자 2차 1층,032-463-0045  
강화국수,RIBBON_ONE,37.7471090383513,126.486294894912,인천광역시 강화군 강화읍 동문안길 12-1 ,032-933-7337  
죽림다원,RIBBON_ONE,37.632894,126.484912,인천광역시 강화군 길상면 전등사로 37-41 전등사,032-937-7791  
삼화정,RIBBON_ONE,37.46456,126.709028,인천광역시 남동구 남동대로922번길 14 ,032-424-8898  
풍전식당,RIBBON_ONE,37.4544609539309,126.669851615814,인천광역시 미추홀구 남주길 5 ,032-873-9292  
부암갈비,RIBBON_ONE,37.462954,126.714296,인천광역시 남동구 용천로 149 ,032-425-5538  
청실홍실(신포본점),RIBBON_ONE,37.470842,126.625026,인천광역시 중구 우현로35번길 23-1 ,032-772-7760  
진흥각,RIBBON_ONE,37.471662,126.623914,인천광역시 중구 신포로23번길 20 ,032-772-3058  
경인면옥,RIBBON_ONE,37.472478,126.628214,인천광역시 중구 신포로46번길 38 ,032-762-5770  
레스토랑8,RIBBON_ONE,37.440445,126.457435,인천광역시 중구 영종해안남로321번길 208 그랜드하얏트인천 이스트타워,032-745-1234  
갯마을산낙지전문점,RIBBON_ONE,37.538211,126.662052,인천광역시 서구 담지로86번길 5-43 ,032-561-8077  
긴자,RIBBON_ONE,37.4185279909319,126.655151731132,인천광역시 연수구 청량로120번길 10 ,032-832-7722  
부원집,RIBBON_ONE,37.411992,126.678551,인천광역시 연수구 샘말로8번길 7-10 ,032-812-1085  
깨비옥,RIBBON_ONE,37.3934747558952,126.646717372459,인천광역시 연수구 컨벤시아대로 116 푸르지오월드마크 7단지 1층,032-833-7736  
오크레스토랑(오크우드프리미어인천점),RIBBON_ONE,37.3891408885668,126.644442676851,인천광역시 연수구 컨벤시아대로 165 포스코타워-송도 36층,032-726-2301  
신승반점,RIBBON_ONE,37.475428,126.617798,인천광역시 중구 차이나타운로44번길 31-3 ,032-762-9467  
토가,RIBBON_ONE,37.608793,126.417985,인천광역시 강화군 화도면 해안남로 1912 ,032-937-4482  
화선횟집,RIBBON_ONE,37.47137550092973,126.62734974373366,인천광역시 중구 우현로49번길 11-25 ,032-772-4408  
학익궁중삼계탕,RIBBON_ONE,37.44174160085888,126.67180231454223,인천광역시 미추홀구 학익소로63번길 23 ,032-861-3939  
정서진메밀면옥,RIBBON_ONE,37.5722288955159,126.681230713614,인천광역시 서구 아라로51번길 3 ,032-566-3844  
벌말매운탕,RIBBON_ONE,37.578647,126.778243,인천광역시 계양구 벌말로565번길 5 ,032-544-5785  
대선정,RIBBON_ONE,37.63973240343648,126.49070426015393,인천광역시 강화군 길상면 온수길 36 1동 1층,032-937-1907  
원조선창집장어구이,RIBBON_ONE,37.721607,126.513266,인천광역시 강화군 선원면 해안동로 1199 ,032-932-7628  
진두강참장어,RIBBON_ONE,37.711918,126.353835,인천광역시 강화군 내가면 황청포구로 489 ,032-932-6711  
용화반점,RIBBON_ONE,37.471968,126.635388,인천광역시 중구 참외전로174번길 7 ,032-773-5970  
전가복,RIBBON_ONE,37.453284,126.731974,인천광역시 남동구 하촌로59번길 24 ,032-468-7869  
크로마이트커피,RIBBON_ONE,37.421254,126.650581,인천광역시 연수구 청량로155번길 39-5 ,032-834-6506  
프렌치빌,RIBBON_ONE,37.471487,126.625066,인천광역시 중구 신포로 27-1 ,032-772-0765  
스시라,NOT,37.3952040049379,126.631287119931,인천광역시 연수구 아트센터대로 203 센트럴파크푸르지오시티 B동 131호,070-7608-9942  
차담정,NOT,37.444577786539,126.704943993861,인천광역시 남동구 성말로32번길 11-16 ,010-9255-0531  
심스키친다이닝펍,NOT,37.4031935477087,126.722275801146,인천광역시 남동구 논현남로 17 ,032-423-2701  
뉴욕반점,NOT,37.4994075109362,126.72161530643,인천광역시 부평구 부평대로87번길 4 ,032-516-4488  
동추원불고기,NOT,37.4417104235279,126.670764759323,인천광역시 미추홀구 학익소로 67 신세계빌딩 1층,032-872-2292  
연경,NOT,37.4756312965383,126.619850659295,인천광역시 중구 차이나타운로 41 ,032-765-7888  
바다앞농장,NOT,37.4920748543607,126.581257283455,인천광역시 중구 은하수로 10 더 테라스프라자 2층,032-747-0139  
밥상편지,NOT,37.3856616167904,126.645166645438,인천광역시 연수구 하모니로 124 송도타운 3층,032-833-8854  
단풍나무,NOT,37.5964862048586,126.644712590511,인천광역시 서구 검단로379번길 31-2 ,032-563-5323  
미광,NOT,37.4801653453993,126.620640246403,인천광역시 중구 참외전로13번길 15-4 ,032-772-5595  
시드니양갈비,NOT,37.3949423122559,126.650165044813,인천광역시 연수구 컨벤시아대로 81 드림시티건물 2층 214-215호,032-833-7101  
바다앞테라스,NOT,37.4920748543607,126.581257283455,인천광역시 중구 은하수로 10 더 테라스프라자 5층,032-747-0137  
금산식당,NOT,37.417657,126.673635,인천광역시 연수구 청능대로53번길 24-4 ,032-818-1893  
파노라믹65,NOT,37.3891408885668,126.644442676851,인천광역시 연수구 컨벤시아대로 165 포스코타워-송도 65층,032-726-2301  
송도동산호,NOT,37.394901,126.650156,인천광역시 연수구 컨벤시아대로 81 드림시티 127호,032-858-1880  
산나래간장게장,NOT,37.48288811515947,126.68748747070909,인천광역시 서구 열우물로208번길 12 ,032-584-8584  
고을순대국,NOT,37.4516629220886,126.671681781425,인천광역시 미추홀구 인주대로320번길 2 1층,032-427-4805  
별미정,NOT,37.723069,126.512483,인천광역시 강화군 선원면 더리미길 10 ,032-932-1371  
강나루숯불장어,NOT,37.620652,126.534344,인천광역시 강화군 길상면 해안남로 92-6 ,032-886-0592  
송도갈매기,NOT,37.419622,126.646941,인천광역시 연수구 능허대로151번길 25 ,032-831-0010  
성진물텀벙,NOT,37.45601347117161,126.64917608022276,인천광역시 미추홀구 독배로403번길 10 ,032-883-1771  
인천콩나물국밥,NOT,37.417721,126.654306,인천광역시 연수구 청량로113번길 12 ,010-5342-3865  
제이콥스핏제리아,NOT,37.4711436177277,126.626419399964,인천광역시 중구 우현로45번길 29 ,032-763-1117  
예전,NOT,37.474374,126.597567,인천광역시 중구 월미문화로 43-2 ,032-772-2256  
등대경양식,NOT,37.4708388009468,126.623097732013,인천광역시 중구 제물량로 190 ,032-773-3473  
창석원조닭알탕,NOT,37.477546,126.644718,인천광역시 동구 샛골로 169 ,032-764-6160  
외포리꽃게집,NOT,37.705209,126.390048,인천광역시 강화군 내가면 중앙로 1206 ,032-933-9395  
부영선지국,NOT,37.4585699553006,126.647317282461,인천광역시 미추홀구 장천로14번길 20 ,032-884-5981  
명월집,NOT,37.472042,126.622707,인천광역시 중구 신포로23번길 41 ,032-773-7890  
산동만두,NOT,37.471428,126.6265,인천광역시 중구 우현로49번길 33 ,032-764-3449  
십리향,NOT,37.475104,126.618803,인천광역시 중구 차이나타운로 50-2 ,032-762-5888  
백란,NOT,37.417338,126.672933,인천광역시 연수구 함박뫼로4번길 31 ,032-821-5055  
별삼겹,NOT,37.44391888989587,126.70912956589233,인천광역시 남동구 선수촌공원로55번길 11-6 다온1층,032-469-0999  
미투커피,NOT,37.474746,126.597695,인천광역시 중구 월미문화로 39 ,032-772-7131  
조양방직카페,NOT,37.74675367474736,126.48096278048874,인천광역시 강화군 강화읍 향나무길5번길 12 ,032-933-2192  
바그다드커피,NOT,37.702439,126.510022,인천광역시 강화군 선원면 연동로99번길 73 ,032-932-2155  
다복집,NOT,37.470892,126.626985,인천광역시 중구 우현로39번길 8-2 ,032-773-2416  
이화찹쌀순대,NOT,37.46429467763424,126.64049697523481,인천광역시 중구 인중로26번길 25 ,032-882-3039  
장어한판,NOT,37.5082478584042,126.724411153969,인천광역시 부평구 주부토로145번길 24 ,032-503-0588  
인천당,NOT,37.4741299021105,126.632218585494,인천광역시 중구 참외전로 138 ,032-766-0287  
중앙옥,NOT,37.471533,126.622836,인천광역시 중구 신포로15번길 34-1 ,032-773-2433  
삼강옥,NOT,37.473028,126.634066,인천광역시 중구 참외전로158번길 1 ,032-772-7885  
송도골,NOT,37.4586511837387,126.639805143154,인천광역시 미추홀구 능해길46번길 4 ,032-881-7076  
마냥집,NOT,37.47156,126.624978,인천광역시 중구 개항로 20-1 ,032-772-3786  
신성루,NOT,37.469752,126.626447,인천광역시 중구 우현로 19-14 ,032-772-4463  
인천집,NOT,37.475491,126.62878,인천광역시 중구 우현로67번길 53 ,032-764-6401  
돌기와집,NOT,37.783178,126.477059,인천광역시 강화군 송해면 상도숭뢰길116번길 39-10 ,032-934-5482  
미락횟집,NOT,37.640144,126.391834,인천광역시 강화군 화도면 해안남로2903번길 58 ,032-937-5098  
청강호,NOT,37.6405321446873,126.391876947108,인천광역시 강화군 화도면 해안남로2903번길 56 ,032-937-1994  
큰나루밴댕이회무침,NOT,37.44568,126.698383,인천광역시 남동구 문화서로4번길 61-23 ,032-421-3643  
더리미집,NOT,37.724109,126.51258,인천광역시 강화군 선원면 해안동로 1219 ,032-932-0787  
경남횟집,NOT,37.4713374505179,126.626741407116,인천광역시 중구 우현로45번길 24-1 ,032-766-2388  
일미산장숯불장어,NOT,37.723894,126.51277,인천광역시 강화군 선원면 더리미길 2 ,032-933-8585  
마산집,NOT,37.4629495610559,126.643858354501,인천광역시 미추홀구 경인로7번길 3-7 ,032-883-8849  
백령도메밀청풍면옥,NOT,37.467914,126.699558,인천광역시 남동구 석정로 585 계전산업,032-426-8380  
부평막국수,NOT,37.497371,126.721775,인천광역시 부평구 부평대로63번길 10-8 ,032-514-5535  
사곶냉면,NOT,37.953986,124.719664,인천광역시 옹진군 백령면 사곶로122번길 54-19 ,032-836-0559  
오가네냉면,NOT,37.545031,126.682388,인천광역시 서구 심곡로148번길 16 ,032-569-0017  
사곶냉면,NOT,37.413254,126.725492,인천광역시 남동구 논고개로 253-2 ,032-469-1645  
왕자정묵밥,NOT,37.751894,126.484182,인천광역시 강화군 강화읍 북문길 55 ,032-933-7807  
신일반점,NOT,37.467376,126.635816,인천광역시 중구 서해대로464번길 1-2 ,032-882-1812  
송도콩나물해장국밥,NOT,37.417451,126.654105,인천광역시 연수구 청량로113번길 15 ,032-833-5772  
카페오라,NOT,37.45199,126.373753,인천광역시 중구 용유서로 380 ,032-752-0888  
비하니,NOT,37.490211,126.725232,인천광역시 부평구 광장로24번길 13 신성빌딩 1층,032-525-8771  
아라베스크,NOT,37.4718422216062,126.62726399831,인천광역시 중구 개항로 42 폴햄건물 2층,032-764-0064  
새집칼국수,NOT,37.47303129307372,126.63128917176078,인천광역시 중구 우현로90번길 39 ,032-772-8333  
태림봉,NOT,37.47396329811918,126.6194686339322,인천광역시 중구 차이나타운로59번길 23 ,032-763-1688  
혜빈장,NOT,37.4803249508461,126.620511682489,인천광역시 중구 참외전로13번길 21 ,032-772-1928  
향원,NOT,37.470784,126.624014,인천광역시 중구 신포로15번길 6-1 ,032-772-1688  
연중반점,NOT,37.4575472897245,126.690879385155,인천광역시 미추홀구 구월로 6 ,032-422-0791  
중화루,NOT,37.471721,126.623946,인천광역시 중구 홍예문로 12 ,032-762-0231  
만다복,NOT,37.476081,126.619266,인천광역시 중구 차이나타운로 36 ,032-773-3838  
취선,NOT,37.511420375813344,126.7264264716101,인천광역시 부평구 굴포로 50-6 ,032-522-5002  
풍미,NOT,37.4747096049514,126.618296808744,인천광역시 중구 차이나타운로 56-1 ,032-772-2680  
태화원,NOT,37.473982,126.618571,인천광역시 중구 차이나타운로59번길 10 ,032-766-7688  
풍년족발,NOT,37.46382,126.715064,인천광역시 남동구 백범로 312-58 ,032-432-2611  
전라도대왕조개,NOT,37.4759058754402,126.598215746152,인천광역시 중구 월미문화로 27 ,032-777-9291  
우순임할머니쭈꾸미집,NOT,37.4809906084254,126.62073488891,인천광역시 동구 제물량로 342 ,032-773-2419  
신,NOT,37.4769396444974,126.61929074473487,인천광역시 중구 차이나타운로 25 ,032-761-8889  
복래춘,NOT,37.474129,126.61942,인천광역시 중구 차이나타운로55번길 20-1 ,032-772-3522  
해송쌈밥,NOT,37.442641,126.430415,인천광역시 중구 공항서로 177 ,032-747-0073  
까르본,NOT,37.414698,126.655057,인천광역시 연수구 앵고개로87번길 44-19 아미르티무르,032-832-9449  
산동포자,NOT,37.485342,126.707769,인천광역시 부평구 마장로 75 대경빌딩 1층,032-431-8885  
평양옥,NOT,37.4642,126.639685,인천광역시 중구 도원로8번길 68 ,032-882-4646  
고루,NOT,37.556066,126.673385,인천광역시 서구 승학로 386 ,032-569-4886  
한옹가,NOT,37.4441959696871,126.411479284322,인천광역시 중구 남북로6번길 60 ,032-746-3912  
벨뷰,NOT,37.414314,126.655356,인천광역시 연수구 능허대로267번길 29 라마다송도호텔 12층,032-423-3446  
체나콜로,NOT,37.4722721241489,126.620958238913,인천광역시 중구 신포로15번길 69 ,032-773-8155  
한우만,NEW,37.4605145549358,126.699036619044,인천광역시 남동구 석산로62번길 11 삼마 TOP-Class 제지 1층 제상가5호 ,010-5654-8101
안돈,NEW,37.3929791823293,126.645688890785,"인천광역시 연수구 컨벤시아대로 126 월드마크푸르지오8단지, 209~210호",032-831-7990
타파스빈,NEW,37.3818594284068,126.662694187386,인천광역시 연수구 송도과학로 32 송도테크노파크IT센터 M동 1층 102호,032-249-3336
송도주물럭,NEW,37.3960687593126,126.649038274476,인천광역시 연수구 컨벤시아대로 80 인천송도힐스테이트 402동 107~109호,0507-1448-0258
체나콜로아트포레,NEW,37.3937818483729,126.633289319826,인천광역시 연수구 인천타워대로 257 아트포레 c동 211호,032-773-5951
오스테리아꼬모,NEW,37.5926073432533,126.712725586683,"인천광역시 서구 이음대로 392 매트로시티, 2층 ",010-3700-8388
카이린펑,NEW,37.5302535716189,126.647782386384,인천광역시 서구 청라커낼로 252 청라 롯데캐슬상가D동 105호,032-719-8816
소하다이닝바 ,NEW,37.4979609979171,126.725369823179,인천광역시 부평구 주부토로32번길 3 1층,010-4747-8936
카페 투영즈,NEW,37.4775399169207,126.505730950744,인천광역시 중구 흰바위로232번길 73 태원프라자 104호,010-3015-3907
라폴리아,NEW,37.5339020590277,126.652034349285,인천광역시 서구 중봉대로612번길 10-17 청라타워돔 1층 106호,0507-1337-8793
화양식,NEW,37.4719532023158,126.631450359002,인천광역시 중구 개항로 81 ,010-5946-7897
꽃새담,NEW,37.5896552837641,126.51981761668,인천광역시 강화군 길상면 동검길63번길 86 ,070-8880-2528
고트커피,NOT_RECORD,37.3810206955032,126.660813360073,인천광역시 연수구 송도과학로16번길 13-18 송도테크노큐브 110호,010-9765-1140
황금풍천장어,NOT_RECORD,37.5157874307175,126.704541361673,인천광역시 부평구 마장로 422 황금풍천장어,032-502-5548
순석닭강정,NOT_RECORD,37.4476289713798,126.647094601108,인천광역시 미추홀구 용정공원로83번길 43 1층상가 105호,032-887-7817
꾸아(송도점),NOT_RECORD,37.3934747558952,126.646717372459,인천광역시 연수구 컨벤시아대로 116 푸르지오월드마크7단지 상가,032-832-0630
1982삼계정,NOT_RECORD,37.5205708137639,126.709140523179,인천광역시 부평구 안남로417번길 20 ,032-512-1982
떼라깔다,NOT_RECORD,37.3966015482842,126.649590971336,인천광역시 연수구 컨벤시아대로 70 302동 1층 117호,032-859-8592
린치핀,NOT_RECORD,37.3824430719809,126.66063408484,"인천광역시 연수구 송도과학로28번길 8 트리플타워 EAST SM1블럭 130, 131호",070-7808-1118
바소(청라점),NOT_RECORD,37.5313904282915,126.660857199423,인천광역시 서구 담지로22번길 16 1층,010-8232-8526
멜란지베이커리,NOT_RECORD,37.601084143098,126.665088201111,인천광역시 서구 완정로92번길 26 아이파크상가,070-7543-8265
칠돈가(청라점),NOT_RECORD,37.5530409203888,126.652864997453,인천광역시 서구 경명대로 401 ,032-562-2925
굽도,NOT_RECORD,37.533385119795,126.651624357677,인천광역시 서구 중봉대로612번길 10-16 청라 마르씨엘,010-5858-4555
불로만숯불닭갈비,NOT_RECORD,37.4935051209758,126.722034689837,인천광역시 부평구 경원대로1377번길 47 ,032-361-9992
시나몬하우스,NOT_RECORD,37.4433899641325,126.705442146582,인천광역시 남동구 인하로521번길 10-14 ,010-5552-5524
온도베이커리,NOT_RECORD,37.508381141658,126.73309338626,인천광역시 부평구 체육관로 14 1층 109호,032-330-0999
해월커피(송도점),NOT_RECORD,37.389004286781,126.635327347312,인천광역시 연수구 인천타워대로197번길 16 리치센트럴 132호,032-833-0146
가현산잔치국수,NOT_RECORD,37.6305347144585,126.657369619959,인천광역시 서구 대곡로368번길 25 ,032-567-3395
어푸키친,NOT_RECORD,37.5442217804822,126.672473261192,인천광역시 서구 승학로 243 2층,070-8623-0291
바소(송도점),NOT_RECORD,37.3937618144703,126.633308276601,인천광역시 연수구 인천타워대로 257 아트포레상가 a동 201호,
꽃게연가,NOT_RECORD,37.6372656867627,126.395755285976,인천광역시 강화군 화도면 해안남로 2884 ,032-937-5745
금호정 ,NOT_RECORD,37.4994071882238,126.674009424285,인천광역시 서구 건지로 285 ,032-573-7841
정가네굴마당,NOT_RECORD,37.5063599742164,126.718331678694,인천광역시 부평구 부평대로167번길 42 ,032-503-3301
갯바다 해물샤브칼국수,NOT_RECORD,37.6855840694961,126.31794179338,인천광역시 강화군 삼산면 삼산남로 824 ,032-933-6688
녹수아구찜,NOT_RECORD,37.4642221085128,126.709657703219,인천광역시 남동구 남동대로916번길 23 ,032-438-9214
카페뮤게트,NOT_RECORD,37.4947910560605,126.724853680131,인천광역시 부평구 부평대로36번길 35 3층,032-213-1331
마시안제면소,NOT_RECORD,37.4265533478018,126.421227508077,인천광역시 중구 마시란로 40 나동 1층 ,032-746-8052
림,NOT_RECORD,37.5211633096625,126.625891759251,인천광역시 서구 보석로12번길 11 1층,070-4065-0619
일용할양식,NOT_RECORD,37.4482316481038,126.695246841006,인천광역시 남동구 인주대로522번길 50 1층 101호 ,010-7383-3303
첫번째부엌,NOT_RECORD,37.4952997649006,126.723966154118,인천광역시 부평구 대정로36번길 21 2층  ,010-6417-2560
오트닝,NOT_RECORD,37.3937818483729,126.633289319826,인천광역시 연수구 인천타워대로 257 C동 103-1호 오트닝,010-7583-9312
카페오를,NOT_RECORD,37.3937818483729,126.633289319826,인천광역시 연수구 인천타워대로 257 아트포레 D동 106호,070-8098-6093
백제원(송도점),NOT_RECORD,37.3942371804577,126.645717977765,인천광역시 연수구 해돋이로 157 2층,032-831-2222
한라담(송도점),NOT_RECORD,37.3933251340161,126.645285123735,인천광역시 연수구 컨벤시아대로130번길 12 대경스위트리아 송도 2층,032-858-9595
베이커리율교P3120,NOT_RECORD,37.4003659710472,126.65076958299,"인천광역시 연수구 컨벤시아대로42번길 20 송도 더 프라우 3단지 코오롱상가 302동 101,102호",032-832-3120
도쿄하나(송도점),NOT_RECORD,37.3942371804577,126.645717977765,인천광역시 연수구 해돋이로 157 3층,032-815-5000
풀사이드228(송도점),NOT_RECORD,37.3942371804577,126.645717977765,인천광역시 연수구 해돋이로 157 4층,032-817-0000
브런치빈,NOT_RECORD,37.3940175669476,126.646006981957,인천광역시 연수구 해돋이로151번길 4 인피니티타워 801호,0507-1300-9935
송쭈집,NOT_RECORD,37.3929791823293,126.645688890785,"인천광역시 연수구 컨벤시아대로 126 상가2층 206,7,8호",032-833-7892
우아한밤,NOT_RECORD,37.3832947004154,126.64225604799,인천광역시 연수구 하모니로 158 송도타임스페이스 D동 220호,032-221-2093
송도어멍,NOT_RECORD,37.379305344604,126.64614896978,인천광역시 연수구 인천타워대로54번길 15-3 리슈플라자,032-858-9778
월화식당(송도센트럴파크점),NOT_RECORD,37.3940175669476,126.646006981957,인천광역시 연수구 해돋이로151번길 4 ,032-833-7010
송도씨,NOT_RECORD,37.3832947004154,126.64225604799,인천광역시 연수구 하모니로 158 송도타임스페이스 A동 102호(CGV 건물),010-2351-8203
헤이트래블러,NOT_RECORD,37.4023784481142,126.640151020131,"인천광역시 연수구 아트센터대로 87 커낼워크 겨울동 402동 144, 145호",032-832-1255
삼교리동치미막국수(송도점),NOT_RECORD,37.3881431004052,126.645553109611,인천광역시 연수구 센트럴로 123 송도컨벤시아,032-715-4220
송도춘향전,NOT_RECORD,37.3793159725333,126.657657591796,"인천광역시 연수구 송도과학로28번길 50 송도트리플타워west동 126, 127호",032-811-4322
커피화로스터스본점,NOT_RECORD,37.3879630465081,126.667249614783,"인천광역시 연수구 송도과학로27번길 70 롯데캐슬상가 107, 108호",010-2973-7309
깨비옥 트리플스트리트 본점,NOT_RECORD,37.37979192876,126.660954609983,인천광역시 연수구 송도과학로16번길 33-3 트리플스트리트 C동 지상 1층,032-310-9850
어글리무드,NOT_RECORD,37.3934747558952,126.646717372459,인천광역시 연수구 컨벤시아대로 116 푸르지오월드마크 138호,010-2643-7879
js가든(현대프리미엄아울렛송도점),NOT_RECORD,37.38162973762397,126.65791896381225,인천광역시 연수구 송도국제대로 123 현대프리미엄아울렛 송도점 3층, 032-727-2332
참피온삼겹살(트리플스트리트점),NOT_RECORD,37.3804450761613,126.660231759735,인천광역시 연수구 송도과학로16번길 33-2 트리플스트리트 B동 202호~203호,032-814-1008
참피온삼겹살,NOT_RECORD,37.3892363233087,126.665127593356,인천광역시 연수구 송도과학로27번길 55 롯데캐슬 캠퍼스타운 A동 214호,0507-1466-6101
송도국제경양식,NOT_RECORD,37.394587,126.640927,인천광역시 연수구 센트럴로 194 더샵센트럴파크 2C동 225호,032-888-8525
청기와타운(송도점),NOT_RECORD,37.4116490153896,126.654751097925,인천광역시 연수구 앵고개로 80 ,032-833-1474
셀레브르,NOT_RECORD,37.3993587408579,126.636895802118,인천광역시 연수구 아트센터대로 131 커낼워크 여름동 217호 ,010-4701-4466
돌핀커피로스터스,NOT_RECORD,37.3934747558952,126.646717372459,인천광역시 연수구 컨벤시아대로 116 푸르지오월드마크7단지 판매시설 146호,070-8844-1220
돌핀커피오마카세,NOT_RECORD,37.3937818483729,126.633289319826,인천광역시 연수구 인천타워대로 257 D동 111호,070-8287-0221
무궁,NOT_RECORD,37.3849625996123,126.642800057546,인천광역시 연수구 하모니로138번길 11 송도캐슬센트럴파크 오피스텔 102동 1층,010-3343-7179
후레이,NOT_RECORD,37.3937862653635,126.641874180513,인천광역시 연수구 센트럴로 194 더샵 센트럴파크2차 c동 1층,010-9796-5333
송도술상,NOT_RECORD,37.3960687593126,126.649038274476,인천광역시 연수구 컨벤시아대로 80 인천송도힐스테이트 402동 117호,032-899-2299
피에프창(송도트리플스트리트점),NOT_RECORD,37.380736,126.660195,인천광역시 연수구 송도과학로16번길 33-2 송도 트리플스트리트 B동 2층,032-310-9488
지츠겐,NOT_RECORD,37.3840647142873,126.643211374294,인천광역시 연수구 하모니로 144 송도 지웰 푸르지오시티 A동 128호,010-3739-0249
뉴욕바나나,NOT_RECORD,37.3952040049379,126.631287119931,인천광역시 연수구 아트센터대로 203 A동 154호,010-5601-2728
웰디벨롭,NOT_RECORD,37.4893933687468,126.561946414694,인천광역시 중구 하늘중앙로195번길 21 에스디메디컬 ,010-4891-9910
을지돈까스 ,NOT_RECORD,37.5280986130198,126.724990457443,인천광역시 계양구 봉오대로686번길 20 1층 2호,070-7724-2887
아날로그,NOT_RECORD,37.4949764936524,126.72319985841,인천광역시 부평구 부평대로40번길 4-1 ,010-7665-6133
인브스키친,NOT_RECORD,37.4950765434973,126.722218164855,인천광역시 부평구 부평대로 39-6 ,032-213-3027
도티카츠,NOT_RECORD,37.5048312328334,126.72405332229,인천광역시 부평구 길주남로 23 ,010-3392-5843
푸른바다참치,NOT_RECORD,37.4534669713323,126.720014314165,인천광역시 남동구 구월로266번길 49 ,032-467-8837
강화까까,NOT_RECORD,37.6528637982605,126.510639128179,인천광역시 강화군 불은면 덕진로 159 ,010-3627-8597
에키노마에,NOT_RECORD,37.4904472744166,126.723486369222,"인천광역시 부평구 광장로 지하15 부평역 지하1층 더몰 1,2, 19호",032-330-0400
키치키치다이닝,NOT_RECORD,37.5080614046585,126.724395552824,인천광역시 부평구 주부토로145번길 23 ,0507-1441-4103
탐라담(연수점),NOT_RECORD,37.4143340943985,126.676991140837,"인천광역시 연수구 먼우금로 194 메카오피스텔 115, 116호",032-721-7210
피플즈,NOT_RECORD,37.4932414747495,126.726390794891,인천광역시 부평구 시장로30번길 11 ,010-9980-9992
봄이보리밥(영종점),NOT_RECORD,37.4887341298546,126.558998073671,인천광역시 중구 자연대로 47 대지스타타워2 3층,032-752-8858
뽁식당(구월점),NOT_RECORD,37.4489871545544,126.706899307919,인천광역시 남동구 남동대로747번길 7 희망오피스텔,070-7525-4384
고쉐프의신선한초밥,NOT_RECORD,37.52927676727,126.655375506208,인천광역시 서구 청라에메랄드로41번길 20 예다움빌 101호,032-278-1848
봄날의정원한식당,NOT_RECORD,37.7242095140887,126.507107185454,인천광역시 강화군 선원면 선원사지로 67 ,032-934-0673
코코도쿄,NOT_RECORD,37.4239165711972,126.644168489552,인천광역시 연수구 능허대로103번길 44 한빌딩 2층 코코도쿄,032-832-7716
커피프로브,NOT_RECORD,37.5684306753895,126.747983467106,인천광역시 계양구 귤현길 14 우성주택 1층,070-4233-8100
오잠봉,NOT_RECORD,37.4926649571862,126.726444913942,인천광역시 부평구 경원대로1403번길 38-18 3층,070-8824-9674
쿠드푸드흐,NOT_RECORD,37.4486372652499,126.694402466325,인천광역시 남동구 문화서로23번길 42 101호,070-8691-2256
맛을담은강된장,NOT_RECORD,37.6119259654161,126.455918966496,인천광역시 강화군 화도면 해안남로 1164 ,010-2079-9394
로이스바이앤티진,NOT_RECORD,37.5369106514642,126.643301998629,인천광역시 서구 청라커낼로319번길 11-1 ,032-565-5079
조선화로집삼산점,NOT_RECORD,37.5071376647226,126.735897832003,인천광역시 부평구 길주로 659 미라쥬타워 ,032-525-2255
돈불1971,NOT_RECORD,37.4477162229187,126.697156435278,인천광역시 남동구 문화서로28번길 19-1 ,070-4383-9865
돈불식당,NOT_RECORD,37.4476635839714,126.697747013684,인천광역시 남동구 문화서로28번길 25-2 ,032-435-1999
수란,NOT_RECORD,37.5924827318967,126.671904974353,인천광역시 서구 청마로19번길 13 디자인빌딩 111 112호 차이니즈레스토랑 수란,032-564-4445
노배드바이브스,NOT_RECORD,37.5078881923517,126.732053818663,인천광역시 부평구 길주로 623 대덕리치아노,010-8374-8507
스시민(구월점),NOT_RECORD,37.4425941818563,126.708491369017,인천광역시 남동구 인하로 556 스타씨티빌딩,032-777-9851
스시민(스퀘어원점),NOT_RECORD,37.4059981630337,126.683622060373,인천광역시 연수구 청능대로 210 스퀘어원,032-777-9851
스시민신관,NOT_RECORD,37.4712068214003,126.626034278196,인천광역시 중구 제물량로166번길 25 ,032-777-9851
스시민(본점),NOT_RECORD,37.4710478670874,126.626199777189,인천광역시 중구 제물량로166번길 24 ,032-777-98581
산향한정식(대공원점),NOT_RECORD,37.4435637107737,126.766342877613,인천광역시 남동구 수인로 3540 ,032-467-0011
메종드제니,NOT_RECORD,37.5321533302342,126.657432915581,인천광역시 서구 청라에메랄드로76번길 7 디오스텔오피스텔 103호,010-2450-4563
베이크샵 켜켜이,NOT_RECORD,37.5333635711451,126.650734729401,인천광역시 서구 중봉대로612번길 10-8 반안프라자 ,070-4163-6350
용현장어구이,NOT_RECORD,37.4508451518181,126.634650103041,인천광역시 미추홀구 낙섬서로10번길 3-22 1층,032-888-1195
영재,NOT_RECORD,37.4026684991805,126.722150000586,인천광역시 남동구 논현남로 14-3 ,010-5844-9341
빌라,NOT_RECORD,37.4950184425127,126.724648733337,인천광역시 부평구 부평대로38번길 31 ,010-5508-4926
고꼬(구월점),NOT_RECORD,37.4419095642788,126.709064796775,인천광역시 남동구 선수촌공원로23번길 10-16 ,032-777-9851
빌라인아파트,NOT_RECORD,37.4492548262897,126.698474968573,인천광역시 남동구 문화서로46번길 37 빌라인아파트,010-6777-8696
명동칼국수,NOT_RECORD,37.4937834824619,126.722282094747,인천광역시 부평구 부평문화로 54 1층 명동칼국수,032-528-4661
천월,NOT_RECORD,37.5333419696599,126.645601017085,인천광역시 서구 청라커낼로288번길 8-10 청라봄빌딩 123호,032-563-5123
천월반점가정루원시티점,NOT_RECORD,37.5271100683154,126.672642894273,인천광역시 서구 봉오재3로 116 sd프라자 114호 125호,032-568-5123
백월스시,NOT_RECORD,37.5333419696599,126.645601017085,인천광역시 서구 청라커낼로288번길 8-10 청라봄빌딩 121호,032-568-5123
별미뼈다귀,NOT_RECORD,37.527738705047,126.725356626683,"인천광역시 계양구 아나지로299번길 24 1층, 별미뼈다귀",032-556-3713
꼬알라파이,NOT_RECORD,37.4721353946075,126.62617570865,인천광역시 중구 신포로46번길 8-12 ,032-777-7275
고수찜닭,NOT_RECORD,37.4518582955875,126.65629224927,인천광역시 미추홀구 경인남길30번길 34 ,032-867-9982
한상민과자점(검단신도시점),NOT_RECORD,37.5939192277609,126.712595876122,인천광역시 서구 이음대로 378 로뎀타워 108호,032-567-2729
모니모니,NOT_RECORD,37.5076227247155,126.726847041634,인천광역시 부평구 길주로585번길 7-11 ,032-216-9121
세인트커피,NOT_RECORD,37.4146074544424,126.658146669251,인천광역시 연수구 청량로 67 ,010-4199-9064
쇼쿠미,NOT_RECORD,37.5079019703412,126.724143810209,인천광역시 부평구 길주로547번길 8-15 1층,032-227-8304
베이커리카페지금이곳,NOT_RECORD,37.486086132523,126.537082119708,인천광역시 중구 운남로82번길 40 ,010-3101-7870
시골한우시골돼지(청라점),NOT_RECORD,37.5326373299899,126.646603136462,"인천광역시 서구 청라커낼로260번길 7-19 에이스프라자 101호, 102호",032-566-9228
문스톤,NOT_RECORD,37.4622668863001,126.721014620957,인천광역시 남동구 호구포로888번길 9-15 씨앤엘하우스,010-8558-6149
커피네이션,NOT_RECORD,37.4902182676908,126.75104981614,경기도 부천시 부일로191번길 35 상가동 1층 106호,032-325-1438
홍두깨칼국수2900 ,NOT_RECORD,37.4955174649556,126.727115040356,인천광역시 부평구 부흥로334번길 65 ,032-505-8664
에그브레이크,NOT_RECORD,37.4949047816518,126.722166896576,인천광역시 부평구 부평대로 39-5 102호,070-4045-0521
계산동수제돈까스,NOT_RECORD,37.5372755417992,126.728882457258,인천광역시 계양구 계산로 149 영동프라자(재현빌딩) 202호,032-546-6321
비엣테이블,NOT_RECORD,37.5078881923517,126.732053818663,인천광역시 부평구 길주로 623 롯데마트 삼산점 건물,032-508-6111
카페오디디오,NOT_RECORD,37.4520149469249,126.64506286268,인천광역시 미추홀구 용정공원로 33 근린생활시설 A-1동,0328855599
리워크커피,NOT_RECORD,37.5004465088003,126.721598669953,인천광역시 부평구 부평대로 101 ,032)505-2599
차이나타운동화마을연경,NOT_RECORD,37.4786869592588,126.619401720652,인천광역시 중구 차이나타운로 8 ,032-772-8855
조선갈비실록(인천점),NOT_RECORD,37.4566195502577,126.635852164069,인천광역시 미추홀구 아암대로 53 세인트재활빌딩 2층  ,032-886-7711
육담원,NOT_RECORD,37.4501448773968,126.709496037337,인천광역시 남동구 인주대로653번길 9 하나홈타운101호,070-8833-2952
베르데,NOT_RECORD,37.470761256083,126.626912143981,인천광역시 중구 우현로39번길 9 현프라자 1층,032-772-8875
디기티,NOT_RECORD,37.5075594169997,126.728071813482,인천광역시 부평구 길주로595번길 7-9 1층,010-3933-3953
산향한정식,NOT_RECORD,37.4406868122934,126.7068450145,인천광역시 남동구 선수촌공원로17번길 28 THE11일레븐,032-465-0010
동이집,NOT_RECORD,37.453291550103,126.63569425028,인천광역시 미추홀구 낙섬서로 43 동이집,032-887-5086
디벨로핑룸,NOT_RECORD,37.4176352451493,126.675810259257,인천광역시 연수구 청명로 26 미백빌딩,032-821-2006
인사동불고기,NOT_RECORD,37.4942098765959,126.539148047497,인천광역시 중구 전소로 12 인사동불고기 ,032-752-3336
소마다이닝,NOT_RECORD,37.4453221313777,126.704915644257,인천광역시 남동구 성말로35번길 4 2층  , 070-7788-7664
월미도레미,NOT_RECORD,37.475242573204,126.597876411669,인천광역시 중구 월미문화로 35 2층,010-5645-4868
유노미,NOT_RECORD,37.4452656406021,126.705530849084,인천광역시 남동구 성말로 43 1층,032-710-2076
팔레트디저트,NOT_RECORD,37.5429307225008,126.727504017459,인천광역시 계양구 경명대로 1086 ,070-8848-3167
심원간장게장,NOT_RECORD,37.4593778986067,126.772246988837,인천광역시 남동구 만의골로189번길 17 1층 심원간장게장,032-472-8547
스윗유 ,NOT_RECORD,37.5037023948135,126.73580984429,인천광역시 부평구 충선로161번길 8 ,032-504-1117
이춘명숙성회,NOT_RECORD,37.5316221209745,126.733546179187,인천광역시 계양구 봉오대로743번길 8 1동 1층 101호,032-555-9998
명게원,NOT_RECORD,37.5394077882315,126.737674205565,인천광역시 계양구 계산새로87번길 15 104호,032-862-7060
백면옥,NOT_RECORD,37.4159039929422,126.679628966109,인천광역시 연수구 먼우금로222번길 41 102호,032-812-9030
달쭈꾸미,NOT_RECORD,37.4747878011587,126.597707237023,인천광역시 중구 월미문화로 39 ,0507-1311-7403
장어마을,NOT_RECORD,37.610974,126.52056,인천광역시 강화군 길상면 해안남로 298 ,032-937-0592
박씨농원,NOT_RECORD,37.465942,126.755579,인천광역시 남동구 무네미로312번길 36 ,032-466-6086
해뜨는회집,NOT_RECORD,37.476093,126.598111,인천광역시 중구 월미문화로 25 ,032-763-1466
화미소금구이(부평점),NOT_RECORD,37.4994459301056,126.719308046662,인천광역시 부평구 부흥로 249-13 ,032-521-0600
신성복집,NOT_RECORD,37.462573,126.635135,인천광역시 중구 인중로63번길 41 ,032-883-1788
할매왕족발순대,NOT_RECORD,37.471133,126.627463,인천광역시 중구 우현로45번길 11 ,032-772-6919
부산태종대횟집,NOT_RECORD,37.4747188252032,126.597666343202,인천광역시 중구 월미문화로 41 ,032-773-2018
덕화원,NOT_RECORD,37.505876,126.701467,인천광역시 부평구 원적로315번길 29-1 ,032-502-7259
브라운핸즈개항로,NOT_RECORD,37.4719495245054,126.6307917668,인천광역시 중구 개항로 73-1 ,032-777-7506
원보만두,NOT_RECORD,37.475235,126.619,인천광역시 중구 차이나타운로 48 ,032-773-7888
블랑제리쉐종,NOT_RECORD,37.543138503365,126.7254859443,인천광역시 계양구 경명대로 1068 ,032-554-0304
꼬막한상,NOT_RECORD,37.6081353097346,126.516939560821,인천광역시 강화군 길상면 해안남로 334 ,032-937-2868
대창반점,NOT_RECORD,37.474557,126.618591,인천광역시 중구 차이나타운로 55-1 ,032-772-0937
엣워터스테이션,NOT_RECORD,37.4979794489989,126.723545900855,인천광역시 부평구 대정로 7 부평한라비발디 1층 125호,010-6823-9588
어푸키친,NOT_RECORD,37.5442217804822,126.672473261192,인천광역시 서구 승학로 243 2층,070-8623-0291
엠클리프,NOT_RECORD,37.4258423040434,126.419928442491,인천광역시 중구 마시란로 51-30 ,032-751-3334
공화춘,NOT_RECORD,37.475343,126.619587,인천광역시 중구 차이나타운로 43 ,032-765-0571
신라반점,NOT_RECORD,37.4725253940829,126.634105750888,인천광역시 중구 개항로 105-1 경원광고,032-773-6934
춘하추동,NOT_RECORD,37.6851563203725,126.317510490357,인천광역시 강화군 삼산면 삼산남로 823 ,032-932-3584
푸른언덕,NOT_RECORD,37.760248,126.466274,인천광역시 강화군 송해면 강화대로 671 ,032-934-2151
민영바다식당,NOT_RECORD,37.454377,126.607349,인천광역시 중구 연안부두로21번길 37 안창빌딩 2층,032-883-6666
원조부산활어회,NOT_RECORD,37.47369,126.597134,인천광역시 중구 월미문화로 51 ,032-773-6366
해저회집,NOT_RECORD,37.475934,126.598228,인천광역시 중구 월미문화로 25-1 ,032-761-1232
다원회집,NOT_RECORD,37.475378,126.599292,인천광역시 중구 월미로 232 ,032-761-5376
초심,NOT_RECORD,37.453516,126.733271,인천광역시 남동구 하촌로 63 ,032-471-0300
북경반점,NOT_RECORD,37.497605,126.734245,인천광역시 부평구 부흥로 382 ,032-525-7600
중화원,NOT_RECORD,37.475666,126.618353,인천광역시 중구 차이나타운로44번길 20 2층,032-777-8630
장수가든,NOT_RECORD,37.463952,126.750561,인천광역시 남동구 수현로14번길 13-7 ,032-466-6611
본토,NOT_RECORD,37.492671,126.489965,인천광역시 중구 흰바위로 45 가나베스트빌 203호,032-751-6123
배두둑마을,NOT_RECORD,37.508278,126.734275,인천광역시 부평구 체육관로 24 청호빌딩 2층,032-516-7888
미궁장어구이,NOT_RECORD,37.457262,126.773721,인천광역시 남동구 만의골로 168 ,032-469-9292
청송,NOT_RECORD,37.428153,126.722105,인천광역시 남동구 덕골로 96 ,032-462-9292
남도해물탕,NOT_RECORD,37.494251,126.728866,인천광역시 부평구 부평문화로 111-1 ,032-518-6756
떡사랑향기,NOT_RECORD,37.517415,126.721865,인천광역시 부평구 부평대로 292 진우빌딩,032-514-0040
약선삼계탕,NOT_RECORD,37.535143,126.73778,인천광역시 계양구 오조산로45번길 8 ,032-545-0857
일품통닭,NOT_RECORD,37.402687,126.723101,인천광역시 남동구 논현남로26번길 16 ,032-431-2111
옛맛불고기,NOT_RECORD,37.535607,126.737219,인천광역시 계양구 오조산로57번길 11-1 ,032-544-9825
태백산,NOT_RECORD,37.545969,126.67377,인천광역시 서구 서곶로315번길 26 ,032-567-3331
황제능이버섯백숙,NOT_RECORD,37.512479,126.707847,인천광역시 부평구 세월천로 13-1 2층,032-511-2595
토모,NOT_RECORD,37.535738,126.736291,인천광역시 계양구 계양문화로 55 ,032-554-6818
어머니순두부,NOT_RECORD,37.423354,126.656896,인천광역시 연수구 청룡로42번길 10 ,032-832-4560
통큰조개찜,NOT_RECORD,37.471279,126.624589,인천광역시 중구 신포로23번길 6 ,032-765-7666
초지한탄강,NOT_RECORD,37.601978,126.491119,인천광역시 강화군 길상면 해안남로 675 ,032-937-9020
청관,NOT_RECORD,37.4754927713474,126.619725986248,인천광역시 중구 차이나타운로 41-1 ,032-772-5118
신생갈비,NOT_RECORD,37.46588,126.634752,인천광역시 중구 서해대로 446-2 ,032-882-4312
맘모스회센타,NOT_RECORD,37.45484,126.604282,인천광역시 중구 연안부두로33번길 17 비치상가,032-882-4057
중화방,NOT_RECORD,37.4724286593279,126.622967318561,인천광역시 중구 신포로27번길 43 ,032-761-5550
성진아구탕,NOT_RECORD,37.415507,126.652924,인천광역시 연수구 청량로109번길 71 ,032-832-6161
변가네옹진냉면,NOT_RECORD,37.45764281200073,126.67710380069512,인천광역시 미추홀구 한나루로586번길 92 ,032-875-0410
신포닭강정,NOT_RECORD,37.471558,126.628169,인천광역시 중구 우현로49번길 3 ,032-762-5800
정든식당,NOT_RECORD,37.45020408272237,126.63499960885346,인천광역시 미추홀구 낙섬서로10번길 21-9 ,032-764-2161
스시사쿠,NOT_RECORD,37.47227150469785,126.62576715648247,인천광역시 중구 신포로 39 ,032-765-9427
스시사쿠(연수점),NOT_RECORD,37.4162080620631,126.68011939907754,인천광역시 연수구 벚꽃로 130-3 연수푸르지오1단지 1층,032-822-0819
라이프에이드커피,NOT_RECORD,37.4453374346622,126.705126681044,인천광역시 남동구 성말로 39 ,032-864-0001
픽스치킨,NOT_RECORD,37.5245523504727,126.630912113411,인천광역시 서구 푸른로13번길 12 ,032-564-9492
공항마을,NOT_RECORD,37.424372,126.422627,인천광역시 중구 마시란로 11 ,032-746-3305
청실홍실(주안직영점),NOT_RECORD,37.45965406171772,126.67982591819967,인천광역시 미추홀구 미추홀대로 697 유경빌딩,032-876-5868
송원식당(구월동점),NOT_RECORD,37.445088,126.698557,인천광역시 남동구 문화서로4번길 61-14 ,032-432-6948
장터활어횟집,NOT_RECORD,37.4767277860233,126.597690507019,인천광역시 중구 월미문화로 20 ,032-772-7171
소양강횟집,NOT_RECORD,37.4755902779577,126.598143386573,인천광역시 중구 월미로234번길 12 ,032-772-7246
군산광주회집,NOT_RECORD,37.475701,126.599321,인천광역시 중구 월미로 226 ,032-766-8818
이경숙아줌마횟집,NOT_RECORD,37.4743414020834,126.597351147495,인천광역시 중구 월미문화로 45 ,032-765-6200
학운정(학익점),NOT_RECORD,37.441264707619695,126.67009130711399,인천광역시 미추홀구 소성로 193-22 은혜빌딩,032-872-1240
이나경강화약쑥떡,NOT_RECORD,37.7004730480689,126.409140131321,인천광역시 강화군 양도면 중앙로 1016 ,010-6276-2601
연백식당,NOT_RECORD,37.4565683327186,126.603583401783,인천광역시 중구 연안부두로 16 , 032-883-4709
오대산쭈꾸미볶음,NOT_RECORD,37.438403,126.718325,인천광역시 남동구 찬우물로 5 ,032-432-1331
은행나무집,NOT_RECORD,37.4601014546231,126.770361161574,인천광역시 남동구 만의골로189번길 52 ,032-811-1238
사리원냉면,NOT_RECORD,37.539602,126.626097,인천광역시 서구 청라커낼로329번길 11 ,032-888-0690
속초코다리냉면,NOT_RECORD,37.468411,126.70216,인천광역시 부평구 백범로 442 ,032-431-0970
행복한손님,NOT_RECORD,37.5369066210012,126.641673072724,인천광역시 서구 청라루비로134번길 10-1 ,032-564-5543
은성횟집,NOT_RECORD,37.70335,126.371663,인천광역시 강화군 내가면 해안서로 963 ,032-933-8088
솔밭식당,NOT_RECORD,37.6863946102468,126.318602573338,인천광역시 강화군 삼산면 삼산남로828번길 14 ,032-932-3138
로이카페,NOT_RECORD,37.7095159655142,126.384700980197,인천광역시 강화군 내가면 강화서로 91 ,032-932-6597
카페다루지,NOT_RECORD,37.63853880098696,126.46848332539868,인천광역시 강화군 길상면 마니산로 254-36 ,032-937-0323
대만제과,NOT_RECORD,37.475750760417654,126.61942791645147,인천광역시 중구 차이나타운로 40 ,
박칼국수,NOT_RECORD,37.4959182181851,126.682907825667,인천광역시 서구 원적로 105 ,032-574-2008
