name,ribbonType,latitude,longitude,address,phone
청자골종가집,RIBBON_TWO,34.647106,126.784046,전라남도 강진군 군동면 종합운동장길 106-11 ,061-433-1100  
전통식당,RIBBON_TWO,35.207976,126.986722,전라남도 담양군 고서면 고읍현길 38-4 ,061-382-3111  
신식당,RIBBON_TWO,35.32174720440017,126.98199922058063,전라남도 담양군 담양읍 중앙로 95 ,061-382-9901  
덕인집,RIBBON_TWO,34.78918,126.384937,전라남도 목포시 영산로73번길 1-1 ,061-242-3767  
대원식당,RIBBON_TWO,34.950087,127.490202,전라남도 순천시 장천2길 30-29 ,061-744-3582  
국일식당,RIBBON_TWO,34.843944,127.343676,전라남도 보성군 벌교읍 태백산맥길 18-1 ,061-857-0588  
구로횟집,RIBBON_TWO,34.927533,126.390205,전라남도 무안군 청계면 구로길 25-12 ,061-453-1250  
경도회관,RIBBON_TWO,34.721717,127.721883,전라남도 여수시 대경도길 2-2 ,061-666-0044  
금메달식당,RIBBON_TWO,34.81355166600711,126.44763035873788,전라남도 목포시 후광대로143번길 8 ,061-272-2697  
도리포횟집,RIBBON_TWO,35.1580995963383,126.346630107925,전라남도 무안군 해제면 만송로 838-17 ,061-454-6890  
영란횟집,RIBBON_TWO,34.7861166241455,126.384070759305,전라남도 목포시 번화로 42-1 ,061-244-0311  
하얀집,RIBBON_TWO,35.032238,126.717055,전라남도 나주시 금성관길 6-1 ,061-333-4292  
오케이목장가든,RIBBON_TWO,35.07085479161655,126.99935094414914,전라남도 화순군 화순읍 안양산로 72 ,061-372-9433  
독천식당,RIBBON_TWO,34.724744,126.567074,전라남도 영암군 학산면 독천로 162-1 ,061-472-4222  
고력당,RIBBON_TWO,34.970555,127.526148,전라남도 순천시 왕지3길 18-28 ,061-727-0013  
목화식당,RIBBON_TWO,35.209208,127.463339,전라남도 구례군 구례읍 구례2길 33 ,061-782-9171  
영암식당,RIBBON_TWO,34.7925688416434,126.382296383204,전라남도 목포시 수문로35번길 1 ,061-244-4600  
마인브로트,RIBBON_ONE,34.7436859747615,127.675102876802,전라남도 여수시 웅천로 83  벨마레몰 1113호,010-5332-5192  
피시테리안,RIBBON_ONE,34.7858229686263,126.385305034373,전라남도 목포시 수강로 11-2 ,061-981-0350  
대반동201,RIBBON_ONE,34.787729818929,126.367350144258,전라남도 목포시 해양대학로 59 유달유원지2층,061-244-8884  
오트르망,RIBBON_ONE,34.9476908950119,127.502436585885,전라남도 순천시 이수1길 15-6 ,010-6559-0156  
이화식당,RIBBON_ONE,34.4810999182995,126.264328318863,전라남도 진도군 진도읍 남동1길 55 ,061-544-5688  
르꼬앙,RIBBON_ONE,34.9303573495796,127.496560067369,전라남도 순천시 오천2길 3-15 ,010-5555-2099  
매실한우광양불고기,RIBBON_ONE,34.9698476849125,127.579220059671,전라남도 광양시 광양읍 서천1길 46 ,061-762-9178  
담양앞집,RIBBON_ONE,35.3104223224495,126.979475176504,전라남도 담양군 담양읍 죽향문화로 22 ,061-381-1990  
꽃게살비빔밥꽃게탕(시청점),RIBBON_ONE,34.7580687553018,127.659896675869,전라남도 여수시 시청서1길 50-7 ,0507-1316-4022  
조선쫄복탕,RIBBON_ONE,34.7808378255289,126.377119387269,전라남도 목포시 해안로 115 ,061-242-8522  
대흥식당,RIBBON_ONE,34.60476670752635,127.28101368882578,전라남도 고흥군 고흥읍 고흥로 1694 ,061-834-4477  
원조장수통닭,RIBBON_ONE,34.540709,126.61265,전라남도 해남군 해남읍 고산로 295 ,061-535-1003  
미로횟집,RIBBON_ONE,34.7576687037693,127.656714108966,전라남도 여수시 시청서3길 18 ,061-682-3772  
지곡산장,RIBBON_ONE,34.97551215334561,127.57647797937287,전라남도 광양시 광양읍 서북로 59 ,061-761-3335  
화월당,RIBBON_ONE,34.95368,127.484182,전라남도 순천시 중앙로 90-1 ,061-752-2016  
상록수식당,RIBBON_ONE,34.509554,127.766935,전라남도 여수시 남면 금오로 854 ,061-665-9506  
청정게장촌,RIBBON_ONE,34.733055,127.722048,전라남도 여수시 봉산남4길 23-32 ,061-643-7855  
강진만한정식,RIBBON_ONE,34.6349099443474,126.767611566751,전라남도 강진군 강진읍 보은로 73 ,061-433-0234  
한우명가,RIBBON_ONE,35.3201055094098,126.98138890317,전라남도 담양군 담양읍 담주2길 8-12 ,061-382-8969  
신화정,RIBBON_ONE,34.94629,127.513477,전라남도 순천시 구암길 26 ,061-741-8100  
성식당,RIBBON_ONE,34.785604,126.386549,전라남도 목포시 수강로4번길 6 ,061-244-1401  
건봉국밥,RIBBON_ONE,34.945648,127.493977,전라남도 순천시 장평로 65 건봉빌딩 1,061-752-0900  
60년전통남평할매집,RIBBON_ONE,35.03149812975411,126.71670066190049,전라남도 나주시 금성관길 1-1 ,061-334-4682  
죽림원가든,RIBBON_ONE,34.813209,127.132162,전라남도 담양군 월산면 가산길 358 ,061-383-1292  
광양불고기금목서,RIBBON_ONE,34.977433,127.587056,전라남도 광양시 광양읍 읍성길 199 ,061-761-3300  
달맞이흑두부,RIBBON_ONE,35.029546,127.048777,전라남도 화순군 동면 충의로 849 ,061-372-8465  
노안집,RIBBON_ONE,35.03144,126.71658,전라남도 나주시 금성관길 1-3 ,061-333-2053  
삼대광양불고기집,RIBBON_ONE,34.970142,127.578833,전라남도 광양시 광양읍 서천1길 52 ,061-763-9250  
대중식당,RIBBON_ONE,34.976221,127.585408,전라남도 광양시 광양읍 매일시장길 12-9 ,061-762-5670  
복춘식당,RIBBON_ONE,34.739559,127.734111,전라남도 여수시 교동남1길 5-8 ,061-662-5260  
유달콩물,RIBBON_ONE,34.792294,126.384441,전라남도 목포시 호남로58번길 23-1 ,061-244-5234  
동원정,RIBBON_ONE,35.3590448257953,126.444407537798,전라남도 영광군 법성면 법성포로3길 12-19 ,061-356-3323  
장원식당,RIBBON_ONE,34.991892,127.342966,전라남도 순천시 승주읍 승암교길 15 ,061-754-6362  
설성식당,RIBBON_ONE,34.71285825856377,126.81707306835246,전라남도 강진군 병영면 병영성로 92 ,061-433-1282  
두암식당,RIBBON_ONE,34.965355,126.518907,전라남도 무안군 몽탄면 우명길 52 ,061-452-3775  
두꺼비게장,RIBBON_ONE,34.733785,127.720768,전라남도 여수시 봉산남3길 12 ,061-643-1880  
한국식당,RIBBON_ONE,34.977259,127.5855,전라남도 광양시 광양읍 매일시장길 48 ,061-761-9292  
007식당,RIBBON_ONE,35.355515,126.449917,전라남도 영광군 법성면 굴비로 98 ,061-356-2216  
송광사길상식당,RIBBON_ONE,35.004472,127.26581,전라남도 순천시 송광면 송광사안길 123 ,061-755-2173  
대한식당,RIBBON_ONE,34.9761829598815,127.585575367383,전라남도 광양시 광양읍 매일시장길 12-15 ,061-763-0095  
대흥식당,RIBBON_ONE,35.06498435172595,126.52294491417383,전라남도 함평군 함평읍 시장길 112 ,061-322-3953  
덕인갈비,RIBBON_ONE,35.321206,126.981633,전라남도 담양군 담양읍 담주1길 6 ,061-381-2194  
들풀,RIBBON_ONE,35.205585,126.986361,전라남도 담양군 고서면 분향용대길 3-6 ,061-381-7370  
무안식당,RIBBON_ONE,34.9905890411263,126.476892085335,전라남도 무안군 무안읍 면성2길 36 ,061-453-1919  
바다하우스,RIBBON_ONE,34.632574,127.03111,전라남도 장흥군 안양면 수문용곡로 139 ,061-862-1021  
사시사철삼치회,RIBBON_ONE,34.739779,127.734271,전라남도 여수시 교동남1길 5-11 ,061-666-1445  
삼학집,RIBBON_ONE,34.7390860242063,127.745243842152,전라남도 여수시 이순신광장로 200-3 1층,061-662-0261  
새수궁가든,RIBBON_ONE,35.19139,127.37511,전라남도 곡성군 죽곡면 섬진강로 1015-2 ,061-363-4633  
승일식당,RIBBON_ONE,35.321977,126.982369,전라남도 담양군 담양읍 중앙로 98-1 ,061-382-9011  
아와비,RIBBON_ONE,34.593822,127.766629,전라남도 여수시 돌산읍 돌산로 595 ,061-644-2255
장터식당,RIBBON_ONE,34.784855,126.383446,전라남도 목포시 영산로40번길 23 ,061-244-8880  
전원가든,RIBBON_ONE,35.169418,127.448494,전라남도 구례군 구례읍 섬진강로 76 ,061-782-4733  
천일식당,RIBBON_ONE,34.570537,126.599319,전라남도 해남군 해남읍 읍내길 20-8 ,061-535-1001  
청룡식당,RIBBON_ONE,34.985734,127.772431,전라남도 광양시 진월면 섬진강매화로 160-1 ,061-772-2400  
초록잎이펼치는세상,RIBBON_ONE,34.70662,127.090509,전라남도 보성군 회천면 녹차로 613 ,061-852-7988  
초원음식점,RIBBON_ONE,34.7867917928283,126.383434226731,전라남도 목포시 영산로 42 ,061-243-2234  
칠공주장어탕,RIBBON_ONE,34.73913,127.730709,전라남도 여수시 교동시장2길 13-3 ,061-663-1580  
한상근대통밥집,RIBBON_ONE,35.333683,126.964616,전라남도 담양군 월산면 담장로 113 1층,061-382-1999  
해태식당,RIBBON_ONE,34.639241780994915,126.76718208715526,전라남도 강진군 강진읍 서성안길 6 ,061-434-2486  
송현불고기,RIBBON_ONE,35.050739,126.721722,전라남도 나주시 건재로 193 ,061-332-6497  
명동식당,RIBBON_ONE,34.638901,126.767311,전라남도 강진군 강진읍 서성안길 5 ,061-433-2147  
신호등회관,RIBBON_ONE,34.4804682928955,126.265393798498,전라남도 진도군 진도읍 남동1길 66 ,0507-1413-4449  
미락식당,RIBBON_ONE,34.801986182453,126.414014488203,전라남도 목포시 백년대로231번길 12 ,061-272-3828  
독천식당,RIBBON_ONE,34.793936,126.385641,전라남도 목포시 호남로64번길 3-1 ,061-242-6528  
진우네집국수,RIBBON_ONE,35.324087,126.984274,전라남도 담양군 담양읍 객사3길 32 ,061-381-5344  
리노 ,RIBBON_ONE,34.9562130146845,127.481918385845,전라남도 순천시 영동길 71 ,061-753-0623  
금빈회관,RIBBON_ONE,34.951518,127.48808,전라남도 순천시 장명4길 8 ,061-744-5553  
수림정,RIBBON_ONE,35.064774,126.987535,전라남도 화순군 화순읍 진각로 154 ,061-374-6560  
제일회식당,RIBBON_ONE,35.013385,126.391683,전라남도 무안군 망운면 망운로 13 ,061-452-1139  
진일기사식당,RIBBON_ONE,35.011071,127.383946,전라남도 순천시 승주읍 선암사길 48 ,061-754-5320  
산골산장어,RIBBON_ONE,34.733211,127.723041,전라남도 여수시 봉산1로 24 ,061-642-3455  
구백식당,RIBBON_ONE,34.738732,127.732013,전라남도 여수시 여객선터미널길 18 ,061-662-0900  
석곡식당,RIBBON_ONE,35.132314,127.253845,전라남도 곡성군 석곡면 석곡로 60 ,061-362-3133  
벌교식당,RIBBON_ONE,35.004711,127.265605,전라남도 순천시 송광면 송광사안길 125 ,061-755-2305  
당골식당,RIBBON_ONE,35.314093,127.486971,전라남도 구례군 산동면 당골길 86-31 ,061-783-1689  
중화루,RIBBON_ONE,34.7897627716091,126.384818976195,전라남도 목포시 영산로75번길 6 ,061-244-6525  
둥지식당,RIBBON_ONE,34.6413434221397,126.770148238551,전라남도 강진군 강진읍 보은로3길 48-3 ,061-433-2080  
일일레져타운,RIBBON_ONE,34.998772,127.18726,전라남도 순천시 송광면 월산길 400 ,061-755-4545  
인동주마을,RIBBON_ONE,34.803909,126.436743,전라남도 목포시 복산길12번길 5 ,061-284-4068  
금성가든,RIBBON_ONE,34.9894365985048,127.355025891728,전라남도 순천시 승주읍 선암사길 358 ,061-754-6060  
옛날진미국수,NOT,35.3241786196066,126.983716879334,전라남도 담양군 담양읍 객사3길 26 ,061-382-0984  
석란,NOT,35.064478,126.984058,전라남도 화순군 화순읍 교동길 20 ,061-375-5333  
송죽정,NOT,35.310606193599,126.980556150292,전라남도 담양군 담양읍 죽향대로 1171 ,061-381-3291  
파인와플,NOT,34.9324351589841,127.552546422683,전라남도 순천시 해룡면 향매로 124 103호,061-721-1028  
숙이네식당,NOT,34.987315257204,126.477164051801,전라남도 무안군 무안읍 성남1길 172 ,061-452-9857  
담빛예술창고,NOT,35.3233346109027,126.99315928415,전라남도 담양군 담양읍 객사7길 75 ,061-383-8240  
목월빵집,NOT,35.214832272915,127.465910915213,전라남도 구례군 구례읍 서시천로 85 ,061-781-1477  
어성장어센타,NOT,34.5255289794736,126.556108096614,전라남도 해남군 삼산면 해남화산로 464 ,061-534-4944  
언덕에바람,NOT,34.594862,127.755735,전라남도 여수시 돌산읍 돌산로 717 ,061-643-6338  
역전식당,NOT,34.84272686403975,127.34431965070299,전라남도 보성군 벌교읍 계성1길 3-1 ,061-857-2073  
옥천횟집,NOT,34.4841815984293,126.265413934466,전라남도 진도군 진도읍 성동길 9 ,061-543-5664  
용궁산장,NOT,35.189688,127.373092,전라남도 곡성군 죽곡면 대황강로 1598-17 ,061-362-8346  
소문난갈비탕,NOT,34.77972818743272,127.3330976811831,전라남도 고흥군 동강면 고흥로 4259 ,061-833-2052  
일번지식당,NOT,35.359779,126.447167,전라남도 영광군 법성면 굴비로 37 ,061-356-2268  
사평다슬기수제비,NOT,35.052188,126.981235,전라남도 화순군 화순읍 서양로 79 ,061-372-6004  
전주식당,NOT,34.495746,126.617202,전라남도 해남군 삼산면 대흥사길 170 ,061-532-7696  
평화식당,NOT,35.209924,127.463506,전라남도 구례군 구례읍 북교길 12 ,061-782-2034  
양와당,NOT,34.9472505740057,127.51357919503,전라남도 순천시 구암1길 11-3 ,061-745-2345  
행낭횟집,NOT,34.6686204195499,127.084186535127,전라남도 보성군 회천면 남부관광로 2285-18 ,061-852-8072  
향림낙지한마당,NOT,34.98789,126.477485,전라남도 무안군 무안읍 뻘낙지길 34 ,061-453-2055  
흥덕식당,NOT,34.944686,127.500973,전라남도 순천시 역전광장3길 21 ,061-744-9208  
돌섬선어,NOT,34.7614500391767,127.6711022792,전라남도 여수시 신기남4길 18 ,061-681-2947  
명동게장,NOT,34.7329194004045,127.721924666936,전라남도 여수시 봉산남4길 23-26 ,010-3621-0593  
도반,NOT,34.639145158068,126.773555426022,전라남도 강진군 강진읍 오감길 2 누리타운 3동,061-432-6665
라피끄,NOT,34.6951459330053,127.777275070026,전라남도 여수시 돌산읍 무술목길 142-1 ,061-924-1004  
프롬나드,NOT,34.718852411375,127.745016291104,전라남도 여수시 돌산읍 우두3길 98 ,061-641-1248  
헤일로로스터스,NOT,35.0215907762251,126.793712219899,전라남도 나주시 빛가람로 747 108호,061-334-8444  
모리,NOT,34.9318214247585,127.698973914709,전라남도 광양시 길호5길 2 1층,061-792-8009  
인마치,NOT,35.0611599999833,127.736691215187,전라남도 광양시 다압면 원동길 70-18 ,061-772-8622  
선창횟집,NOT,34.784137,126.381371,전라남도 목포시 만호로 6-1 ,061-244-3708  
진미꽃게탕,NOT,34.7604809972956,127.660194061737,전라남도 여수시 시청서1길 8-12 ,061-684-1747  
동아식당,NOT,35.209028,127.468359,전라남도 구례군 구례읍 봉동길 4-5 ,061-782-5474  
돌산식당,NOT,34.739531,127.734776,전라남도 여수시 교동남2길 13 ,061-662-3037  
부부식당,NOT,35.20889596829513,127.46362730079208,전라남도 구례군 구례읍 구례2길 30 ,061-782-9113  
수구레국밥,NOT,35.21015099807278,127.47007887907546,전라남도 구례군 구례읍 5일시장작은길 20 ,061-783-2228  
명인집,NOT,34.798874839353,126.422236137681,전라남도 목포시 하당로30번길 14 ,061-245-8808  
화성식육식당,NOT,35.0628217153379,126.984910710671,전라남도 화순군 화순읍 칠충로 162 ,061-374-2806  
수궁한정식,NOT,34.751375,126.411321,전라남도 영암군 삼호읍 용당로 80-1 ,061-464-9652  
조일식당,NOT,34.7510408577713,127.701370010372,전라남도 여수시 여문문화1길 65 ,061-655-0774  
원조대나무국수,NOT,35.3240102154559,126.983460883151,전라남도 담양군 담양읍 객사2길 15-69 ,061-383-6445  
나루터,NOT,35.188026,127.394301,전라남도 곡성군 죽곡면 하한길 3 ,061-362-5030  
명희네음식점,NOT,34.674885,126.902615,전라남도 장흥군 장흥읍 토요시장2길 3-6 ,061-862-3369  
가든산장,NOT,35.19191,127.376,전라남도 곡성군 죽곡면 섬진강로 1015 ,061-362-8343  
청운식당,NOT,35.320950352140855,126.98152430796627,전라남도 담양군 담양읍 담주1길 7 ,061-381-2436  
풍미통닭,NOT,34.9464318917125,127.490962746295,전라남도 순천시 성남뒷길 3 태광대리점 1층,061-744-7041  
명신식당,NOT,34.7860313308185,126.383052022388,전라남도 목포시 영산로40번길 10 ,061-244-0479  
원조창평시장국밥,NOT,35.2381068074411,127.014906791871,전라남도 담양군 창평면 사동길 14-25 ,061-383-4424  
삼일식당,NOT,35.062964,126.983257,전라남도 화순군 화순읍 자치샘로 15-7 ,061-373-3311  
능주삼거리식당,NOT,34.98596008425404,126.96052298487959,전라남도 화순군 능주면 죽수길 25 ,061-372-1376  
청송횟집,NOT,34.481163,126.939678,전라남도 장흥군 회진면 회진중앙길 16 ,061-867-6245  
봉성식당,NOT,35.2089774430763,127.46866255061,전라남도 구례군 구례읍 봉동길 8-9 ,061-782-7262  
곰집갈비,NOT,34.793291,126.38455,전라남도 목포시 호남로58번길 14 ,061-244-1567  
청강다슬기,NOT,34.9528375138179,127.52062594451,전라남도 순천시 연향상가4길 7 ,061-724-0078  
대지회관,NOT,35.004493,126.709018,전라남도 나주시 삼영2길 9 ,061-332-5353  
하늘아래,NOT,35.069738,127.02172,전라남도 화순군 동면 건덕길 75 ,061-373-9229  
함남면옥,NOT,34.740104,127.736521,전라남도 여수시 중앙1길 8 ,061-662-2581  
뚱보횟집,NOT,34.78794,126.390526,전라남도 목포시 해안로 271 ,061-244-4508  
쑥꿀레,NOT,34.79177754615347,126.38308625976377,전라남도 목포시 영산로59번길 43-1 ,061-244-7912  
동락식당,NOT,34.799126480346956,126.69580874517143,전라남도 영암군 영암읍 서문로 10 ,061-473-2892  
진남식당,NOT,34.740744,127.736033,전라남도 여수시 통제영5길 10-6 ,061-663-6965  
원조꼬막식당,NOT,34.842186,127.343078,전라남도 보성군 벌교읍 채동선로 213 ,061-857-7675  
일억조횟집,NOT,34.751661,127.700659,전라남도 여수시 문수로 40 ,061-651-7933  
시내식당,NOT,34.968775,127.580148,전라남도 광양시 광양읍 서천1길 38 ,061-763-0360  
장원회관,NOT,34.97580955309495,127.5851575607965,전라남도 광양시 광양읍 매천로 821-5 ,061-761-6006  
홍어1번지,NOT,34.999702,126.710503,전라남도 나주시 영산3길 2-1 ,061-332-7444  
장안식당,NOT,35.06090204127097,126.52454285193468,전라남도 함평군 함평읍 함평천우길 54 ,061-322-5723  
원앙식당,NOT,34.739632,127.733117,전라남도 여수시 교동남1길 6-7 ,061-664-5567  
등가게장,NOT,34.732742,127.71998,전라남도 여수시 봉산남4길 12 ,061-643-0332  
미림횟집,NOT,34.721883,127.72244,전라남도 여수시 대경도길 2 ,061-666-6677  
색동두부,NOT,35.0336417258347,126.907815278796,전라남도 화순군 도곡면 지강로 438 ,061-375-5066  
동백회관,NOT,34.743112,127.75012,전라남도 여수시 오동도로 74 ,061-664-1487  
한미르,NOT,34.788064,126.380557,전라남도 목포시 유달로 112 ,061-243-7227  
가락지,NOT,34.793123,126.38132,전라남도 목포시 수문로 45 ,061-244-1969  
광주가든,NOT,35.16168038395858,127.33946367052724,전라남도 곡성군 죽곡면 대황강로 1071 ,061-363-6700  
지도횟집,NOT,35.045248,126.204028,전라남도 신안군 지도읍 송도2길 47 ,061-275-7119  
창평전통안두부,NOT,35.230512,127.008324,전라남도 담양군 창평면 의병로 29 ,061-383-9288  
할머니옛날순대국밥집,NOT,35.102536249007166,127.42845342987738,전라남도 순천시 황전면 괴목길 21 ,061-754-0052  
원조탕탕이맛집,NOT,34.809985,126.377414,전라남도 목포시 원산중앙로 51 ,061-278-2358  
동서식당,NOT,34.7563714832078,127.716413380851,전라남도 여수시 장군산길 71 ,061-653-9251  
노래미식당,NOT,34.740078,127.73665,전라남도 여수시 중앙1길 10 ,061-662-3782  
길손식당,NOT,34.739889,127.733445,전라남도 여수시 중앙로 54 ,061-666-0046  
취락식당,NOT,34.679957,126.906889,전라남도 장흥군 장흥읍 물레방앗간길 36 ,061-863-2584  
만남가든,NOT,35.241437,127.486371,전라남도 구례군 마산면 한국통신로 8 ,061-782-9172  
정읍식당,NOT,35.425582,126.879224,전라남도 장성군 북하면 백양로 1112 ,061-392-7427  
영일복집,NOT,35.000705,126.71218,전라남도 나주시 영산3길 22 ,061-334-3596  
고향정가,NOT,34.907734,127.343582,전라남도 순천시 낙안면 삼일로 34 ,061-754-3419  
조계산보리밥집,NOT,34.985378,127.305759,전라남도 순천시 송광면 굴목재길 247 ,061-754-3756  
명궁관,NOT,34.949763,127.486257,전라남도 순천시 중앙2길 7 ,061-741-2020  
지리각식당,NOT,35.243439,127.488374,전라남도 구례군 마산면 화엄사로 381 ,061-782-2066  
여수당,NOT,34.7399016307552,127.735318517113,전라남도 여수시 중앙로 72 ,061-661-0222  
만호유달횟집,NOT,34.78615,126.384512,전라남도 목포시 번화로 46 ,061-242-8025  
석심횟집,NOT,34.806937,126.399332,전라남도 목포시 영산로307번길 16 ,061-279-6060  
포도원횟집,NOT,34.786318,126.384161,전라남도 목포시 번화로 41 ,061-245-3755  
정다운식당,NOT,34.7318848108027,127.722724404852,전라남도 여수시 봉산남8길 7 ,061-641-0744  
양미한옥가든,NOT,35.314468,127.486859,전라남도 구례군 산동면 당골길 110 ,061-783-7079  
자매식당,NOT,34.7252391470533,127.71281349136417,전라남도 여수시 어항단지로 21 ,061-641-3992  
목리장어센터,NOT,34.633795,126.780792,전라남도 강진군 강진읍 목리길 80 ,061-432-9292  
코롬방제과,NOT,34.789851685791895,126.38441612105967,전라남도 목포시 영산로75번길 7 ,061-244-0885  
금일홍어,NOT,34.999340242123814,126.71044058493779,전라남도 나주시 영산포로 202 ,061-334-0092  
하한산장,NOT,35.18800092914892,127.3938904721671,전라남도 곡성군 죽곡면 섬진강로 849 ,061-362-8473  
남창식당,NOT,35.1643551990656,127.4520499131,전라남도 순천시 황전면 섬진강로 228 ,061-782-3705  
순심원,NOT,34.739777,127.73447,전라남도 여수시 교동남1길 5-17 ,061-663-5482  
태동반점,NOT,34.7899992439615,126.383418768384,전라남도 목포시 마인계터로40번길 10-1 ,061-243-3351  
선경준치회집,NOT,34.780769,126.370844,전라남도 목포시 해안로57번길 2 ,061-242-5653  
동원식당,NOT,35.011855,126.392016,전라남도 무안군 망운면 압창길 6 ,061-452-0754  
미원횟집,NOT,34.31938,126.749063,전라남도 완도군 완도읍 해변공원로 65 ,061-554-2506  
먼바다전복,NOT,34.803361,126.36883,전라남도 목포시 죽교천로136번길 4 ,061-245-1150  
목포식당,NOT,35.064135,126.522817,전라남도 함평군 함평읍 시장길 32 ,061-322-2764  
화랑식당,NOT,35.064398,126.523356,전라남도 함평군 함평읍 시장길 96 ,061-323-6677  
벌교우렁집,NOT,34.851167,127.335948,전라남도 보성군 벌교읍 채동선로 367 ,061-857-7613  
옥정한정식,NOT,34.797159,126.427051,전라남도 목포시 미항로 8 ,061-243-0012  
경포대산장,NOT,34.746333,126.709255,전라남도 강진군 성전면 백운로 148-8 ,061-432-5767  
수인관,NOT,34.7143,126.815759,전라남도 강진군 병영면 병영성로 107-10 ,061-432-1027  
신흥장어,NOT,35.006693,126.672693,전라남도 나주시 다시면 구진포로 58 ,061-335-9109  
보성양탕,NOT,34.768222,127.081553,전라남도 보성군 보성읍 신일길 13-5 ,061-852-2412  
강변장어,NOT,34.892607,127.508957,전라남도 순천시 순천만길 436 ,061-742-4233  
바다동산,NOT,34.299316,126.527391,전라남도 해남군 송지면 땅끝마을길 52 ,061-532-3004  
바다횟집,NOT,34.6849459051191,125.444685666001,전라남도 신안군 흑산면 예리1길 64 ,061-275-5152  
용궁해물탕,NOT,34.569077,126.60097,전라남도 해남군 해남읍 행운길 7 ,061-535-5161  
일성식당,NOT,34.59133629556561,127.41260524853672,전라남도 고흥군 영남면 팔영로 629 ,061-834-7016  
한일관,NOT,34.73265459690177,127.72584848119612,전라남도 여수시 봉산2로 32 ,061-654-0091  
문정한정식,NOT,35.274941,126.51367,전라남도 영광군 영광읍 중앙로5길 16-10 ,061-352-5450  
수복식당,NOT,34.77042,127.080435,전라남도 보성군 보성읍 중앙로 102-1 ,061-853-3032  
사랑채,NOT,35.033747,126.714279,전라남도 나주시 금남길 61 ,061-333-0116  
엄지빈,NOT,35.066173,126.987643,전라남도 화순군 화순읍 진각로 168 ,061-374-9193  
수미한,NOT_RECORD,35.0603549826939,126.524261662832,전라남도 함평군 함평읍 중앙길 8 주식회사수미한,061-324-8688
황소식당,NOT_RECORD,34.7341505888393,127.72010254112,전라남도 여수시 봉산남3길 2 ,061-642-8037
종가집굴비정식 설궁,NOT_RECORD,35.2735579293132,126.500679795691,전라남도 영광군 영광읍 천년로11길 14 ,061-351-8585
중경삼림,NOT_RECORD,34.955118983407,127.519216668148,전라남도 순천시 남신월1길 8-6 1층 ,010-7338-5040
순천드림떡,NOT_RECORD,34.960217940948,127.526159096374,전라남도 순천시 태봉길 41 드림프라자 107호,061-723-5070
몽떼,NOT_RECORD,35.2730866320671,126.511835188608,전라남도 영광군 영광읍 중앙로 157-1 1층,061-945-9950
동동해,NOT_RECORD,34.7454841458573,127.654114386472,전라남도 여수시 소호로 486 ,061-683-1322
최선비,NOT_RECORD,34.7642300836808,127.638132146469,전라남도 여수시 소라면 죽림3길 5-14 ,010-4621-0787
땅끝정인숙칼국수,NOT_RECORD,34.4160315272218,126.591730859262,전라남도 해남군 현산면 현산북평로 805 ,061-532-8448
지노한우노블,NOT_RECORD,34.7572016584046,127.657988819827,전라남도 여수시 시청서3길 25-8 ,061-921-9285
단군신화,NOT_RECORD,34.7401796381376,127.649657754916,전라남도 여수시 소호6길 7-5 ,0619227222
남도예담,NOT_RECORD,35.3352842344125,126.9620409299,전라남도 담양군 월산면 담장로 143 남도예담,0507-1437-7768
제이몬스터베이커리카페,NOT_RECORD,34.9283108343677,127.551628097481,전라남도 순천시 해룡면 매안2길 15-9 맑음빌라1층 제이몬스터 베이커리카페,010-9788-1186
마음한끼,NOT_RECORD,35.3762277609286,126.765035926852,전라남도 장성군 서삼면 축령로 917 ,0507-1328-8045
흙이야기,NOT_RECORD,34.7482239967819,126.415333635575,전라남도 영암군 삼호읍 용당로 34 ,0507-1478-3540
강남가든,NOT_RECORD,35.2438238595842,127.48165708072,전라남도 구례군 마산면 한국통신로 57 ,061-782-7644
고향맛식당,NOT_RECORD,35.1430882479054,126.430849930764,전라남도 함평군 손불면 손불중앙길 76-18 ,061-323-5060
꽃무지야생화촌,NOT_RECORD,34.9856245105293,126.748832237278,전라남도 나주시 태신길 1 ,061-336-8745
당치민박산장,NOT_RECORD,35.2576899435881,127.599970020242,전라남도 구례군 토지면 당치길 145 ,061-782-7949
나나네집,NOT_RECORD,34.8040460916705,126.393219314702,전라남도 목포시 동부로11번길 17-2 ,061-277-5308
돌산황금게장,NOT_RECORD,34.720399701256,127.758318759106,전라남도 여수시 돌산읍 돌산로 3396 ,061-644-3939
민주네 생선구이,NOT_RECORD,35.0199738755564,126.791387159842,전라남도 나주시 배멧1길 40 창우빌딩 105호 ,061-332-9232
꽃피는 무화가,NOT_RECORD,34.8412387256296,126.352184600457,전라남도 신안군 압해읍 압해로 393-2 ,061-271-5552
역전나그네,NOT_RECORD,34.9455502391673,127.517142433598,전라남도 순천시 연향번영3길 9 ,061-744-9943
보자기 ,NOT_RECORD,35.2486619396778,126.880347649301,전라남도 담양군 대전면 신룡길 73 ,061-382-5525
웰빙옛날팥죽,NOT_RECORD,34.9513334531999,127.48638221869,전라남도 순천시 장명2길 3 ,061-723-2733
명가은,NOT_RECORD,35.1767493318838,127.019758937419,전라남도 담양군 가사문학면 반석길 48-8 ,061-382-3513
대풍마차,NOT_RECORD,34.7458208207652,127.652534564089,전라남도 여수시 소호4길 10-1 대풍마차,061-681-7295
달빛뜨락,NOT_RECORD,35.2687045173268,126.941256581248,전라남도 담양군 봉산면 한수동로 155 ,061-382-2355
늘푸른흑염소가든,NOT_RECORD,34.8287909695175,127.074307989816,전라남도 보성군 노동면 예재로 397 ,061-853-0206
소망식당,NOT_RECORD,34.5761950770131,126.594533875173,전라남도 해남군 해남읍 구교2길 2 ,061-533-3456
능소화,NOT_RECORD,34.7870435261571,126.381119893653,전라남도 목포시 영산로 19-1 ,061-244-4198
금성대중음식점,NOT_RECORD,35.059139,126.983294,전라남도 화순군 화순읍 시장길 40 ,061-374-4365
불란서식당,NOT_RECORD,34.8074518726895,126.466429583606,전라남도 무안군 삼향읍 남악4로34번길 6 에드가채움 주상복합 아파트 1층 121호,0507-1383-980
만선식당 ,NOT_RECORD,34.781092079721,126.379337124435,전라남도 목포시 서산로 2 ,061-244-3621
옛날시골밥상,NOT_RECORD,34.8472524804914,126.494113916572,전라남도 무안군 일로읍 시장길 17-10 ,061-282-7777
송원숯불갈비,NOT_RECORD,34.986284,126.962921,전라남도 화순군 능주면 학포로 1894 ,061-373-9165
담양초벌소갈비전문점,NOT_RECORD,35.2220768753205,126.973599981357,전라남도 담양군 고서면 창평현로 190 ,061-383-2022
안골정꼬리곰탕,NOT_RECORD,34.786625,126.384373,전라남도 목포시 번화로 41-5 ,061-242-6985
초가네장어구이,NOT_RECORD,34.8006354743562,126.431698817513,전라남도 목포시 하당남부로 70 ,061-283-4225
베이커스모먼트,NOT_RECORD,34.8112006950744,126.464889552154,전라남도 무안군 삼향읍 대죽동로16번길 21 협승프라자 102호,010-2299-9779
언베일커피스탠드,NOT_RECORD,34.9338216630819,127.552069856596,전라남도 순천시 해룡면 신대4길 4-25 베다내과 1층 102호,061-727-1972
노다웃오리지널리티,NOT_RECORD,34.7503341201926,127.681951897687,전라남도 여수시 웅천3길 7-3 1층,010-8506-2846
향토정,NOT_RECORD,34.9574861340511,127.520343746368,전라남도 순천시 남신월4길 13-26 ,061-726-6692
와플랑(목포하당점),NOT_RECORD,34.7949790359265,126.430236487625,전라남도 목포시 평화로 44 ,061-287-4107
힐론다이닝,NOT_RECORD,34.7501591340169,127.650721946674,전라남도 여수시 안산1길 62 힐론,061-692-0725
다락카레호수공원점,NOT_RECORD,34.968270565322,127.52494991193,전라남도 순천시 왕지4길 14-9 반석빌딩,061-725-0221
비스트로로지,NOT_RECORD,34.7939126301661,126.379299638067,전라남도 목포시 차범석길35번길 21 2층,061-984-1023
헤일로로스터스2nd,NOT_RECORD,35.0234718926304,126.787307042824,"전라남도 나주시 우정로 72 더클래스빌딩 139, 140, 141호",070-4101-8444
순천갈대장어(연향점),NOT_RECORD,34.9434980125917,127.516202148449,전라남도 순천시 연향번영1길 23 순천갈대장어,061-741-9595
순천갈대장어(신대점),NOT_RECORD,34.9331430159096,127.554425214913,전라남도 순천시 해룡면 향매1길 4-23 ,061-725-9595
족발이땡기는날(수정점),NOT_RECORD,34.9342694303436,127.495258697487,전라남도 순천시 오천6길 27-10 족발이땡기는날 수정점 ,061-745-0009
어텐션플리즈,NOT_RECORD,35.3708705285619,127.019616642949,전라남도 담양군 금성면 금성산성길 271 ,061-383-8636
엠케이알,NOT_RECORD,34.5256702381235,127.135748595358,전라남도 고흥군 도양읍 비봉로 177 ,061-843-0023
카페인평광,NOT_RECORD,34.7966098289916,126.430733818903,전라남도 목포시 원형서로 46-1 ,061-287-5410
루몽드917,NOT_RECORD,35.4348504077344,126.801791804324,전라남도 장성군 북이면 방장로 917-34 ,061-392-0580
석정가든,NOT_RECORD,34.733551,126.718867,전라남도 강진군 성전면 사문로 21-39 ,061-433-3334
청광도예원,NOT_RECORD,34.724229,127.088827,전라남도 보성군 보성읍 사동길 52-11 ,061-853-4125
향토음식점,NOT_RECORD,34.906544,127.340839,전라남도 순천시 낙안면 충민길 39 ,061-754-6912
할매맛집,NOT_RECORD,34.508717,127.768627,전라남도 여수시 남면 금오로 874 ,061-666-6933
키친205,NOT_RECORD,35.0612145004039,126.524439748166,전라남도 함평군 함평읍 함평천우길 52 ,061-322-9898
월오황토가,NOT_RECORD,34.743084,126.713882,전라남도 강진군 성전면 월남3길 96 ,061-434-6878
케이키,NOT_RECORD,34.7850261763025,127.692354040876,전라남도 여수시 좌수영로 682-26 신동아아파트상가 105호 케이키,0507-1355-7190
전주식당,NOT_RECORD,35.066139,126.519059,전라남도 함평군 함평읍 신기산길 22 ,061-322-2342
굴비랑낙지랑,NOT_RECORD,34.988339,126.47802,전라남도 무안군 무안읍 무안중앙로 7-1 ,061-453-5805
포두식당,NOT_RECORD,34.571752662609,127.34038707139408,전라남도 고흥군 포두면 후동2길 4 ,061-834-5555
문화횟집,NOT_RECORD,34.731888,127.73792,전라남도 여수시 돌산읍 진두해안길 16 ,061-644-8889
별스넥,NOT_RECORD,34.8008470565233,126.430855275189,전라남도 목포시 옥암로 11 ,061-283-8114
팥죽이야기,NOT_RECORD,34.6083569397953,127.286600492596,전라남도 고흥군 고흥읍 시장길 1 고흥전통시장 A동 14호,0507-1498-8254
순광식당,NOT_RECORD,34.952008,127.487301,전라남도 순천시 중앙5길 31 ,061-745-6331
소신2020,NOT_RECORD,34.5264364731259,127.135342371401,전라남도 고흥군 도양읍 비봉로 167 ,070-8095-1279
시장식당,NOT_RECORD,34.570598,126.598972,전라남도 해남군 해남읍 읍내길 10-7 ,061-536-3812
일품매우(순천점),NOT_RECORD,34.947062,127.52554,전라남도 순천시 대석3길 3-26 ,061-724-5455
남도일번지횟집,NOT_RECORD,34.449111,126.82165,전라남도 강진군 마량면 미항로 179-1 ,061-432-2617
해돋이횟집,NOT_RECORD,34.669867,127.085975,전라남도 보성군 회천면 남부관광로 2313 ,061-852-6790
백야식당,NOT_RECORD,34.829108,127.152407,전라남도 보성군 겸백면 충의로 2472 ,061-853-1030
제주갈치고등어전문점,NOT_RECORD,34.947048,127.526552,전라남도 순천시 대석3길 36 ,061-722-2767
용전갈치,NOT_RECORD,34.948513,127.513146,전라남도 순천시 덕연로 64 ,061-742-1045
정락회관,NOT_RECORD,34.948371,127.48974,전라남도 순천시 장천2길 7 ,061-744-6369
산수정,NOT_RECORD,35.068846,127.503296,전라남도 순천시 서면 청소길 442 ,061-755-9933
효동회관,NOT_RECORD,34.949318,127.490076,전라남도 순천시 장천2길 20-14 ,061-745-5559
호남식당,NOT_RECORD,34.951258,127.486487,전라남도 순천시 장명2길 3 ,061-742-5649
삼나무숲길따라,NOT_RECORD,34.77264,127.080917,전라남도 보성군 보성읍 녹차로 763-43 ,061-853-4422
장수회타운,NOT_RECORD,34.449075,126.820862,전라남도 강진군 마량면 미항로 171 ,061-433-8959
정든횟집,NOT_RECORD,34.449077,126.823369,전라남도 강진군 마량면 미항로 193-3 ,061-432-0606
다성촌,NOT_RECORD,34.837095,127.329739,전라남도 보성군 벌교읍 녹색로 5380 ,061-857-1503
다산정,NOT_RECORD,34.589705,126.769794,전라남도 강진군 도암면 다산로 527-10 ,061-434-9123
두무포산장,NOT_RECORD,34.836369,127.411744,전라남도 보성군 벌교읍 장호길 697-9 ,061-857-5353
만리회관,NOT_RECORD,34.670417,127.086763,전라남도 보성군 회천면 우암길 4 ,061-852-8025
푸른바다횟집,NOT_RECORD,34.650027,127.058777,전라남도 보성군 회천면 남부관광로 1814-11 ,061-853-2225
향미림,NOT_RECORD,35.27637,126.500219,전라남도 영광군 영광읍 천년로12길 44 ,061-353-8189
여수회관,NOT_RECORD,35.276794,126.511222,전라남도 영광군 영광읍 물무로2길 47 ,061-351-0510
고목나무,NOT_RECORD,35.24207,126.501832,전라남도 영광군 군서면 함영로6길 21 ,061-352-3089
복화정,NOT_RECORD,35.394746,126.444728,전라남도 영광군 홍농읍 상하길2길 4 ,061-356-7707
안악칠산횟집,NOT_RECORD,35.139231,126.390964,전라남도 함평군 손불면 안악길 132 ,061-324-0105
남매식당,NOT_RECORD,35.064881,126.517273,전라남도 함평군 함평읍 중앙길 187 ,061-322-2430
장군초밥,NOT_RECORD,34.951224,127.521453,전라남도 순천시 연향상가1길 3 ,061-753-7448
국일설렁탕,NOT_RECORD,34.949282,127.515058,전라남도 순천시 충효로 117 ,061-745-7800
녹동해물탕,NOT_RECORD,34.948229,127.52357,전라남도 순천시 기적의도서관길 9 ,061-722-2920
석암정돌솥밥,NOT_RECORD,34.946217,127.525116,전라남도 순천시 하대석길 42 ,061-723-5656
순천만가든,NOT_RECORD,34.892562,127.509585,전라남도 순천시 순천만길 576 ,061-741-4489
광신식당,NOT_RECORD,35.004978,127.265405,전라남도 순천시 송광면 송광사안길 127 ,061-755-2555
향토추어탕,NOT_RECORD,34.940085,127.503614,전라남도 순천시 하풍동길 62 ,061-742-3959
도미초밥,NOT_RECORD,34.95517,127.485037,전라남도 순천시 연자로 7-2 ,061-755-0005
명가촌,NOT_RECORD,34.948378,127.517411,전라남도 순천시 연향2로 17-10 ,061-724-1501
민속잔치집,NOT_RECORD,34.906515,127.340782,전라남도 순천시 낙안면 충민길 39 ,061-754-6589
녹수식당,NOT_RECORD,34.909552,127.339043,전라남도 순천시 낙안면 읍성로 406 ,061-754-6504
동문고향집,NOT_RECORD,34.906261,127.341851,전라남도 순천시 낙안면 충민길 30 ,061-754-2550
송광사식당,NOT_RECORD,35.004489,127.265806,전라남도 순천시 송광면 송광사안길 123 ,061-755-2213
용당골,NOT_RECORD,34.804286,126.396835,전라남도 목포시 영산로282번길 2 ,061-272-5673
원조수라상꼬막정식,NOT_RECORD,34.846814,127.34365,전라남도 보성군 벌교읍 채동선로 278-1 ,061-858-0505
선비촌,NOT_RECORD,34.905874,127.343284,전라남도 순천시 낙안면 삼일로 51 ,061-754-2525
어우림,NOT_RECORD,34.977843,127.466107,전라남도 순천시 조비1길 7-1 ,061-752-3480
통만두집,NOT_RECORD,34.741088,127.735305,전라남도 여수시 통제영4길 12 ,061-664-1060
대양회관,NOT_RECORD,34.793564,126.680465,전라남도 영암군 영암읍 영암로 1372 ,061-473-6565
우리밀해물칼국수,NOT_RECORD,34.886991,127.507672,전라남도 순천시 순천만길 502 ,061-741-1465
동경일식,NOT_RECORD,34.8103,126.455894,전라남도 목포시 남악2로 60-8 ,061-283-2644
젬마수산,NOT_RECORD,34.685163,125.44375,전라남도 신안군 흑산면 예리1길 48-1 ,061-275-9350
경운횟집,NOT_RECORD,34.84318,127.346269,전라남도 보성군 벌교읍 시장2길 10-19 ,061-858-1333
해제수산,NOT_RECORD,34.988109,126.477834,전라남도 무안군 무안읍 뻘낙지길 31-1 ,061-453-2449
순천만갈대밭식당,NOT_RECORD,34.887763,127.508683,전라남도 순천시 순천만길 656 ,061-741-0727
한재골하얀집,NOT_RECORD,35.285374,126.888298,전라남도 담양군 대전면 방축동길 4 ,061-381-5282
선미식당,NOT_RECORD,35.009605,126.516808,전라남도 함평군 엄다면 엄다길 62 ,061-322-7013
88포장마차,NOT_RECORD,34.806223,126.401249,전라남도 목포시 영산로329번길 3-1 ,061-276-8248
유달아구탕찜,NOT_RECORD,34.78364,126.38503,전라남도 목포시 해안로 201 성진드림상가 1층,061-242-1535
순천만일번가,NOT_RECORD,34.887396,127.508464,전라남도 순천시 순천만길 520 ,061-745-2100
떡보브라더스,NOT_RECORD,35.057127,126.974468,전라남도 화순군 화순읍 화보로 4135 ,061-371-4546
작은어촌,NOT_RECORD,34.754986,127.702432,전라남도 여수시 문수4길 14-13 ,061-653-9500
정문회관,NOT_RECORD,34.991014,127.349282,전라남도 순천시 승주읍 선암사길 385 ,061-754-6161
평양냉면,NOT_RECORD,34.8026092747602,126.394360666178,전라남도 목포시 산정로152번길 12 ,061-276-5865
우리국수우리팥죽,NOT_RECORD,35.027734,127.033457,전라남도 화순군 동면 충의로 699 ,061-373-8685
송이식당,NOT_RECORD,35.232419,127.487902,전라남도 구례군 마산면 화엄사로 255 ,061-782-9268
우리식당,NOT_RECORD,34.547073,126.728204,전라남도 강진군 도암면 도암중앙로 81 ,061-432-0027
쉼터식당,NOT_RECORD,34.792108,126.404435,전라남도 목포시 자유로134번길 13 ,061-242-5665
벽오동,NOT_RECORD,34.9203818936164,127.481880865362,전라남도 순천시 상사호길 73 ,061-743-5569
수로산장,NOT_RECORD,34.979208,127.385683,전라남도 순천시 승주읍 기룡길 5 ,061-754-5362
선암식당,NOT_RECORD,34.991842545165014,127.34413678607898,전라남도 순천시 승주읍 승암교길 6 ,061-754-5232
초원식당,NOT_RECORD,34.992268,127.34345,전라남도 순천시 승주읍 승암교길 14 ,061-754-5811
남흥회관,NOT_RECORD,34.951268,127.486756,전라남도 순천시 장명2길 4 ,061-744-9736
한옥정,NOT_RECORD,35.143773,126.431612,전라남도 함평군 손불면 손불중앙길 92 ,061-323-7716
골목식당,NOT_RECORD,35.361618,126.444939,전라남도 영광군 법성면 굴비로 9-2 ,061-356-4270
윤해명식당   ,NOT_RECORD,34.767895,127.083093,전라남도 보성군 보성읍 중앙로 61-12 ,061-852-1339
괴목국밥,NOT_RECORD,34.958849,127.485187,전라남도 순천시 북문길 40 ,061-753-4124
중앙횟집,NOT_RECORD,34.786131,126.384379,전라남도 목포시 번화로 44-1 ,061-242-5040
나주곰탕한옥집,NOT_RECORD,35.03216,126.71707,전라남도 나주시 금성관길 6 ,061-334-0707
알선식당,NOT_RECORD,34.944829,127.501153,전라남도 순천시 역전광장3길 22 ,061-744-7103
푸른산장,NOT_RECORD,35.069851,127.615022,전라남도 광양시 옥룡면 신재로 1317 ,061-762-0033
통뼈연가,NOT_RECORD,34.9403270612399,127.505936168451,전라남도 순천시 하풍동길 27 ,061-746-2223
중원회관,NOT_RECORD,34.799355629919525,126.69660780819846,전라남도 영암군 영암읍 군청로 2-13 ,061-473-6700
신라복집,NOT_RECORD,34.678135,126.909437,전라남도 장흥군 장흥읍 건산로 15 ,061-862-4646
진미복집,NOT_RECORD,35.018709,126.537328,전라남도 함평군 학교면 학다리길 336-23 ,061-322-3412
옥산식당,NOT_RECORD,35.2019473450077,127.527391175149,전라남도 구례군 토지면 단산안길 50 ,061-781-2431
길상식당(선암사점),NOT_RECORD,34.991943,127.343764,전라남도 순천시 승주읍 승암교길 8 ,061-754-5599
곰솔가든,NOT_RECORD,35.01397,126.395761,전라남도 무안군 망운면 운해로 1447 ,061-452-1073
향우식당,NOT_RECORD,34.842957969281,127.352786456594,전라남도 보성군 벌교읍 신정길 4-41 ,061-857-0848
홍도회관,NOT_RECORD,34.8465205146098,127.347389391656,전라남도 보성군 벌교읍 회정새길 22-6 ,061-857-6259
흑산도횟집,NOT_RECORD,34.6703284585923,127.086242318716,전라남도 보성군 회천면 남부관광로 2319 ,061-852-8523
미력양탕집,NOT_RECORD,34.799943,127.087353,전라남도 보성군 미력면 예재로 2 ,061-852-4043
녹황우,NOT_RECORD,34.7688302643993,127.080360002879,전라남도 보성군 보성읍 신흥길 18-1 ,061-853-3336
중앙식당,NOT_RECORD,34.7691802797339,127.081990053668,전라남도 보성군 보성읍 신일길 2 ,061-852-2692
여자만장어구이,NOT_RECORD,34.8373214393593,127.341919289162,전라남도 보성군 벌교읍 채동선로 151 ,061-858-5092
국제식당,NOT_RECORD,35.3559426035771,126.448662689668,전라남도 영광군 법성면 굴비로 86 ,061-356-4243
거북횟집,NOT_RECORD,34.4498376279672,126.817479321111,전라남도 강진군 마량면 미항로 139-1 ,061-432-2154
금강산식당,NOT_RECORD,34.6398689979381,126.770127875533,전라남도 강진군 강진읍 영랑로4길 21 중앙상가,061-434-8833
태능갈비,NOT_RECORD,35.28246,126.500954,전라남도 영광군 영광읍 옥당로 234 ,061-353-3366
영광버섯매운탕,NOT_RECORD,35.2761475679764,126.503423032322,전라남도 영광군 영광읍 신남로 195 ,061-351-3679
해월축산회관,NOT_RECORD,35.1816720973093,126.604888289722,전라남도 함평군 해보면 해삼로 367 ,061-323-0684
몽돌해물탕,NOT_RECORD,34.956434,127.520548,전라남도 순천시 남신월길 35 ,061-721-5222
조계산보리밥집원조집,NOT_RECORD,34.98538595397,127.305672181687,전라남도 순천시 송광면 굴목재길 247 ,061-754-3756
그옛날산채식당,NOT_RECORD,35.238036,127.487709,전라남도 구례군 마산면 화엄사로 320 ,061-782-3223
제일낙지마당,NOT_RECORD,34.724746,126.56708,전라남도 영암군 학산면 독천로 162-1 ,061-472-3729
황우마을,NOT_RECORD,35.0290828990396,127.446685381961,전라남도 순천시 서면 순천로 607 ,061-755-1881
김순옥찹쌀도너츠,NOT_RECORD,35.312469,126.981998,전라남도 담양군 담양읍 죽향대로 1195 ,061-381-0352
예향,NOT_RECORD,34.638496,126.773459,전라남도 강진군 강진읍 보은로안길 32 오감누리타운,061-433-5777
백련산방,NOT_RECORD,35.2101515324277,127.470080529505,전라남도 구례군 구례읍 5일시장작은길 20 ,061-782-0405
섬이보인다,NOT_RECORD,34.6315862697947,127.030666847018,전라남도 장흥군 안양면 수문용곡로 128 ,061-862-8969
법성토우,NOT_RECORD,35.360499607465,126.444557439835,전라남도 영광군 법성면 법성포로3길 26-9 ,061-356-8424
경도풍경횟집,NOT_RECORD,34.717541,127.727649,전라남도 여수시 대경도4길 41 ,061-666-7766
오대감,NOT_RECORD,34.9527165060153,127.523634529977,전라남도 순천시 장선배기길 12 ,061-725-0268
북일기사식당,NOT_RECORD,34.4627714269509,126.672759437695,전라남도 해남군 북일면 백도로 783 ,061-535-2558
원조군산아구찜,NOT_RECORD,34.9591527991836,127.529722447788,전라남도 순천시 조례연동길 73 ,061-721-9555
명당만두,NOT_RECORD,34.5297018853635,127.136485034194,전라남도 고흥군 도양읍 남촌길 29 ,061-842-1570
청해나루,NOT_RECORD,34.3256907136145,126.749111428278,전라남도 완도군 완도읍 해변공원로124번길 17-1 ,061-552-0208
월남흑염소,NOT_RECORD,34.7348902110457,126.714809461923,전라남도 강진군 성전면 월남1길 7 ,061-432-6893
순천제일식당,NOT_RECORD,34.9586457824918,127.485034059992,전라남도 순천시 북문길 40 ,061-753-4655
삼기국밥,NOT_RECORD,35.28282220889431,127.29947316698578,전라남도 곡성군 곡성읍 읍내22길 9-1 ,061-363-0424
씨엘비베이커리,NOT_RECORD,34.79037861190712,126.38451709800991,전라남도 목포시 영산로75번길 14 ,061-242-2161
여진식당,NOT_RECORD,34.7632378280894,127.66671260982,전라남도 여수시 학동5길 2-2 ,061-685-7999
두메산골식당,NOT_RECORD,34.9716709803729,127.588053403597,전라남도 광양시 광양읍 읍성길 68 ,061-763-1381
황금성,NOT_RECORD,34.9420130418347,127.494100811381,전라남도 순천시 장평로 26-1 ,061-743-1159
