name,ribbonType,latitude,longitude,address,phone
대광식당,RIBBON_TWO,33.5072242643657,126.525812998066,제주특별자치도 제주시 중앙로23길 9 ,064-758-7768  
진미명가,RIBBON_TWO,33.228352,126.307705,제주특별자치도 서귀포시 안덕면 사계남로 167 ,064-794-3639  
향토음식유리네,RIBBON_TWO,33.481447,126.497123,제주특별자치도 제주시 연북로 146 ,064-748-0890  
오조해녀의집,RIBBON_TWO,33.469658,126.92239,제주특별자치도 서귀포시 성산읍 한도로 141-13 ,064-784-7789  
오설록,RIBBON_TWO,33.3059189405945,126.289374359219,제주특별자치도 서귀포시 안덕면 신화역사로 15 ,064-794-5312  
남경미락,RIBBON_TWO,33.230103,126.308753,제주특별자치도 서귀포시 안덕면 사계남로 190-7 ,064-794-0077  
비오토피아레스토랑,RIBBON_TWO,33.3014096689889,126.38810751849,제주특별자치도 서귀포시 안덕면 산록남로762번길 79 ,064-793-6030  
떼레노,RIBBON_TWO,33.2441693950141,126.405574367231,제주특별자치도 서귀포시 중문관광로72번길 100 파르나스 호텔 제주,070-8648-0671
포도호텔레스토랑,RIBBON_TWO,33.317944,126.387504,제주특별자치도 서귀포시 안덕면 산록남로 863 ,064-793-7030  
밀리우,RIBBON_TWO,33.323322,126.844501,제주특별자치도 서귀포시 표선면 민속해안로 537 해비치호텔앤드리조트 1층,064-780-8328  
더파크뷰,RIBBON_TWO,33.247558,126.408116,제주특별자치도 서귀포시 중문관광로72번길 75 신라호텔제주 3층,064-735-5334  
커피템플,RIBBON_TWO,33.47816384943728,126.57024606687517,제주특별자치도 제주시 영평길 269 ,070-8806-8051  
가스트로관수,RIBBON_ONE,33.5077235198634,126.542123053771,제주특별자치도 제주시 고마로15길 20 1층,064-755-4440  
에르미타주,RIBBON_ONE,33.2550685511515,126.505899154154,제주특별자치도 서귀포시 신서로52번길 3-8 ,0507-1366-1823  
호텔리어스커피,RIBBON_ONE,33.2558546223222,126.415472334394,제주특별자치도 서귀포시 중문관광로 23-1 아리아호텔 1층,064-738-8982
마마롱,RIBBON_ONE,33.4521567767768,126.439180967033,제주특별자치도 제주시 애월읍 평화로 2783 1층,064-747-1074  
만선식당,RIBBON_ONE,33.2178729065457,126.249794723487,제주특별자치도 서귀포시 대정읍 하모항구로 44 ,064-794-6300  
오래옥식당,RIBBON_ONE,33.4870322671012,126.492835864473,제주특별자치도 제주시 신대로16길 36 ,064-747-1356  
카페이면,RIBBON_ONE,33.3885916865167,126.22655462747,제주특별자치도 제주시 한림읍 금능5길 13 ,010-6302-8864  
우동카덴,RIBBON_ONE,33.4358380573487,126.67929567455,제주특별자치도 제주시 조천읍 교래3길 23 ,064-784-6262  
넘은봄,RIBBON_ONE,33.5579832476993,126.75128950923,제주특별자치도 제주시 구좌읍 김녕로1길 75-1 1층,070-8028-8743  
애월맛차,RIBBON_ONE,33.4713998561988,126.418695773401,제주특별자치도 제주시 애월읍 하광로 183 ,070-7740-2737  
풍로,RIBBON_ONE,33.3100748801007,126.332538342542,제주특별자치도 서귀포시 안덕면 신화역사로 423 2층,064-792-1108  
픽스커피,RIBBON_ONE,33.4914269747039,126.543938048804,제주특별자치도 제주시 신설로11길 2 ,064-902-9899  
레이어스베이크하우스,RIBBON_ONE,33.5149314383408,126.520780096661,제주특별자치도 제주시 무근성7길 25 1층,070-4240-6824  
르부이부이,RIBBON_ONE,33.51541197569133,126.5395325929007,제주특별자치도 제주시 사라봉7길 32 ,070-4187-4732  
봉플라봉뱅,RIBBON_ONE,33.4880113659418,126.497898657075,제주특별자치도 제주시 문송1길 6-1 정인하우스 1층,064-901-0411  
모노클제주,RIBBON_ONE,33.2728990726722,126.684536983306,제주특별자치도 서귀포시 남원읍 태위로360번길 30-8 ,070-7576-0360  
블레블랑제리,RIBBON_ONE,33.4747511448544,126.543715482949,제주특별자치도 제주시 아란5길 22 ,010-8865-3224  
구아우쇼콜라,RIBBON_ONE,33.5562535400722,126.746135885389,제주특별자치도 제주시 구좌읍 김녕항2길 14 ,0507-1401-4557  
바다다,RIBBON_ONE,33.2369212940733,126.436719215087,제주특별자치도 서귀포시 대포로 148-15 ,064-738-2882  
르토아 베이스먼트,RIBBON_ONE,33.5329793340193,126.844280173081,제주특별자치도 제주시 구좌읍 해맞이해안로 1226 ,070-4408-5525  
가시아방국수,RIBBON_ONE,33.4386303395708,126.918079816339,제주특별자치도 서귀포시 성산읍 섭지코지로 10 1층,064-783-0987  
릴로제주,RIBBON_ONE,33.4925905415696,126.895091470509,제주특별자치도 제주시 구좌읍 종달로 60-12 ,010-4420-4945  
제주국담,RIBBON_ONE,33.4885898164723,126.494701728453,제주특별자치도 제주시 신대로12길 17 ,064-749-7100  
롱플레이,RIBBON_ONE,33.553067949676,126.710940580576,제주특별자치도 제주시 구좌읍 동복로 44 ,070-4489-4004  
그린루스카,RIBBON_ONE,33.5053408704763,126.515221031512,제주특별자치도 제주시 서사로12길 45 ,없음  
팩파,RIBBON_ONE,33.5089889087524,126.521651586172,제주특별자치도 제주시 남성로 154-2 ,0507-1378-7725  
자매국수,RIBBON_ONE,33.4985789993217,126.459142607002,제주특별자치도 제주시 항골남길 46 ,064-727-1112  
컴플리트커피,RIBBON_ONE,33.478241,126.49136,제주특별자치도 제주시 국기로4길 1 ,070-4129-0315  
그러므로,RIBBON_ONE,33.487231,126.535371,제주특별자치도 제주시 구남동6길 45 1층,070-4548-2984  
올댓제주,RIBBON_ONE,33.516235,126.52844,제주특별자치도 제주시 중앙로1길 33 2층,064-901-7893  
곰막,RIBBON_ONE,33.5568777191667,126.720522540524,제주특별자치도 제주시 구좌읍 구좌해안로 64 ,064-727-5111  
스시호시카이,RIBBON_ONE,33.487826,126.51764,제주특별자치도 제주시 오남로 90 ,064-713-8838  
은희네해장국,RIBBON_ONE,33.5085320014821,126.540741186743,제주특별자치도 제주시 고마로13길 8 ,064-726-5622  
국수마당,RIBBON_ONE,33.508064,126.532253,제주특별자치도 제주시 삼성로 65 ,064-727-6001  
신우가촌,RIBBON_ONE,33.244479,126.522625,제주특별자치도 서귀포시 이어도로 1042 ,064-739-1854  
마라도횟집,RIBBON_ONE,33.486833,126.489554,제주특별자치도 제주시 신광로8길 3 ,064-746-2286  
밥이보약,RIBBON_ONE,33.487026,126.480553,제주특별자치도 제주시 도령로 11 ,064-744-7782  
공천포식당,RIBBON_ONE,33.266381,126.6427,제주특별자치도 서귀포시 남원읍 공천포로 89 ,064-767-2425  
대우정,RIBBON_ONE,33.4988947828616,126.519578083071,제주특별자치도 제주시 서사로 152 ,064-757-9662  
도라지식당,RIBBON_ONE,33.492778,126.505963,제주특별자치도 제주시 연삼로 128 ,064-722-3142  
돌하르방식당,RIBBON_ONE,33.51005,126.538796,제주특별자치도 제주시 신산로11길 53 ,064-752-7580  
섭지해녀의집,RIBBON_ONE,33.4345196505906,126.926028514975,제주특별자치도 서귀포시 성산읍 섭지코지로 93-15 아쿠아플래닛제주,064-782-0672  
신라원,RIBBON_ONE,33.2343665667281,126.511981496403,제주특별자치도 서귀포시 법환하로28번길 6 ,064-739-7920  
어진이네횟집,RIBBON_ONE,33.2410076748705,126.610914213519,제주특별자치도 서귀포시 보목포로 93 ,064-732-7442  
앞뱅디식당,RIBBON_ONE,33.4853183836848,126.499924103522,제주특별자치도 제주시 선덕로 32 ,064-744-7942  
덕승식당,RIBBON_ONE,33.219245,126.251344,제주특별자치도 서귀포시 대정읍 하모항구로 66 ,064-794-0177  
해오름식당,RIBBON_ONE,33.500359,126.472964,제주특별자치도 제주시 오일장서길 21 ,064-744-0367  
흑돈가,RIBBON_ONE,33.4800554245897,126.473495778004,제주특별자치도 제주시 한라대학로 11 ,064-747-0088  
곰해장국,RIBBON_ONE,33.489305,126.523301,제주특별자치도 제주시 복지로3길 1-4 ,064-744-8867  
광양해장국,RIBBON_ONE,33.499915,126.532681,제주특별자치도 제주시 광양13길 25 ,064-751-1777  
삼대국수회관,RIBBON_ONE,33.506925,126.53011,제주특별자치도 제주시 삼성로 41 ,064-759-6645  
모이세해장국,RIBBON_ONE,33.481795,126.505228,제주특별자치도 제주시 연북로 221 ,064-746-5128  
백선횟집,RIBBON_ONE,33.4990775638137,126.52489319987,제주특별자치도 제주시 도남로 10 ,064-751-0033  
부두식당,RIBBON_ONE,33.2188214636735,126.251031679557,제주특별자치도 서귀포시 대정읍 하모항구로 62 ,064-794-1223  
산지물식당,RIBBON_ONE,33.5162850086573,126.527472387247,제주특별자치도 제주시 임항로 26 ,064-752-5599  
산호전복,RIBBON_ONE,33.5180229179837,126.518645716694,제주특별자치도 제주시 탑동로 59 ,064-758-0123  
시흥해녀의집,RIBBON_ONE,33.477962,126.90844,제주특별자치도 서귀포시 성산읍 시흥하동로 114 ,064-782-9230  
어장군,RIBBON_ONE,33.490943605233,126.496185900658,제주특별자치도 제주시 신대로 72 현일센츄럴파크뷰 1층,064-744-2258  
도남오거리식당,RIBBON_ONE,33.496546,126.526161,제주특별자치도 제주시 도남로6길 16 ,064-722-4844  
중앙식당,RIBBON_ONE,33.2466971443416,126.334929405504,제주특별자치도 서귀포시 안덕면 화순로 108 ,064-794-9167  
나니아레스토랑,RIBBON_ONE,33.236906874789,126.372666735433,제주특별자치도 서귀포시 예래로 424 베이힐풀앤빌라,064-801-9078  
산방식당,RIBBON_ONE,33.2234752539049,126.254186719523,제주특별자치도 서귀포시 대정읍 하모이삼로 62 ,064-794-2165  
중문해녀의집,RIBBON_ONE,33.242504,126.419062,제주특별자치도 서귀포시 중문관광로 194 ,064-738-9557  
천지,RIBBON_ONE,33.247415,126.408113,제주특별자치도 서귀포시 중문관광로72번길 75 ,064-735-5342  
오르막가든,RIBBON_ONE,33.250158,126.433252,제주특별자치도 서귀포시 대포중앙로 12 ,064-738-7755  
성미가든,RIBBON_ONE,33.437705,126.676869,제주특별자치도 제주시 조천읍 교래1길 2 ,064-783-3279  
서귀포괸당네,RIBBON_ONE,33.2430676050881,126.567575944579,제주특별자치도 서귀포시 칠십리로 123 ,064-732-3757  
쌍둥이횟집,RIBBON_ONE,33.2466001158367,126.562910154724,제주특별자치도 서귀포시 중정로62번길 14 ,064-762-0478  
봉주르마담,RIBBON_ONE,33.252782,126.503451,제주특별자치도 서귀포시 대청로 33 오름빌딩1차,064-739-2900  
진주식당,RIBBON_ONE,33.246601,126.559163,제주특별자치도 서귀포시 태평로 353 ,064-762-5158  
서귀다원,RIBBON_ONE,33.312800682694,126.59667132986,제주특별자치도 서귀포시 516로 717 ,064-733-0632  
수희식당,RIBBON_ONE,33.245413,126.561332,제주특별자치도 서귀포시 태평로 377 ,064-762-0777  
보영반점,RIBBON_ONE,33.416576,126.265228,제주특별자치도 제주시 한림읍 한림로 692-1 ,064-796-2042  
옹포별장가든,RIBBON_ONE,33.4049604567374,126.257820958071,제주특별자치도 제주시 한림읍 한림상로 24 ,064-796-3146  
사형제횟집,RIBBON_ONE,33.422415,126.266399,제주특별자치도 제주시 한림읍 한림상로 273 ,064-796-8709  
연리지가든,RIBBON_ONE,33.3451359023538,126.202325769963,제주특별자치도 제주시 한경면 두조로 190-20 ,064-796-8700  
올래국수,RIBBON_ONE,33.4914993524063,126.497164033968,제주특별자치도 제주시 귀아랑길 24 ,064-742-7355  
동귀리갈칫집,RIBBON_ONE,33.4918433108774,126.472336779634,제주특별자치도 제주시 월랑로 83 ,064-743-3392  
삼성혈해물탕,RIBBON_ONE,33.4880042514984,126.499706378954,제주특별자치도 제주시 선덕로5길 20 ,064-745-3000  
연정식당,RIBBON_ONE,33.483772,126.486825,제주특별자치도 제주시 신광로10길 29 ,064-747-3959  
해녀촌,RIBBON_ONE,33.553665230496,126.70988954878,제주특별자치도 제주시 구좌읍 동복로 33 ,064-783-5438  
골목식당,RIBBON_ONE,33.5118229358576,126.525017285831,제주특별자치도 제주시 중앙로 63-9 ,064-757-4890  
미풍해장국,RIBBON_ONE,33.5112339525471,126.522842093978,제주특별자치도 제주시 중앙로14길 13 ,064-758-7522  
보건식당,RIBBON_ONE,33.50049,126.532784,제주특별자치도 제주시 동광로6길 19 ,064-753-9521  
어우늘,RIBBON_ONE,33.481053,126.504988,제주특별자치도 제주시 연북로 222 ,064-743-5131  
유빈,RIBBON_ONE,33.5180494497425,126.518977092821,제주특별자치도 제주시 탑동로 55 ,064-753-5218  
광명식당,RIBBON_ONE,33.512081,126.528339,제주특별자치도 제주시 동문로4길 9 동문공설시장,064-757-1872  
커피파인더,RIBBON_ONE,33.498577662748,126.528678753614,제주특별자치도 제주시 서광로32길 20 ,064-726-2689  
엘코테,RIBBON_ONE,33.4943580533312,126.544402614639,제주특별자치도 제주시 신설로5길 5-10 이도해든빌 비동,010-2659-9757  
더스푼,RIBBON_ONE,33.476097,126.554301,제주특별자치도 제주시 구남동1길 45 ,064-725-1324  
해녀의집,RIBBON_ONE,33.462882,126.938914,제주특별자치도 서귀포시 성산읍 일출로 284-34 ,064-783-1135  
민트레스토랑,RIBBON_ONE,33.432707,126.930303,제주특별자치도 서귀포시 성산읍 섭지코지로 93-66 글라스하우스 2층,064-731-7773  
샤오츠,RIBBON_ONE,33.4602975523449,126.929448034221,제주특별자치도 서귀포시 성산읍 성산등용로17번길 55 제주성산 리치유클래시아 상가 102호,064-764-4570  
남양수산,RIBBON_ONE,33.450105,126.914186,제주특별자치도 서귀포시 성산읍 고성동서로56번길 11 ,064-782-6618  
고내횟집,NOT,33.4668629585736,126.337619221079,제주특별자치도 제주시 애월읍 고내로7길 46-1 ,064-799-6888  
쌍화153,NOT,33.4670457292435,126.519983761102,제주특별자치도 제주시 아연로 301 ,064-746-8235  
이너프,NOT,33.4560241058215,126.418981894194,제주특별자치도 제주시 애월읍 고성8길 33 ,064-746-8088  
오데뜨제주,NOT,33.4108751922188,126.295578088098,제주특별자치도 제주시 한림읍 중산간서로 4995-6 ,064-799-2748  
롤링브루잉,NOT,33.5131031404698,126.529112441801,제주특별자치도 제주시 동문로 21-1 1층,010-9312-5222  
해녀의부엌,NOT,33.4977915669711,126.912298334864,제주특별자치도 제주시 구좌읍 해맞이해안로 2265 ,070-5224-1828  
인스밀,NOT,33.2384787715141,126.229230662407,제주특별자치도 서귀포시 대정읍 일과대수로27번길 22 ,010-6844-5661  
클랭블루,NOT,33.3448726520792,126.177314651522,제주특별자치도 제주시 한경면 한경해안로 552-22 ,010-8720-5338  
원앤온리,NOT,33.2392235100208,126.319190550487,제주특별자치도 서귀포시 안덕면 산방로 141 ,064-794-0117  
하시야,NOT,33.4840915005829,126.487587189784,제주특별자치도 제주시 신광로10길 18 2층,010-2049-0504  
유일반점,NOT,33.5010097979914,126.53072136746,제주특별자치도 제주시 광양7길 13 ,064-722-4100  
우수미회센타,NOT,33.4772854081322,126.489890239425,제주특별자치도 제주시 연화로2길 24-1 ,064-745-3848  
글러트니커피,NOT,33.4865744240922,126.534892820294,제주특별자치도 제주시 구남로2길 38 ,064-901-9563  
금능반지하,NOT,33.3910733394765,126.22863126772,제주특별자치도 제주시 한림읍 금능9길 30 ,0507-1333-4337  
카페더콘테나,NOT,33.4980845354554,126.678960128696,제주특별자치도 제주시 조천읍 함와로 513 ,0507-1338-5130  
이드레국수,NOT,33.2552764918427,126.41566183609,제주특별자치도 서귀포시 천제연로 93 ,064-738-8777  
아침미소목장 카페,NOT,33.4547876226385,126.586252039479,제주특별자치도 제주시 첨단동길 160-20 ,010-4998-2545  
포트그릴스테이크하우스,NOT,33.2405636549899,126.562232148877,제주특별자치도 서귀포시 솔동산로10번길 48 ,064-732-7478  
춘미향,NOT,33.2315375199814,126.296142564681,제주특별자치도 서귀포시 안덕면 산방로 382 ,064-794-5558  
커피맛이멜로,NOT,33.3122855061511,126.366264313279,제주특별자치도 서귀포시 안덕면 신화역사로 752 ,064-792-7971  
최남단식당,NOT,33.21691,126.252206,제주특별자치도 서귀포시 대정읍 최남단해안로 40 ,064-794-9191  
레이지박스,NOT,33.236421,126.312948,제주특별자치도 서귀포시 안덕면 산방로 208 ,064-792-7347  
카페차롱,NOT,33.259646515091,126.354224631305,제주특별자치도 서귀포시 안덕면 감산로 3 ,010-8771-3222  
휴일로,NOT,33.2324131656503,126.36625743425407,제주특별자치도 서귀포시 안덕면 난드르로 49-65 ,010-7577-4965  
미영이네식당,NOT,33.217731,126.249871,제주특별자치도 서귀포시 대정읍 하모항구로 42 ,064-792-0077  
축협축산물플라자한우식당,NOT,33.290493,126.318372,제주특별자치도 서귀포시 안덕면 중산간서로 1914-3 ,064-794-5658  
공천포카페숑,NOT,33.2663484357197,126.642771183007,제주특별자치도 서귀포시 남원읍 공천포로 91 ,070-4191-0586  
가시식당,NOT,33.3529857030654,126.771350295873,제주특별자치도 서귀포시 표선면 가시로565번길 24 ,064-787-1035  
대유가든,NOT,33.2712210032043,126.64788191817,제주특별자치도 서귀포시 남원읍 태위로2번길 2 ,064-764-4400  
제남가든,NOT,33.2788608378028,126.704647540795,제주특별자치도 서귀포시 남원읍 태위로 551-44 ,064-764-8000  
다미진,NOT,33.325074,126.844119,제주특별자치도 서귀포시 표선면 민속해안로 578-1 ,064-787-5050  
광동식당,NOT,33.3291099561211,126.798255712689,제주특별자치도 서귀포시 표선면 세성로 272 ,064-787-2843  
나목도식당,NOT,33.353545,126.77179,제주특별자치도 서귀포시 표선면 가시로613번길 60 ,064-787-1202  
무주향,NOT,33.270044,126.654102,제주특별자치도 서귀포시 남원읍 위미해안로 118-5 ,064-764-9088  
범일분식,NOT,33.2784553284954,126.716913203067,제주특별자치도 서귀포시 남원읍 태위로 658 ,064-764-5069  
중문흑돼지천국,NOT,33.2549504182081,126.417150290098,제주특별자치도 서귀포시 천제연로 107 ,064-739-9036  
목포고을,NOT,33.258416,126.407129,제주특별자치도 서귀포시 일주서로 968-5 ,064-738-5551  
미향해장국,NOT,33.258329,126.408082,제주특별자치도 서귀포시 일주서로 962 ,064-739-8868  
큰갯물횟집,NOT,33.239466,126.438257,제주특별자치도 서귀포시 대포로 161 ,064-738-1625  
바당,NOT,33.247558,126.408116,제주특별자치도 서귀포시 중문관광로72번길 75 신라호텔제주 6층,064-735-5587  
나성수두리보말톳칼국수,NOT,33.25164,126.424616,제주특별자치도 서귀포시 천제연로 186-1 ,064-738-4949  
히노데,NOT,33.247558,126.408116,제주특별자치도 서귀포시 중문관광로72번길 75 제주신라호텔 3층,064-735-5339  
카페 카노푸스,NOT,33.242904,126.420435,제주특별자치도 서귀포시 중문관광로 198 씨에스호텔 1층,064-735-3036  
신촌덕인당,NOT,33.5322194983004,126.618608890294,제주특별자치도 제주시 조천읍 신북로 36 ,064-783-6153  
선흘방주할머니식당,NOT,33.4845835121617,126.700229760691,제주특별자치도 제주시 조천읍 선교로 212 ,064-783-1253  
카페델문도,NOT,33.5437022656737,126.668709879591,제주특별자치도 제주시 조천읍 조함해안로 519-10 ,064-702-0007  
제주한면가,NOT,33.5120527982259,126.699958554717,제주특별자치도 제주시 조천읍 북선로 373 ,064-782-3358  
맥파이브루어리,NOT,33.5032053972907,126.617177861619,제주특별자치도 제주시 동회천1길 23 ,064-721-0227  
카페세바,NOT,33.513221408059,126.706033593835,제주특별자치도 제주시 조천읍 선흘동2길 20-7 ,없음  
구좌상회,NOT,33.4856887401381,126.698872152394,제주특별자치도 제주시 조천읍 선교로 198-5 ,010-6600-6648  
다래향,NOT,33.545797,126.660752,제주특별자치도 제주시 조천읍 조함해안로 428-4 ,064-782-9466  
서울식당,NOT,33.5419070759865,126.667723063722,제주특별자치도 제주시 조천읍 함덕13길 5 ,064-783-8170  
하영횟집,NOT,33.245235,126.522353,제주특별자치도 서귀포시 이어도로 1043 ,064-739-8161  
삼보식당,NOT,33.2476972084968,126.559024545325,제주특별자치도 서귀포시 중정로 25 ,064-762-3620  
덕성원,NOT,33.2449084333718,126.563385765954,제주특별자치도 서귀포시 태평로401번길 4 ,064-762-2402  
제주할망뚝배기,NOT,33.24051082068603,126.56557565528797,제주특별자치도 서귀포시 칠십리로 92 ,064-733-9934  
서귀포흑돼지명가,NOT,33.24397,126.536393,제주특별자치도 서귀포시 태평로 122 ,064-738-6939  
벌집식당,NOT,33.2447309579674,126.564687784883,제주특별자치도 서귀포시 태평로 416 ,064-762-9230  
천짓골식당,NOT,33.2482242957169,126.561215225298,제주특별자치도 서귀포시 중앙로41번길 4 ,064-763-0399  
동성식당,NOT,33.2676978014372,126.589225321842,제주특별자치도 서귀포시 토평남로 109 ,064-733-6874  
네거리식당,NOT,33.248521,126.559362,제주특별자치도 서귀포시 서문로29번길 20 ,064-762-5513  
삼다숯불갈비,NOT,33.247730542475,126.566454178905,제주특별자치도 서귀포시 명동로 43 ,064-763-0668  
용이식당,NOT,33.251103293481,126.560475427576,제주특별자치도 서귀포시 중앙로79번길 9 ,064-732-7892  
삼일식당,NOT,33.408618,126.263581,제주특별자치도 제주시 한림읍 한림상로 92 ,064-796-3136  
동백키친,NOT,33.4284139538887,126.266960238165,제주특별자치도 제주시 한림읍 수원7길 42 ,064-796-1015  
협재수우동,NOT,33.3966234065148,126.242444054558,제주특별자치도 제주시 한림읍 협재1길 11 ,064-796-5830  
흑돼지촌,NOT,33.406564,126.261607,제주특별자치도 제주시 한림읍 한림상로 62 ,064-796-9981  
모디카,NOT,33.410819,126.267663,제주특별자치도 제주시 한림읍 한림상로 134-5 ,070-4128-0519  
카페애월로11,NOT,33.4601140551333,126.311231581006,제주특별자치도 제주시 애월읍 애월로 11 ,010-3098-8112  
마틸다,NOT,33.4656961653475,126.334277144658,제주특별자치도 제주시 애월읍 고내1길 33 ,064-799-3629  
제주이와이,NOT,33.4796265020162,126.397680873053,제주특별자치도 제주시 애월읍 하귀로 4 ,010-7109-9104  
랜디스도넛,NOT,33.4611696789499,126.311418894475,제주특별자치도 제주시 애월읍 애월로 27-1 ,064-799-0610  
장촌한우마을,NOT,33.420056,126.338884,제주특별자치도 제주시 애월읍 천덕로 440-4 ,064-799-7890  
아날로그감귤밭,NOT,33.4556755695095,126.450874903881,제주특별자치도 제주시 해안마을8길 46 ,010-4953-0846  
살롱드라방,NOT,33.4578617802591,126.348952499258,제주특별자치도 제주시 애월읍 하가로 146-9 ,070-7797-3708  
모슬포해안도로식당,NOT,33.484766,126.494767,제주특별자치도 제주시 신대로18길 16 삼다연동맨션,064-794-7665  
삼다가,NOT,33.490928601764,126.499603479789,제주특별자치도 제주시 신대로9길 27 ,064-747-4711  
십원향,NOT,33.4868429561724,126.48507997337,제주특별자치도 제주시 원노형로 23 ,064-742-6779  
순화국수,NOT,33.483766,126.484138,제주특별자치도 제주시 원노형8길 26 ,064-742-2075  
두루두루식당,NOT,33.490491,126.494539,제주특별자치도 제주시 삼무로3길 14 ,064-744-9711  
낭푼밥상,NOT,33.4835004392029,126.488946467315,제주특별자치도 제주시 연동6길 28 ,064-799-0005  
늘봄흑돼지,NOT,33.47929,126.472878,제주특별자치도 제주시 한라대학로 12 ,064-744-9001  
숙성도,NOT,33.4850469004095,126.485037987096,제주특별자치도 제주시 원노형로 41 ,064-711-5212  
명당양과,NOT,33.4812755845228,126.484940446305,제주특별자치도 제주시 원노형로 83 창원빌딩,064-746-1848  
어머니빵집,NOT,33.491583,126.488621,제주특별자치도 제주시 도령로 103 한일시티파크 1층106호,064-752-1281  
커피코알라,NOT,33.48121,126.489157,제주특별자치도 제주시 과원북4길 71 효정빌딩 2차 1층,064-773-7004  
보엠,NOT,33.479644,126.484628,제주특별자치도 제주시 원노형로 102 한화아파트 상가동 103호,064-711-9990  
너는파라다이스길리,NOT,33.5566858972833,126.793702508338,제주특별자치도 제주시 구좌읍 월정1길 65 ,064-782-2208  
은성식당,NOT,33.52561,126.857532,제주특별자치도 제주시 구좌읍 해맞이해안로 1422-5 ,064-784-5885  
밭담,NOT,33.556688667726,126.803497234638,제주특별자치도 제주시 구좌읍 행원로5길 35-20 ,064-783-1376  
미엘드세화,NOT,33.524478,126.861867,제주특별자치도 제주시 구좌읍 해맞이해안로 1464 ,064-782-6070  
풍림다방,NOT,33.4718737008442,126.785710834013,제주특별자치도 제주시 구좌읍 중산간동로 2267-4 ,1811-5775  
나주닭집,NOT,33.513919,126.524048,제주특별자치도 제주시 동광로1길 32 ,064-757-0636  
가본식당,NOT,33.516396,126.528819,제주특별자치도 제주시 임항로 36-1 ,064-721-8484  
아주반점,NOT,33.513455,126.526115,제주특별자치도 제주시 관덕로13길 4 ,064-722-5161  
우진해장국,NOT,33.5115403957912,126.52001621862,제주특별자치도 제주시 서사로 11 ,064-757-3393  
고스란히,NOT,33.488843,126.534655,제주특별자치도 제주시 구남로6길 22 ,064-751-5195  
대진횟집,NOT,33.518214,126.52855,제주특별자치도 제주시 서부두길 16 ,064-758-7017  
용두골,NOT,33.516424,126.505594,제주특별자치도 제주시 서해안로 644 ,064-711-2234  
송죽원,NOT,33.491586,126.549199,제주특별자치도 제주시 간월동로5길 15 ,064-725-2288  
용연횟집,NOT,33.5165302156963,126.515170039058,제주특별자치도 제주시 동한두기길 35 ,064-751-8686  
정성듬뿍제주국,NOT,33.5140367610096,126.52021339359,제주특별자치도 제주시 무근성7길 16 ,064-755-9388  
맥파이블루버드 ,NOT,33.5179873205674,126.523359458825,제주특별자치도 제주시 탑동로2길 7 ,064-722-2849  
로치아커피로스터스,NOT,33.501869,126.466726,제주특별자치도 제주시 도공로 53 ,010-6835-6305  
스시앤,NOT,33.4965502751994,126.534600587297,제주특별자치도 제주시 고산동산5길 21-1 ,064-726-9696  
감초식당,NOT,33.503376,126.52778,제주특별자치도 제주시 동광로1길 32 ,064-753-7462  
골막식당,NOT,33.502456,126.538479,제주특별자치도 제주시 천수로 12 ,064-753-6949  
남춘식당,NOT,33.499657,126.537568,제주특별자치도 제주시 청귤로 12 ,064-702-2588  
메종드쁘띠푸르,NOT,33.476097,126.554301,제주특별자치도 제주시 신설로7길 3 ,064-702-0919  
태광식당,NOT,33.512604,126.518865,제주특별자치도 제주시 탑동로 144 ,064-751-1071  
화진전복,NOT,33.5179163183103,126.519055328461,제주특별자치도 제주시 무근성길 2 ,064-752-2280  
앞돈지,NOT,33.516039,126.527543,제주특별자치도 제주시 중앙로1길 28 ,064-723-0987  
라스또르따스,NOT,33.499187641786,126.53111624291,제주특별자치도 제주시 광양11길 8-1 ,064-799-5100  
블랑로쉐,NOT,33.5156836104419,126.957910049012,제주특별자치도 제주시 우도면 우도해안길 783 ,064-782-9154  
소금바치순이네,NOT,33.5036648564977,126.912640565732,제주특별자치도 제주시 구좌읍 해맞이해안로 2196 ,064-784-1230  
카페오름,NOT,33.372255,126.85604,제주특별자치도 서귀포시 성산읍 삼달로 128 ,064-784-4554  
성산갈치조림순덕이네,NOT,33.411974,126.896577,제주특별자치도 서귀포시 성산읍 온평서로 48 ,064-784-0073  
해뜨는식당,NOT,33.4630046258352,126.933340547749,제주특별자치도 서귀포시 성산읍 성산중앙로 38 ,064-782-3380  
아줄레주,NOT,33.366986353012,126.839173835129,제주특별자치도 서귀포시 성산읍 신풍하동로19번길 59 ,010-8518-4052  
카페코지,NOT,33.468208,126.929243,제주특별자치도 서귀포시 성산읍 한도로 200 ,064-784-1005  
성산갯마을식당,NOT,33.4675956215277,126.915586925886,제주특별자치도 서귀포시 성산읍 한도로 66 ,064-784-5755  
뤼미에흐,ATTENTION,33.5147681928676,126.519647833239,제주특별자치도 제주시 무근성길 38 ,010-2687-3576  
북성로42베이커리카페,NEW,33.5158017102182,126.520329045372,제주특별자치도 제주시 북성로 42 ,010-3690-0654
혼저,NEW,33.3857358698314,126.224843605727,제주특별자치도 제주시 한림읍 한림로 158 ,010-2846-9173
스톤,NEW,33.2515479103078,126.505544137268,"제주특별자치도 서귀포시 김정문화로 6 서호2차현대맨션 102, 103호",0507-1497-8027
라룬블루,NEW,33.2725925735685,126.65076224575,제주특별자치도 서귀포시 남원읍 태위로 27 1층 ,010-3656-6504
돝밭,NEW,33.4673746469537,126.338487533272,제주특별자치도 제주시 애월읍 애월해안로 249 1층 ,064-799-1253
제주침시술소,NEW,33.5011081716993,126.5304860175,제주특별자치도 제주시 동광로 12 ,064-723-0715
카페치즈태비,NOT_RECORD,33.5551482122918,126.807868302351,제주특별자치도 제주시 구좌읍 행원로7길 18-9 ,010-4616-1464
안녕전복,NOT_RECORD,33.5128573870185,126.519607483216,제주특별자치도 제주시 관덕로 3 ,0507-1386-3282
엔폴리우드,NOT_RECORD,33.543817050075,126.663100369275,제주특별자치도 제주시 조천읍 신북로 491-9 ,064-784-8329
데디드,NOT_RECORD,33.4919819723164,126.543441876853,제주특별자치도 제주시 승천로 79 1층,010-4292-4736
저장고,NOT_RECORD,33.5102119921814,126.889153625606,제주특별자치도 제주시 구좌읍 하도13길 25 ,010-4188-0856
베메로,NOT_RECORD,33.249698457597,126.411556504447,제주특별자치도 서귀포시 중문관광로72번길 29-9 ,064-738-7832
몽탄(제주점),NOT_RECORD,33.5533920518974,126.71509377031,제주특별자치도 제주시 구좌읍 동복로 83 ,0507-1418-8592
김녕에사는김영훈,NOT_RECORD,33.5542653975533,126.746336284699,제주특별자치도 제주시 구좌읍 김녕로6길 2 1층,0507-1323-1938
자연샤브(서귀포신시가지점),NOT_RECORD,33.2504129244334,126.519548752313,제주특별자치도 서귀포시 서호남로 65 ,0507-1324-7635
용두네해장국,NOT_RECORD,33.518214972194,126.488634787753,제주특별자치도 제주시 서해안로 456-4 1층 ,064-743-1020
리보스코화덕피자 ,NOT_RECORD,33.4694460541333,126.487858537103,제주특별자치도 제주시 수목원길 27 ,064-745-0904
자연샤브,NOT_RECORD,33.265207773471,126.568151292692,제주특별자치도 서귀포시 동홍로 188 1층,064-763-7632
크도,NOT_RECORD,33.40373603124,126.252238560534,제주특별자치도 제주시 한림읍 한림로 497 ,070-4647-0992
도주제,NOT_RECORD,33.5139398702552,126.521176591559,제주특별자치도 제주시 관덕로3길 9-1 ,064-721-2317
명도암정식,NOT_RECORD,33.467637,126.610653,제주특별자치도 제주시 명림로 218 ,064-723-5254
가다오다,NOT_RECORD,33.5117486007416,126.531779199888,제주특별자치도 제주시 신산로 13 ,010-8954-3120
고집돌우럭,NOT_RECORD,33.2579833781002,126.416707323322,제주특별자치도 서귀포시 일주서로 879 ,0507-1408-1540
뽕이네 각재기,NOT_RECORD,33.5085243001739,126.542192560054,제주특별자치도 제주시 동광로 150 ,064-722-5193
삼번지횟집,NOT_RECORD,33.5102850304776,126.482463365309,제주특별자치도 제주시 서해안로 350 ,064-711-6373
상춘재,NOT_RECORD,33.4698865361909,126.545914052162,제주특별자치도 제주시 중앙로 598 ,064-725-1557
일팔팔,NOT_RECORD,33.5122113539073,126.527023650217,제주특별자치도 제주시 동문로 6-8 동문시장 서해상가 11호,064-723-1288
코시롱,NOT_RECORD,33.480941635064,126.474608934429,제주특별자치도 제주시 노형1길 12-2 ,064-742-2253
도도름한우와흑돈,NOT_RECORD,33.4896889583513,126.490498648051,제주특별자치도 제주시 삼무로 36 ,064-744-7744
탐라가든,NOT_RECORD,33.5077890744115,126.520299856681,제주특별자치도 제주시 서사로 51 ,064-726-1300
클라우드나인커피,NOT_RECORD,33.4990357836808,126.529277402113,제주특별자치도 제주시 신성로13길 12 ,064-757-5752
미친부엌,NOT_RECORD,33.5169994762424,126.523155739488,제주특별자치도 제주시 탑동로 15 ,064-721-6382
애월빵공장앤카페,NOT_RECORD,33.448306081357,126.301560833469,제주특별자치도 제주시 애월읍 금성5길 42-15 ,064-799-5959
휴즐리 제주,NOT_RECORD,33.5157682944667,126.513999673793,제주특별자치도 제주시 흥운길 83 ,0507-1375-9774
아카이브,NOT_RECORD,33.4822123388974,126.69573232546,제주특별자치도 제주시 조천읍 와선로 204 ,010-8451-5535
소색채본,NOT_RECORD,33.2351178178847,126.313645335479,제주특별자치도 서귀포시 안덕면 사계남로216번길 24-61 ,010-3108-1686
하르방밀면,NOT_RECORD,33.225885,126.255823,제주특별자치도 서귀포시 대정읍 동일하모로 229 ,064-794-5000
커피스케치,NOT_RECORD,33.233371144923,126.313291313646,제주특별자치도 서귀포시 안덕면 사계남로216번길 24-32 네덜란드엿보기전시관 2층,070-4100-1118
춘심이네,NOT_RECORD,33.264789,126.370777,제주특별자치도 서귀포시 안덕면 창천중앙로24번길 16 ,064-794-4010
모슬포해녀식당,NOT_RECORD,33.2204010998315,126.251542444489,제주특별자치도 서귀포시 대정읍 신영로 82 ,064-794-3597
올랭이와물꾸럭,NOT_RECORD,33.221056,126.252939,제주특별자치도 서귀포시 대정읍 신영로 93-5 ,064-794-5022
항구식당,NOT_RECORD,33.219127,126.251312,제주특별자치도 서귀포시 대정읍 하모항구로 64 ,064-794-2254
생원전복,NOT_RECORD,33.245869,126.330793,제주특별자치도 서귀포시 안덕면 산방로 7 2층,064-792-2109
돈어길,NOT_RECORD,33.2807928230905,126.285370709694,제주특별자치도 서귀포시 대정읍 중산간서로 2274 ,070-8800-6564
르쉬느아 ,NOT_RECORD,33.3049726791712,126.31635202613,제주특별자치도 서귀포시 안덕면 신화역사로304번길 38 제주신화월드 호텔앤리조트 메리어트관 G층 르 쉬느아,064-908-1240
황금륭버거,NOT_RECORD,33.286732,126.22275,제주특별자치도 서귀포시 대정읍 칠전로 434 ,064-773-0097
순천미향(제주산방산본점),NOT_RECORD,33.2356694064218,126.312482417814,제주특별자치도 서귀포시 안덕면 사계남로216번길 24-73 순천미향,064-792-2004
코데인커피로스터스 ,NOT_RECORD,33.2350777693604,126.296279745532,제주특별자치도 서귀포시 안덕면 사계북로 76 ,010-9344-2127
페를로,NOT_RECORD,33.2567330298804,126.306135218185,제주특별자치도 서귀포시 안덕면 덕수회관로74번길 33 ,010-5752-9501
표선어촌식당,NOT_RECORD,33.325243,126.844619,제주특별자치도 서귀포시 표선면 민속해안로 578-7 ,064-787-0175
썬데이지,NOT_RECORD,33.2754211305226,126.709284064391,제주특별자치도 서귀포시 남원읍 남태해안로 9 1층,070-8287-2566
한라흑돼지,NOT_RECORD,33.273116,126.654068,제주특별자치도 서귀포시 남원읍 태위로 56 ,064-764-9279
포항아구찜,NOT_RECORD,33.278605,126.719585,제주특별자치도 서귀포시 남원읍 남원회관로 61 ,064-764-5939
마고,NOT_RECORD,33.323322,126.844474,제주특별자치도 서귀포시 표선면 민속해안로 537 해비치호텔앤드리조트 1층,064-780-8387
바99,NOT_RECORD,33.323448,126.84478,제주특별자치도 서귀포시 표선면 민속해안로 537 해비치호텔앤드리조트 1층,064-780-8325
돌집식당,NOT_RECORD,33.394031,126.800642,제주특별자치도 서귀포시 표선면 서성일로 23 ,064-787-3720
우림가든,NOT_RECORD,33.325692,126.829403,제주특별자치도 서귀포시 표선면 표선관정로 77 ,064-787-3488
금데기횟집,NOT_RECORD,33.3263223249256,126.84404956955,제주특별자치도 서귀포시 표선면 표선당포로 19-5 ,064-787-1575
해미원,NOT_RECORD,33.324982,126.844289,제주특별자치도 서귀포시 표선면 민속해안로 578-2 ,064-787-3311
흑돼지한마당,NOT_RECORD,33.3247987513617,126.843976351289,제주특별자치도 서귀포시 표선면 민속해안로 575 ,064-787-1988
더웨이팅,NOT_RECORD,33.3179650530561,126.82813842007,제주특별자치도 서귀포시 표선면 표선동서로 147 ,064-787-0147
와랑와랑,NOT_RECORD,33.272362,126.676564,제주특별자치도 서귀포시 남원읍 위미중앙로300번길 28 ,070-4656-1761
만덕이네,NOT_RECORD,33.393328,126.801232,제주특별자치도 서귀포시 표선면 서성일로 16 ,064-787-3827
루브린,NOT_RECORD,33.2723234007331,126.683835038476,제주특별자치도 서귀포시 남원읍 태위로360번길 46 ,070-8870-6886
서연의집,NOT_RECORD,33.269437,126.655663,제주특별자치도 서귀포시 남원읍 위미해안로 86 ,064-764-7894
고향길든솔,NOT_RECORD,33.413218,126.770571,제주특별자치도 서귀포시 표선면 성읍이리로 32 ,064-787-2273
덕성원(중문점),NOT_RECORD,33.2492408909928,126.430046452651,제주특별자치도 서귀포시 중문관광로 323 ,064-738-0750
314마일,NOT_RECORD,33.2497917330142,126.430271762051,제주특별자치도 서귀포시 천제연로232번길 20 1층,064-739-3140
일광회센타,NOT_RECORD,33.253168,126.420266,제주특별자치도 서귀포시 천제연로 142 ,064-738-2411
덤장(중문점),NOT_RECORD,33.257663,126.40828,제주특별자치도 서귀포시 천제연로 17 ,064-738-2550
대포동산횟집,NOT_RECORD,33.239079,126.439547,제주특별자치도 서귀포시 이어도로 164 ,064-738-6060
뮈르,NOT_RECORD,33.2449617417414,126.387530606245,제주특별자치도 서귀포시 하예로 28 2층,064-900-3685
제주오성,NOT_RECORD,33.2557026953152,126.414666453661,제주특별자치도 서귀포시 중문관광로 27 ,064-739-3120
제주횟집퍼랭,NOT_RECORD,33.2574015225199,126.415661855314,제주특별자치도 서귀포시 중문관광로 5 퍼랭,064-738-2468
신우성흑돼지,NOT_RECORD,33.249678,126.411363,제주특별자치도 서귀포시 중문관광로72번길 29-9 ,064-738-7830
항해진미,NOT_RECORD,33.2450403542925,126.415599158242,제주특별자치도 서귀포시 중문관광로 154-17 ,064-739-3400
이조은식당,NOT_RECORD,33.255057,126.416224,제주특별자치도 서귀포시 천제연로 97 ,064-738-7123
리틀보라카이,NOT_RECORD,33.2585732100881,126.413963378095,제주특별자치도 서귀포시 색달중앙로 38 ,
사해방흑돼지,NOT_RECORD,33.2515291356409,126.432692320092,제주특별자치도 서귀포시 천제연로 263 ,064-738-4577
흑돼지구이집하영,NOT_RECORD,33.255094,126.416633,제주특별자치도 서귀포시 천제연로 101 ,064-738-6011
해심가든,NOT_RECORD,33.251901,126.426607,제주특별자치도 서귀포시 천제연로 203-4 ,064-738-2820
대기정,NOT_RECORD,33.240309,126.428668,제주특별자치도 서귀포시 이어도로 41 ,064-739-1041
제주미향,NOT_RECORD,33.255072,126.416465,제주특별자치도 서귀포시 천제연로 99 ,064-738-8588
라비타,NOT_RECORD,33.249332,126.408394,제주특별자치도 서귀포시 중문관광로72번길 67 제주스위트호텔 1층 로비,064-735-9125
라테라스,NOT_RECORD,33.249332,126.408394,제주특별자치도 서귀포시 중문관광로72번길 67 제주스위트호텔 1층 로비,064-735-9125
만추안,NOT_RECORD,33.2441693950141,126.405574367231,제주특별자치도 서귀포시 중문관광로72번길 100  파르나스호텔제주 신관 3층,070-8648-0672
더클리프,NOT_RECORD,33.2450403542925,126.415599158242,제주특별자치도 서귀포시 중문관광로 154-17 ,064-738-8866
색달식당중문갈치조림구이(본점),NOT_RECORD,33.2418117185555,126.386244199585,제주특별자치도 서귀포시 예래로 255-18 색달식당 중문갈치조림구이 본점,064-738-1741
페닌슐라(롯데호텔제주),NOT_RECORD,33.248535,126.410394,제주특별자치도 서귀포시 중문관광로72번길 35 롯데호텔제주 본관 8층,064-731-4240
폴레,NOT_RECORD,33.4872450653419,126.492268868212,제주특별자치도 제주시 은남3길 33 1층,010-5599-0337
돈뜰,NOT_RECORD,33.3236342798791,126.260639911558,제주특별자치도 제주시 한경면 녹차분재로 619 ,064-772-1357
한림해촌,NOT_RECORD,33.393627,126.239904,제주특별자치도 제주시 한림읍 한림로 329-6 ,064-796-1511
산방식당(제주점),NOT_RECORD,33.490195,126.536061,제주특별자치도 제주시 구남로8길 10-5 ,064-722-2165
한라,NOT_RECORD,33.505845,126.526596,제주특별자치도 제주시 중앙로 151 제주KAL호텔 1층,064-720-6507
하늘보리,NOT_RECORD,33.486222,126.699718,제주특별자치도 제주시 조천읍 선교로 196 ,064-784-6300
도리골토종닭,NOT_RECORD,33.426226,126.675173,제주특별자치도 제주시 조천읍 남조로 1772-8 ,064-782-0966
털보산해횟집,NOT_RECORD,33.486212,126.492702,제주특별자치도 제주시 은남4길 29 ,064-742-4441
자구내,NOT_RECORD,33.490504,126.494126,제주특별자치도 제주시 삼무로3길 18 ,064-749-0778
맛장터해장국,NOT_RECORD,33.487483,126.49784,제주특별자치도 제주시 신대로13길 10 ,064-712-5252
사방팔방,NOT_RECORD,33.488888,126.429609,제주특별자치도 제주시 우정로10길 12 ,064-743-4080
엄마손횟집,NOT_RECORD,33.486674,126.488169,제주특별자치도 제주시 연동3길 35 ,064-747-0317
하르방,NOT_RECORD,33.48381,126.395618,제주특별자치도 제주시 애월읍 애월해안로 941 ,064-713-8899
광원,NOT_RECORD,33.472912,126.484738,제주특별자치도 제주시 1100로 3208 ,064-744-1000
양촌리마을,NOT_RECORD,33.479356,126.481519,제주특별자치도 제주시 진군길 31-5 ,064-743-7188
제주축협한우프라자,NOT_RECORD,33.486041,126.542753,제주특별자치도 제주시 중앙로 415 ,064-726-5671
파페로 ,NOT_RECORD,33.4848872998055,126.482738634657,제주특별자치도 제주시 원노형6길 14 1층,0507-1309-398
씨커,NOT_RECORD,33.478519739375,126.475153210682,제주특별자치도 제주시 한라대학로 33 ,010-4311-2922
히비키아일랜드,NOT_RECORD,33.4824985385837,126.478095234835,제주특별자치도 제주시 신형로 25  1층,064-746-5253
태백산(3호점),NOT_RECORD,33.491729,126.543116,제주특별자치도 제주시 구남동5길 42 ,064-759-9933
컴플리트커피(노형점),NOT_RECORD,33.480619352235,126.478181494825,제주특별자치도 제주시 노형6길 21 ,064-805-3150
대원가,NOT_RECORD,33.491524,126.52702,제주특별자치도 제주시 도남로16길 15 재영샤르빌상가 101호,064-753-3030
명당양과(노형점),NOT_RECORD,33.485569,126.472054,제주특별자치도 제주시 수덕로 51 ,064-712-0403
솔지식당,NOT_RECORD,33.4923249707188,126.47257683069,제주특별자치도 제주시 월랑로 88 ,0507-1315-034
다코네,NOT_RECORD,33.5291832266884,126.836774879854,제주특별자치도 제주시 구좌읍 평대4길 20-1 다코네,010-4125-2502
대일추어탕,NOT_RECORD,33.252898,126.557946,제주특별자치도 서귀포시 일주동로 8710 ,064-732-6194
제주손칼국수냉면전문점,NOT_RECORD,33.2544,126.569438,제주특별자치도 서귀포시 일주동로 8599 ,064-763-3331
딜레탕트,NOT_RECORD,33.5350894387184,126.628423406812,제주특별자치도 제주시 조천읍 신북로 144 ,010-3328-0727
친밀제주,NOT_RECORD,33.4269432075484,126.673684691736,제주특별자치도 제주시 조천읍 남조로 1781 ,
안다미로식당,NOT_RECORD,33.436305,126.676663,제주특별자치도 제주시 조천읍 비자림로 648 ,064-783-0668
흑본오겹함덕점,NOT_RECORD,33.5436381450771,126.658710933927,제주특별자치도 제주시 조천읍 신북로 454 1층 흑본오겹,064-726-7786
연화차,NOT_RECORD,33.4875699681633,126.714780305705,제주특별자치도 제주시 조천읍 선교로 46 연화차,010-9226-9974
정순화손두부,NOT_RECORD,33.545067,126.686445,제주특별자치도 제주시 조천읍 일주동로 1415 ,064-783-4900
무우수커피로스터스,NOT_RECORD,33.5377933635964,126.638369215516,제주특별자치도 제주시 조천읍 조천11길 22-2 ,010-2816-2745
세미식당,NOT_RECORD,33.4692414262647,126.663830598494,제주특별자치도 제주시 조천읍 번영로 1208 ,064-783-1360
해녀의부엌(북촌점),NOT_RECORD,33.5498682802124,126.6934323933,제주특별자치도 제주시 조천읍 북촌9길 31 ,0507-1476-158
카페동백,NOT_RECORD,33.5090143244165,126.714416905275,제주특별자치도 제주시 조천읍 동백로 68 ,  
오드랑베이커리,NOT_RECORD,33.5421352880566,126.671582949609,제주특별자치도 제주시 조천읍 조함해안로 552-3 ,064-784-5404
청진동해물탕,NOT_RECORD,33.5388510274446,126.669302236558,제주특별자치도 제주시 조천읍 함덕20길 19 ,064-782-9292
롤러코스트,NOT_RECORD,33.5435976653753,126.674517450616,제주특별자치도 제주시 조천읍 조함해안로 592-4 1층,010-2066-0005
옥란면옥,NOT_RECORD,33.5355652577303,126.630821320602,제주특별자치도 제주시 조천읍 신북로 163 ,010-2488-6930
곱들락,NOT_RECORD,33.5394852368603,126.670225953279,제주특별자치도 제주시 조천읍 함덕18길 19  101호,064-783-0992
알마커피제작소,NOT_RECORD,33.5502160237072,126.694782417941,제주특별자치도 제주시 조천읍 북촌11길 23 ,010-8873-3715
밀림원,NOT_RECORD,33.482373,126.653914,제주특별자치도 제주시 조천읍 남조로 2446 ,064-783-9803
죽림횟집,NOT_RECORD,33.244191,126.564557,제주특별자치도 서귀포시 솔동산로 5-1 ,064-733-7688
오아시스,NOT_RECORD,33.252619,126.51132,제주특별자치도 서귀포시 신서귀로 42 ,064-739-2292
강정해녀의집,NOT_RECORD,33.2293042435205,126.475933002517,제주특별자치도 서귀포시 말질로 270 1층 ,064-739-0772
돌아온천지연식당,NOT_RECORD,33.2457696318692,126.562809882947,제주특별자치도 서귀포시 태평로371번길 21 ,064-762-7073
숨도카페,NOT_RECORD,33.2502906728106,126.536006813907,제주특별자치도 서귀포시 일주동로 8941 ,
새만부정,NOT_RECORD,33.2437144263977,126.56837804746,제주특별자치도 서귀포시 칠십리로 135 ,064-733-7750
남궁미락,NOT_RECORD,33.2425243024994,126.565228241623,제주특별자치도 서귀포시 부두로 27-1 ,064-762-7587
플레이커피랩,NOT_RECORD,33.250593390868,126.558811586163,제주특별자치도 서귀포시 서문로28번길 2 ,064-762-6661
포구식당,NOT_RECORD,33.237318,126.51527,제주특별자치도 서귀포시 막숙포로 44 ,064-739-2987
봉꾸라주,NOT_RECORD,33.2542891736067,126.505782814109,제주특별자치도 서귀포시 신서로48번길 5 1층,070-8866-1229
섶섬할망카페,NOT_RECORD,33.2379141128451,126.60225861921,제주특별자치도 서귀포시 보목로64번길 11 ,064-733-8673
테라로사(제주서귀포점),NOT_RECORD,33.249439,126.618933,제주특별자치도 서귀포시 칠십리로658번길 27-16 ,033-648-2760
돈블랙서귀포본점,NOT_RECORD,33.2487127260843,126.514996264479,제주특별자치도 서귀포시 서호남로32번길 24 ,010-3957-6965
멧돌뚝배기,NOT_RECORD,33.2443792573728,126.568940792596,제주특별자치도 서귀포시 칠십리로 145 장원주상복합건물,064-762-3368
채점석베이커리&카페,NOT_RECORD,33.2484758517256,126.514160374134,제주특별자치도 서귀포시 서호남로32번길 29 ,064-739-0033
이화삼계탕,NOT_RECORD,33.2477077001644,126.557941678007,제주특별자치도 서귀포시 중정로 13 ,064-762-3319
삼다뚝배기,NOT_RECORD,33.260322,126.614855,제주특별자치도 서귀포시 일주동로 8167 ,064-733-0591
진국옹기설렁탕,NOT_RECORD,33.2513310190326,126.560289500712,제주특별자치도 서귀포시 중앙로79번길 10 ,064-763-1750
꺼멍목장,NOT_RECORD,33.2429503789996,126.454851753683,제주특별자치도 서귀포시 이어도로 338 ,064-739-9289
금강,NOT_RECORD,33.2543299814447,126.569504159315,제주특별자치도 서귀포시 일주동로 8597 ,064-733-2119
부두식당,NOT_RECORD,33.2416973090938,126.564578999898,제주특별자치도 서귀포시 부두로 38 ,064-732-9241
서귀샌드,NOT_RECORD,33.2468268701551,126.557857908504,제주특별자치도 서귀포시 태평로 347 까사로마호텔,064-901-0070
비브레이브,NOT_RECORD,33.252468,126.511852,제주특별자치도 서귀포시 신서로48번길 66 ,010-5751-9111
88버거,NOT_RECORD,33.2492475189286,126.567122293048,제주특별자치도 서귀포시 동문로 63 ,064-733-8488
살레,NOT_RECORD,33.246002,126.581013,제주특별자치도 서귀포시 칠십리로 242 서귀포KAL호텔 지하 1층,064-730-9681
유동커피,NOT_RECORD,33.2445422641819,126.563792111796,제주특별자치도 서귀포시 태평로 406-1 ,064-733-6662
동해미락,NOT_RECORD,33.243672,126.568303,제주특별자치도 서귀포시 칠십리로 133 ,064-733-5921
미베이커리카페,NOT_RECORD,33.2360012201748,126.498828917545,제주특별자치도 서귀포시 이어도로 780 1층 ,064-738-6812
버들집,NOT_RECORD,33.24895941186437,126.56411741288204,제주특별자치도 서귀포시 중정로73번길 10 ,064-762-7266
함올레,NOT_RECORD,33.3989565025173,126.247193915704,제주특별자치도 제주시 한림읍 한림로 424-1 ,010-8623-9225
카페콜라,NOT_RECORD,33.443318566103,126.291921158759,제주특별자치도 제주시 한림읍 일주서로 5857 ,010-5338-9969
이익새양과점,NOT_RECORD,33.4073757667989,126.265540319021,제주특별자치도 제주시 한림읍 명월성로 16 ,070-4134-2343
우유부단,NOT_RECORD,33.3476224146646,126.328061299164,제주특별자치도 제주시 한림읍 금악동길 38 ,064-796-2033
비주비주 한림점,NOT_RECORD,33.4059126385835,126.254890131579,제주특별자치도 제주시 한림읍 한림해안로 9 1층,010-2476-5555
피자굽는돌하르방,NOT_RECORD,33.304878,126.255839,제주특별자치도 제주시 한경면 청수로 218 ,064-773-7273
앤트러사이트(한림점),NOT_RECORD,33.407646,126.258172,제주특별자치도 제주시 한림읍 한림로 564 ,064-796-7991
안녕구움,NOT_RECORD,33.3053987556391,126.17910003961,제주특별자치도 제주시 한경면 고산로 49 ,064-901-4987
뵤뵤,NOT_RECORD,33.3925301203484,126.263079554742,제주특별자치도 제주시 한림읍 명재로 155 ,010-6405-3614
카페 무보 이탈리안 파인다이닝,NOT_RECORD,33.3882281257178,126.232312796198,제주특별자치도 제주시 한림읍 금능6길 16-14 ,070-8867-5271
이익새양과점,NOT_RECORD,33.4073746848732,126.26554032813,제주특별자치도 제주시 한림읍 명월성로 16 ,070-4134-2343
잔물결,NOT_RECORD,33.388061470817,126.229658028,제주특별자치도 제주시 한림읍 금능길 58-1 ,010-5173-5564
오월의꽃,NOT_RECORD,33.319698,126.267412,제주특별자치도 제주시 한경면 녹차분재로 542 ,064-772-5995
무호소반,NOT_RECORD,33.414082050781,126.261743276402,제주특별자치도 제주시 한림읍 문화길 5-12 운학연립,064-803-0512
협재온다정,NOT_RECORD,33.3969660098774,126.243404582873,제주특별자치도 제주시 한림읍 한림로 381-4 ,064-796-9222
맛있는참세상,NOT_RECORD,33.3362806369928,126.232706962925,제주특별자치도 제주시 한경면 용금로 496 ,064-799-0490
로쿤커피,NOT_RECORD,33.4500100666301,126.367458072584,제주특별자치도 제주시 애월읍 넙은밧길 1-1 ,070-4242-1836
하루하나,NOT_RECORD,33.4520391236273,126.393280680932,제주특별자치도 제주시 애월읍 장전로 155 ,070-7788-7170
어떤오후,NOT_RECORD,33.450756032064,126.345976910291,제주특별자치도 제주시 애월읍 상가북6길 13 ,010-7768-1186
씨사이드애월원두로스터리(제주애월하귀점),NOT_RECORD,33.485065884759,126.407673083837,제주특별자치도 제주시 애월읍 하귀14길 5-3 ,010-9932-9072
고추냉이식당,NOT_RECORD,33.4612601643908,126.435802206511,제주특별자치도 제주시 애월읍 광령5길 8 1층,064-748-4145
아베끄,NOT_RECORD,33.4824341372855,126.396846966785,제주특별자치도 제주시 애월읍 애월해안로 960 ,010-2999-4750
카이로스,NOT_RECORD,33.4492669601044,126.400128748713,제주특별자치도 제주시 애월읍 장유길 49-39 , 064-799-2299
당당,NOT_RECORD,33.47444521036986,126.37088286343312,제주특별자치도 제주시 애월읍 중엄안1길 25 ,070-4159-0327
몰츠,NOT_RECORD,33.4241426594713,126.406118358734,제주특별자치도 제주시 애월읍 유수암평화5길 26 지하1층,064-799-3888
몽상드애월,NOT_RECORD,33.4629252295724,126.309244734174,제주특별자치도 제주시 애월읍 애월북서길 56-1 ,064-799-0090
힛업,NOT_RECORD,33.4869421280557,126.478031891961,제주특별자치도 제주시 월랑로 9 ,010-7127-4612
시드니양갈비(제주노형직영점),NOT_RECORD,33.4834170379832,126.478106511043,제주특별자치도 제주시 노형10길 10 디오빌 2층,064-747-8668
그러므로part2,NOT_RECORD,33.4684554530705,126.485937143146,제주특별자치도 제주시 수목원길 16-14 ,070-8844-2984
미풍해장국(신제주점),NOT_RECORD,33.4854850223249,126.49694497041,제주특별자치도 제주시 선덕로 2 ,064-749-6776
삼보식당(신제주점),NOT_RECORD,33.486896,126.495388,제주특별자치도 제주시 신대로16길 10 ,064-749-3620
포도원흑돼지,NOT_RECORD,33.4700126643644,126.49016672721,제주특별자치도 제주시 수목원길 51 ,064-745-0880
장수물식당,NOT_RECORD,33.491899,126.498689,제주특별자치도 제주시 연문2길 18 ,064-749-0367
키친글라,NOT_RECORD,33.4834173889444,126.49333486687,제주특별자치도 제주시 연동12길 25-1 ,010-6660-6694
차돌집,NOT_RECORD,33.490726,126.493584,제주특별자치도 제주시 신대로10길 29 ,064-747-8976
황금어장,NOT_RECORD,33.484402,126.495579,제주특별자치도 제주시 사장길 14 ,064-748-8989
안빵,NOT_RECORD,33.4814359824131,126.468667208494,제주특별자치도 제주시 광평길 26 1층,064-746-0453
한량2010,NOT_RECORD,33.4821097381984,126.475077119087,제주특별자치도 제주시 노형4길 6 101호, 064-745-8283
우림일식,NOT_RECORD,33.487368,126.482664,제주특별자치도 제주시 도령로 28-2 ,064-748-0748
라온베이커리,NOT_RECORD,33.4890199989422,126.482130006763,제주특별자치도 제주시 남녕로 11 남녕마트,010-5499-4240
명호마농갈비,NOT_RECORD,33.4886058315439,126.494892626807,제주특별자치도 제주시 신대로12길 15 1층,064-744-8985
돈사돈(별관),NOT_RECORD,33.481679,126.470795,제주특별자치도 제주시 광평동로 15 ,064-749-1500
풍전,NOT_RECORD,33.4832129201836,126.490347416605,제주특별자치도 제주시 연동8길 30 대경빌딩,064-748-2116
제주올레냉면,NOT_RECORD,33.4819159157363,126.470398236263,제주특별자치도 제주시 광평동로 19 ,064-742-1239
삼무국수,NOT_RECORD,33.490567,126.491045,제주특별자치도 제주시 삼무로3길 46-1 삼광빌딩,064-711-5656
모살물,NOT_RECORD,33.490473,126.494514,제주특별자치도 제주시 삼무로3길 14 ,064-713-0309
삼대국수회관(신제주점),NOT_RECORD,33.483836,126.49328,제주특별자치도 제주시 신대로20길 32 ,064-747-9493
혹시,NOT_RECORD,33.4868195539038,126.481801586092,제주특별자치도 제주시 원노형3길 40 에코아바 101호 셔터문상가,010-5718-0603
삼다정,NOT_RECORD,33.484758,126.488706,제주특별자치도 제주시 노연로 80 메종글래드 제주 1층,064-710-8231
멜버즈 ,NOT_RECORD,33.4760757847189,126.482743771781,제주특별자치도 제주시 한라대학로 114 B05호 멜버즈,064-744-0789
도갈비,NOT_RECORD,33.4765261400995,126.479300826417,제주특별자치도 제주시 한라대학로 85 ,064-712-5330
바토라브와르,NOT_RECORD,33.4760757847189,126.482743771781,제주특별자치도 제주시 한라대학로 114 ,010-9473-0811
아라파파,NOT_RECORD,33.478447,126.49099,제주특별자치도 제주시 국기로3길 2 ,064-725-8204
대춘해장국,NOT_RECORD,33.4876225657189,126.484451820655,제주특별자치도 제주시 원노형로 11 ,064-753-7456
비원,NOT_RECORD,33.470053,126.486196,제주특별자치도 제주시 수목원길 3-1 ,064-712-8899
흑돼지가있는풍경,NOT_RECORD,33.475069,126.480548,제주특별자치도 제주시 진군남4길 7-8 ,064-742-1108
원조오막집국수,NOT_RECORD,33.489633859584,126.493685496962,제주특별자치도 제주시 삼무로 66 ,064-743-5236
미나리,NOT_RECORD,33.490511,126.495764,제주특별자치도 제주시 삼무로11길 34 ,064-744-3625
움튼델리카테슨,NOT_RECORD,33.5243148704692,126.860942907621,제주특별자치도 제주시 구좌읍 세화7길 23-14 나동 1층,010-9344-6794
고사리커피,NOT_RECORD,33.4733772525897,126.764083005021,제주특별자치도 제주시 구좌읍 중산간동로 2064 1층,010-7916-9316
모래비카페,NOT_RECORD,33.55549,126.796253,제주특별자치도 제주시 구좌읍 해맞이해안로 462 ,064-782-2306
오늘도화창,NOT_RECORD,33.5551543850457,126.794966166154,제주특별자치도 제주시 구좌읍 월정5길 56  ,010-5101-9518
공백,NOT_RECORD,33.5533920518974,126.71509377031,제주특별자치도 제주시 구좌읍 동복로 83 ,064-783-0015
베이글림림,NOT_RECORD,33.554368981307,126.790641294489,제주특별자치도 제주시 구좌읍 월정1길 27 ,064-782-1116
카카오패밀리 (로이인더정글&카밀라스),NOT_RECORD,33.5225968970151,126.85747498745,제주특별자치도 제주시 구좌읍 구좌로 60 ,064-782-1238
해맞이쉼터,NOT_RECORD,33.537265,126.837793,제주특별자치도 제주시 구좌읍 해맞이해안로 1116 ,064-782-7875
그계절,NOT_RECORD,33.5318190555337,126.818509470905,제주특별자치도 제주시 구좌읍 한동로 119 ,010-3140-3121
유스커피,NOT_RECORD,33.4843235461066,126.54065788782,제주특별자치도 제주시 구산로 54 ,070-4132-1992
커피라이트,NOT_RECORD,33.5115249273697,126.519189280587,제주특별자치도 제주시 서사로 10-2 ,0507-1331-8892
아우스,NOT_RECORD,33.4723830360693,126.546868507561,제주특별자치도 제주시 인다13길 12 ,0507-1384-0296
신설오름,NOT_RECORD,33.505459,126.54163,제주특별자치도 제주시 고마로17길 2 ,064-758-0143
스테이굿무드,NOT_RECORD,33.506412115601,126.513535495417,제주특별자치도 제주시 용남1길 32-4 ,010-8533-4181
어반르토아,NOT_RECORD,33.4910780539456,126.541981375264,제주특별자치도 제주시 구남동5길 36 ,064-722-5525
유스커피,NOT_RECORD,33.4843235461066,126.54065788782,제주특별자치도 제주시 구산로 54 ,070-4132-1992
오멘,NOT_RECORD,33.4754479010292,126.543569173376,제주특별자치도 제주시 아란5길 13 아란선빌 1층,064-756-5559
유메,NOT_RECORD,33.5147871562203,126.52063311158,제주특별자치도 제주시 무근성7길 23 ,010-2033-2471
온누리식당,NOT_RECORD,33.495872,126.536799,제주특별자치도 제주시 남광북1길 32 ,064-751-0847
제주도감,NOT_RECORD,33.4817164874775,126.50893553764,제주특별자치도 제주시 연북로 257 소봉힐타워,064-745-7474
웅스키친,NOT_RECORD,33.493074,126.463771,제주특별자치도 제주시 대동길 17-1 ,064-784-1163
삼도제주보쌈,NOT_RECORD,33.5059939290281,126.522637311624,제주특별자치도 제주시 중앙로24길 24 ,064-753-6614
벨로인커피,NOT_RECORD,33.503027,126.465498,제주특별자치도 제주시 서해안로 150 ,064-712-4868
스콘가게끌림,NOT_RECORD,33.5243870665283,126.58277541112,제주특별자치도 제주시 지석9길 35-1 1층 ,010-9963-7155
명당양과(내도점),NOT_RECORD,33.493672,126.444641,제주특별자치도 제주시 일주서로 7467 ,064-713-5008
핏제리아마노,NOT_RECORD,33.4844289376836,126.429196647648,제주특별자치도 제주시 우령6길 75-2 1층, 064-742-7987
돈풍년,NOT_RECORD,33.4937795670783,126.541049044792,제주특별자치도 제주시 승천로 52 ,064-713-5252
용출횟집,NOT_RECORD,33.5162206877035,126.507601146737,제주특별자치도 제주시 서해안로 660 용두암1차현대아파트,064-742-9244
아노드,NOT_RECORD,33.4723830360693,126.546868507561,제주특별자치도 제주시 인다13길 12 1층 103호,0507-1380-9505
명물식당,NOT_RECORD,33.5166795322829,126.516950468471,제주특별자치도 제주시 탑동로11길 2-1 , 064-723-5233
몽실할머니순대,NOT_RECORD,33.511684,126.518346,제주특별자치도 제주시 서문로6길 1-1 ,010-3352-8180
등대와바당,NOT_RECORD,33.506082,126.464621,제주특별자치도 제주시 도두항서길 37 ,064-743-0551
새우동,NOT_RECORD,33.4987047800859,126.530767272853,제주특별자치도 제주시 중앙로 237 2층,010-7240-1371
제주오라성,NOT_RECORD,33.4596235354265,126.51183928863,제주특별자치도 제주시 오라남로 16 ,064-748-3005
만세국수(삼성혈점),NOT_RECORD,33.4976664288385,126.537074646477,제주특별자치도 제주시 연삼로 437 ,064-727-7056
윌리스,NOT_RECORD,33.5218766114956,126.586223736231,제주특별자치도 제주시 지석15길 7 ,010-7689-1036
치로리,NOT_RECORD,33.505887396405,126.540701882785,제주특별자치도 제주시 고마로 94 청풍아트빌 1층,0507-1310-878
태백산(본점),NOT_RECORD,33.494740419269,126.467202329112,제주특별자치도 제주시 도공로 154-12 ,064-744-0001
해광식당,NOT_RECORD,33.5162218553848,126.530829548404,제주특별자치도 제주시 산지로 1-2 ,064-722-3097
한라식당,NOT_RECORD,33.500467,126.531924,제주특별자치도 제주시 광양9길 19 ,064-758-8301
베이커스비,NOT_RECORD,33.5019789745653,126.530878747578,제주특별자치도 제주시 동광로3길 2 ,010-7221-9033
신해바라기분식,NOT_RECORD,33.5142114384906,126.525937732194,제주특별자치도 제주시 관덕로13길 13 ,064-757-3277
탐모라,NOT_RECORD,33.51880712831151,126.51813762592138,제주특별자치도 제주시 탑동로 66 라마다프라자호텔,064-729-8380
덕성원(이도점),NOT_RECORD,33.49141,126.544724,제주특별자치도 제주시 신설로11길 8-6 ,064-759-0010
아카우마,NOT_RECORD,33.4976550783368,126.529180813791,제주특별자치도 제주시 광양14길 17 ,0507-1350-656
코코분식,NOT_RECORD,33.4967724443598,126.530042498672,제주특별자치도 제주시 신성로 104 ,064-751-1118
아일랜드팩토리 풍류,NOT_RECORD,33.5105174891967,126.523365331925,제주특별자치도 제주시 관덕로8길 31 ,010-7559-1800
가치,NOT_RECORD,33.516446324227,126.515781230041,제주특별자치도 제주시 동한두기길 17 용담마이빌 1층,010-8477-5945
골든와틀,NOT_RECORD,33.5127949690575,126.580969469249,제주특별자치도 제주시 건주로 73 메트로빌딩 ,064-723-7073
보목,NOT_RECORD,33.4724471144528,126.543299493728,제주특별자치도 제주시 아란9길 19 ,064-755-3374
도르다이닝,NOT_RECORD,33.4720416051974,126.550161821317,제주특별자치도 제주시 인다2길 65 ,070-4085-5017
더블루,NOT_RECORD,33.5188061398631,126.518138492511,제주특별자치도 제주시 탑동로 66 라마다프라자호텔,064-729-8305
온리커피스튜디오,NOT_RECORD,33.4723580424149,126.550155345146,제주특별자치도 제주시 인다13길 44 아트빌상가 1층,010-6408-7727
채색,NOT_RECORD,33.4893967147156,126.536175628627,제주특별자치도 제주시 구남동2길 15-4 카페 채색,010-4822-7116
라이터스블럭,NOT_RECORD,33.4935568284907,126.544433067157,제주특별자치도 제주시 신설로5길 8 영빌리지 1층 ,070-4110-1947
하노이안브라더스,NOT_RECORD,33.509626,126.543621,제주특별자치도 제주시 천수동로 1 ,064-752-7494
한일식당,NOT_RECORD,33.5125874068371,126.527141612258,제주특별자치도 제주시 동문로 6-4 ,064-758-4614
물항식당(탑동점),NOT_RECORD,33.516909,126.529141,제주특별자치도 제주시 임항로 37-4 ,064-755-2731
제주에가면,NOT_RECORD,33.5147353182838,126.518008437497,제주특별자치도 제주시 탑동로 119 제주에가면,064-758-2119
오로섬,NOT_RECORD,33.518922,126.493416,제주특별자치도 제주시 어영길 10-6 ,064-742-9899
대돈,NOT_RECORD,33.5158850112082,126.526726608136,제주특별자치도 제주시 관덕로15길 29 ,064-757-7400
고양옥,NOT_RECORD,33.4945808645344,126.548152786765,제주특별자치도 제주시 연신로 78 1층 고양옥,064-722-9554
호두파이가맛있는집,NOT_RECORD,33.4967465122125,126.538979416681,제주특별자치도 제주시 승천로 11-1 ,064-759-5678
백성원해장국,NOT_RECORD,33.50132,126.531345,제주특별자치도 제주시 동광로4길 1 ,064-724-0792
빵의정석,NOT_RECORD,33.5209446458277,126.585741204485,제주특별자치도 제주시 일주동로 380-1 ,064-725-0567
빠네띠에,NOT_RECORD,33.49483,126.546352,제주특별자치도 제주시 신설로9길 25 ,064-723-3337
파도식당,NOT_RECORD,33.511295,126.530582,제주특별자치도 제주시 성지로 68-1 ,064-753-3491
만세국수,NOT_RECORD,33.49408799463308,126.51877820488961,제주특별자치도 제주시 오라로 152 ,064-702-7056
화성식당,NOT_RECORD,33.521372,126.586047,제주특별자치도 제주시 일주동로 383 ,064-755-0285
프릳츠(제주성산점),NOT_RECORD,33.4595987798601,126.930361087152,제주특별자치도 서귀포시 성산읍 일출로 222 ,0507-1468-2045
서귀피안베이커리,NOT_RECORD,33.4352538752549,126.921975056953,제주특별자치도 서귀포시 성산읍 신양로122번길 17 주식회사 에스피피,064-783-7884
성산해나,NOT_RECORD,33.4625235857138,126.93294806973,제주특별자치도 서귀포시 성산읍 성산중앙로 30-1 ,010-6653-2820
돌하르방뚝배기식당,NOT_RECORD,33.461192,126.933908,제주특별자치도 서귀포시 성산읍 일출로 264 ,064-784-6888
충남식당,NOT_RECORD,33.4697934026635,126.9299455324,제주특별자치도 서귀포시 성산읍 성산등용로 94-1 ,064-782-4655
산도롱맨도롱,NOT_RECORD,33.496811235714645,126.9103845738485,제주특별자치도 제주시 구좌읍 해맞이해안로 2284 ,064-782-5105
로이앤메이,NOT_RECORD,33.4094889585963,126.900889549879,제주특별자치도 서귀포시 성산읍 온평상하로15번길 12-7 ,0507-1417-810
한성식당,NOT_RECORD,33.46317,126.935018,제주특별자치도 서귀포시 성산읍 일출로 287 ,064-782-4646
도너츠윤(제주점),NOT_RECORD,33.449445734535,126.911162532937,제주특별자치도 서귀포시 성산읍 고성중앙로 79 ,070-4146-8156
우도랑,NOT_RECORD,33.5070141829619,126.942685176185,제주특별자치도 제주시 우도면 우도해안길 322 ,010-8479-0640
바다풍경,NOT_RECORD,33.464712,126.935856,제주특별자치도 서귀포시 성산읍 일출로288번길 17 ,064-784-9779
꼬스뗀뇨,NOT_RECORD,33.5098702104994,126.905254340198,제주특별자치도 제주시 구좌읍 해맞이해안로 2080 ,010-2331-7873
윌라라,NOT_RECORD,33.4628904334584,126.932916269112,제주특별자치도 서귀포시 성산읍 성산중앙로 33 ,010-8392-5120
오른,NOT_RECORD,33.4718015584104,126.915754333279,제주특별자치도 서귀포시 성산읍 해맞이해안로 2714 ,064-783-1559
