name,ribbonType,latitude,longitude,address,phone
기와집순두부조안본점,RIBBON_TWO,37.537252,127.302404,경기도 남양주시 조안면 북한강로 133 ,031-576-9009  
평양면옥,RIBBON_TWO,37.73097391295375,127.04753134428825,경기도 의정부시 평화로439번길 7 ,031-877-2282  
삼부자갈비,RIBBON_TWO,37.2736041648046,127.052603103031,경기도 수원시 영통구 중부대로 335  삼부리치안,031-211-8959  
가보정,RIBBON_TWO,37.274159,127.028696,경기도 수원시 팔달구 장다리로 282 의성빌딩,1600-3883  
강천매운탕,RIBBON_TWO,37.23475960865856,127.70886974015433,경기도 여주시 강천면 강천리길 85 ,031-882-5191  
고기리막국수,RIBBON_TWO,37.35999570353232,127.04009017799066,경기도 용인시 수지구 이종무로 157 ,031-263-1107  
서동관,RIBBON_TWO,37.670973,126.747625,경기도 고양시 일산서구 호수로856번길 7-7 ,031-922-7463  
능라도,RIBBON_TWO,37.395169,127.077575,경기도 성남시 분당구 산운로32번길 12 ,031-781-3989  
180커피로스터스,RIBBON_TWO,37.382513,127.151627,경기도 성남시 분당구 문정로144번길 4 ,031-8017-1180  
쉐즈롤,RIBBON_TWO,37.5975600326635,127.372518055161,경기도 양평군 서종면 낙촌길 7-7 ,031-775-8911  
흥선,RIBBON_TWO,37.73769071651059,127.04006607679563,경기도 의정부시 둔야로 20 중앙오피스텔,031-829-0707  
우동선,RIBBON_TWO,37.2799601701037,127.443704459258,경기도 이천시 중리천로 54 ,010-5544-1064  
평양면옥,RIBBON_TWO,37.385209,127.13449,경기도 성남시 분당구 안골로 27 ,031-701-7752  
원조분원붕어찜,RIBBON_TWO,37.495207,127.301134,경기도 광주시 남종면 산수로 1633 ,031-767-9055  
유치회관,RIBBON_TWO,37.25878303148087,127.03218609766743,경기도 수원시 팔달구 효원로292번길 67 ,031-234-6275  
언피니쉬드,RIBBON_ONE,37.5518130290607,127.184490015618,경기도 하남시 미사강변서로 16 하우스디스마트밸리 R118호,031-5175-7099  
마이보틀,RIBBON_ONE,37.3811733499784,127.130339166306,경기도 성남시 분당구 중앙공원로 54 시범단지우성아파트 단지 내 분산상가,010-5862-0703  
스너그로스터리,RIBBON_ONE,37.4807350060176,126.865332670084,경기도 광명시 시청로 50 상가 A동 AA123호,02-3666-2010  
스시야,RIBBON_ONE,37.3630091848763,127.106533316945,경기도 성남시 분당구 정자일로 146 엠코헤리츠1단지 101-203호,031-717-6689  
부산양곱창,RIBBON_ONE,37.391140916368,126.954021096467,경기도 안양시 동안구 평촌대로223번길 28 ,031-382-1917  
옛날순두부집,RIBBON_ONE,37.4767690276423,127.18889697251,경기도 광주시 남한산성면 남한산성로 732 ,031-745-4619  
르디투어,RIBBON_ONE,37.3121197599694,127.054940225552,경기도 수원시 영통구 웰빙타운로36번길 46-234  ,031-217-0004  
이태리백반,RIBBON_ONE,37.4888768572114,126.781865195693,경기도 부천시 장말로362번길 30 삼양빌딩,070-4001-1356  
그릴휘바,RIBBON_ONE,37.7164020556989,126.980321567814,경기도 양주시 장흥면 호국로550번길 107 ,031-877-5177  
호커스포커스로스터스,RIBBON_ONE,37.0634561436965,127.076301876617,경기도 평택시 장안웃길 12 ,031-662-7783  
차고145,RIBBON_ONE,37.3944039022277,127.108352326702,경기도 성남시 분당구 판교역로 145 알파리움2단지 1층,031-781-1450  
쿠:움,RIBBON_ONE,37.4153135803913,126.814831818348,경기도 시흥시 매화로 45 ,010-6214-7071  
화사랑아사도,RIBBON_ONE,37.7332067042515,127.042313809623,경기도 의정부시 경의로 61 ,031-836-7171  
마당넓은집,RIBBON_ONE,37.4261951209836,127.438733651565,경기도 여주시 산북면 양자산길 215 ,031-885-7772  
오월식당,RIBBON_ONE,37.3433762101927,127.061009835122,경기도 용인시 수지구 동천로 411 ,070-8865-2009  
수래옥,RIBBON_ONE,37.368241209595,127.101050800176,경기도 성남시 분당구 대왕판교로 275 ,031-711-5758  
꿀양집,RIBBON_ONE,37.6775848797429,126.75588635188,경기도 고양시 일산서구 대산로211번길 7-17 ,031-923-3590  
다안토니오,RIBBON_ONE,37.5249785082314,127.456202066521,경기도 양평군 옥천면 향교길45번길 13 ,031-773-5228  
사적인접시,RIBBON_ONE,37.6952127333096,126.76201157783,경기도 고양시 일산서구 일현로 97-11 제니스 1동 174호,010-9143-4455  
이나까,RIBBON_ONE,37.4754603774713,126.869641862784,경기도 광명시 오리로856번길 26 영일빌딩 2층 ,02-518-3185  
용마루,RIBBON_ONE,37.4807094380316,127.182921474571,경기도 광주시 남한산성면 남한산성로780번길 35 ,031-746-9206  
송유향,RIBBON_ONE,37.4011208765501,127.222314340289,경기도 광주시 순암로 270 ,031-765-1171  
부흥국수,RIBBON_ONE,37.744067234891,127.055799145579,경기도 의정부시 장곡로 458 ,031-841-4939  
라체나,RIBBON_ONE,37.4717477607087,127.312256892534,경기도 광주시 퇴촌면 천진암로 360 ,031-798-7981  
한소헌,RIBBON_ONE,37.3653315106286,127.107704982095,경기도 성남시 분당구 성남대로331번길 3-3 2층 206호,031-711-9220  
라라테이블,RIBBON_ONE,37.3635093517969,127.127976868476,경기도 성남시 분당구 발이봉남로31번길 2 ,031-711-9998  
두수고방,RIBBON_ONE,37.2730876685805,127.061262679777,경기도 수원시 영통구 광교호수공원로 80 앨리웨이 어라운드 라이프 3층,031-548-1912  
포레스트아웃팅스,RIBBON_ONE,37.665621799875,126.813495004411,경기도 고양시 일산동구 고양대로 1124 ,031-963-0500  
다미홍,RIBBON_ONE,37.4526501741667,126.818181446297,경기도 시흥시 범안로 335-12 ,031-313-0365  
소곱친구,RIBBON_ONE,37.2591165009604,127.044694930826,경기도 수원시 영통구 효원로 393 밀레니엄프라자 2층 202-203호,031-213-3332  
다람쥐할머니,RIBBON_ONE,37.2349083288511,126.863157153268,경기도 화성시 비봉면 비봉로 165 ,031-356-7636  
요요연연,RIBBON_ONE,37.3586035473385,126.926394640697,경기도 군포시 산본천로 18 을지아파트 상가,010-3952-3306  
쉐프맥나인,RIBBON_ONE,37.6635816881275,127.247449080772,경기도 남양주시 천마산로 21 스마트스퀘어 1층,070-7762-3003  
빵에갸또,RIBBON_ONE,37.6580852251838,127.127937957506,경기도 남양주시 두물로39번길 25 ,031-528-6424  
용암리막국수,RIBBON_ONE,37.8582760438596,127.052313702152,경기도 양주시 은현면 평화로1889번길 46-12 ,031-859-6223  
스시미우,RIBBON_ONE,37.3916255624152,126.97293973413,경기도 안양시 동안구 흥안대로 415 두산벤처다임 250호,010-8407-2489  
오크힐스테이크,RIBBON_ONE,37.7053075158769,127.059504591205,경기도 의정부시 동일로150번길 102 2층,031-876-3654  
일월담,RIBBON_ONE,37.7044693124774,127.057929822036,경기도 의정부시 동일로150번길 119 ,031-874-3377  
파크프리베,RIBBON_ONE,37.7062313364754,127.060990898967,경기도 의정부시 동일로192번길 28-27 ,031-873-9200  
해피누디,RIBBON_ONE,37.29090528471981,127.04772676181096,"경기도 수원시 영통구 도청로 95 유니코어, 지하1층 104호",010-7654-3340  
수갈비,RIBBON_ONE,37.63822371507417,126.66414659944488,경기도 김포시 김포한강3로237번길 17 1층,031-989-2389  
양우정(판교점),RIBBON_ONE,37.395800819414,127.107592379777,경기도 성남시 분당구 대왕판교로606번길 10 라스트리트 1동 112호,031-706-9252  
플린,RIBBON_ONE,37.168718051251,127.108730059719,경기도 화성시 동탄대로6길 17 ,031-377-7896  
카츠쇼쿠도우,RIBBON_ONE,37.39426202230159,127.11036477013562,경기도 성남시 분당구 판교역로 152 지하1층,031-622-7134  
야키도리켄지 ,RIBBON_ONE,37.3130512282884,127.079016703977,경기도 용인시 수지구 수지로 119  데이파크 c동 122호,031-480-8592  
돈가스온기,RIBBON_ONE,37.49010124126421,126.75536987358142,경기도 부천시 송내대로74번길 23 양지프라자,032-324-4450  
보노보노,RIBBON_ONE,37.396716696657684,127.11005215357467,경기도 성남시 분당구 판교역로 180 알파타워,031-701-1316  
타이마실,RIBBON_ONE,37.4003304236136,126.918805979795,경기도 안양시 만안구 양화로72번길 83-25 ,031-466-8880  
인생화로,RIBBON_ONE,37.6388401439198,126.62700888618926,경기도 김포시 김포한강9로12번길 7-15 1층,031-981-6227  
양바위,RIBBON_ONE,37.397322467386175,127.1135630623978,"경기도 성남시 분당구 동판교로177번길 25 판교호반 써밋플레이스 110, 111호",031-706-9288  
안산국보만두,RIBBON_ONE,37.310215415104416,126.82741783962383,"경기도 안산시 단원구 광덕서로 62 고잔법조빌딩 101,102호",031-481-9882  
모아냉면,RIBBON_ONE,37.85971485931228,126.77732163659992,경기도 파주시 문산읍 방촌로 1622 ,031-952-9002  
크리밀크,RIBBON_ONE,37.5992044446472,127.13817040116882,경기도 구리시 안골로63번길 39 ,070-7743-0109  
프롬이태리,RIBBON_ONE,37.7758102311379,127.165241103361,경기도 포천시 소흘읍 죽엽산로 669 ,02-395-0414  
재이식당,RIBBON_ONE,37.6707366132961,126.783659544436,경기도 고양시 일산동구 일산로380번길 53 ,070-7763-1036  
헬로오드리,RIBBON_ONE,37.379959882597795,127.0470289058939,경기도 성남시 분당구 석운로202번길 12 ,031-8017-8746  
산골농원,RIBBON_ONE,37.59638857053523,127.51002380704577,경기도 가평군 설악면 어비산길99번길 75-7 ,031-584-7415  
"카페,진정성",RIBBON_ONE,37.73137949343418,126.6288548291297,경기도 김포시 하성면 하성로 660 ,031-986-5520  
오봉베르,RIBBON_ONE,37.2938971146561,127.05513606578843,경기도 수원시 영통구 센트럴파크로127번길 142 지하 1층,010-2326-2104  
데니스스모크하우스,RIBBON_ONE,37.712254211998385,126.97136588453453,경기도 양주시 장흥면 북한산로 1014-4 1층,031-829-0290  
더댄디라이언,RIBBON_ONE,37.3914384951671,127.090167716267,경기도 성남시 분당구 판교공원로3길 10 1층 101호,031-8017-8911  
평양냉면양각도,RIBBON_ONE,37.6592384391903,126.7673440822,경기도 고양시 일산동구 호수로 640 청원레이크빌 1층 103~106호,031-923-9913  
데이빗앤룰스,RIBBON_ONE,37.391545,127.099619,경기도 성남시 분당구 서판교로44번길 17-7 ,031-8016-8910  
오스테리아308,RIBBON_ONE,37.5588264366331,127.204686431376,경기도 하남시 미사대로 520 B동 2층 22호,070-8834-6673  
이탈리,RIBBON_ONE,37.392793537537784,127.11208816175997,경기도 성남시 분당구 판교역로146번길 20 현대백화점 판교점 지하 1층,031-5170-1061  
오크힐커피,RIBBON_ONE,37.705339,127.058894,경기도 의정부시 동일로150번길 114 ,031-877-3654  
면통단,RIBBON_ONE,37.417262,127.124761,경기도 성남시 중원구 성남대로997번길 51-2 ,031-755-1222  
동무밥상,RIBBON_ONE,37.6720891098678,126.80704892127,경기도 고양시 일산동구 고양대로 1032 ,02-322-6632  
드까르멜릿,RIBBON_ONE,37.520594,127.14635,경기도 하남시 동남로524번길 24 ,02-484-8260  
나래한옥레스토랑,RIBBON_ONE,37.359691,127.373091,경기도 광주시 곤지암읍 광여로313번길 22 ,031-766-7786  
산의아침,RIBBON_ONE,37.354481,127.045699,경기도 용인시 수지구 샘말로 96 ,031-265-2200  
신창면옥,RIBBON_ONE,37.053413,127.07921,경기도 평택시 장안길 7 ,031-682-4887  
양평해장국,RIBBON_ONE,37.573371,127.122357,경기도 구리시 아차산로 188-4 ,031-562-9145  
세렌,RIBBON_ONE,37.389857,127.083679,경기도 성남시 분당구 운중로188번길 11 1층,031-709-0775  
정인면옥평양냉면,RIBBON_ONE,37.482906,126.856677,경기도 광명시 목감로268번길 27-1 ,02-2683-2612  
양평축협한우프라자,RIBBON_ONE,37.490452,127.472459,경기도 양평군 강상면 강남로 851 ,031-772-7793  
매초산성,RIBBON_ONE,37.889885,127.095333,경기도 동두천시 삼육사로 1324-15 ,031-859-1112  
몽모랑시,RIBBON_ONE,37.632076,126.833463,경기도 고양시 덕양구 백양로 71 삼라마이다스빌 1층,031-973-0440  
비소원,RIBBON_ONE,37.405374023183406,126.96907052648785,경기도 안양시 동안구 관악대로 415 ,031-425-7794  
상해루,RIBBON_ONE,37.2010429017684,127.073465269243,경기도 화성시 노작로 147 돌모루프라자,031-8015-0103  
모던기와,RIBBON_ONE,37.561663,127.113871,경기도 구리시 아차산로 37 ,02-2049-0118  
스시소우,RIBBON_ONE,37.392261,126.956503,경기도 안양시 동안구 시민대로 230 평촌아크로타워 4층 405,031-388-3435  
네자매평강막국수,RIBBON_ONE,37.67419426196459,127.5022358391344,경기도 가평군 설악면 한서로 87 ,031-585-1898  
삼도갈비,RIBBON_ONE,37.496684,126.742578,경기도 부천시 상이로85번길 32 ,032-324-8600  
스시쿤,RIBBON_ONE,37.3708468914338,127.107483463032,경기도 성남시 분당구 성남대로 389 폴라리스2차 115호,031-719-6972  
용성통닭,RIBBON_ONE,37.279586,127.017623,경기도 수원시 팔달구 정조로800번길 15 ,031-242-8226  
명가,RIBBON_ONE,37.343379,126.985011,경기도 의왕시 솔고개길 23 ,031-429-9030  
원조두지리매운탕1호점,RIBBON_ONE,37.96393284246067,126.89385434085042,경기도 파주시 적성면 술이홀로2316번길 45 ,031-959-5377  
백암식당,RIBBON_ONE,37.163874,127.373618,경기도 용인시 처인구 백암면 근창로 17-8 ,031-322-5432  
겐,RIBBON_ONE,37.409542,127.126811,경기도 성남시 분당구 야탑로 72 ,031-704-5545  
흙토담골,RIBBON_ONE,37.47789,127.371932,경기도 광주시 퇴촌면 석둔길 3 ,031-767-2855  
일출보리밥,RIBBON_ONE,37.3787674159352,126.985154040533,경기도 의왕시 손골길 13 ,031-421-1142  
다루마야,RIBBON_ONE,37.661657,126.766876,"경기도 고양시 일산동구 무궁화로 18 남정 씨티프라자I, 112호",031-907-1414  
알레그리아(판교점),RIBBON_ONE,37.401239,127.110502,경기도 성남시 분당구 판교역로 230 삼환하이펙스 B동 1층 119호,031-696-0305  
옥천냉면황해식당,RIBBON_ONE,37.5110670495195,127.449715164662,경기도 양평군 옥천면 경강로 1493-12 ,031-773-3575  
올라!백운호수점,RIBBON_ONE,37.374307,127.006192,경기도 의왕시 의일로 25 ,031-426-1008  
평양면옥,RIBBON_ONE,37.7203298610875,126.982111943242,경기도 양주시 장흥면 호국로 615 ,031-826-4231  
쌍령해장국,RIBBON_ONE,37.391651,127.285134,경기도 광주시 초월읍 현산로 12 ,031-766-7823  
행하령수제비,RIBBON_ONE,37.348534,127.110605,경기도 성남시 분당구 성남대로144번길 14 ,031-716-2335  
지리산어탕국수,RIBBON_ONE,37.600509,126.828232,경기도 고양시 덕양구 행주로15번길 13 ,031-972-6736  
어향미가,RIBBON_ONE,37.301206,127.407957,경기도 이천시 경충대로 3066 ,031-633-3010  
강계봉진막국수,RIBBON_ONE,37.4031963748567,127.548956896926,경기도 여주시 대신면 천서리길 26 ,031-882-8300  
쌍용해장국,RIBBON_ONE,37.289818,127.506064,경기도 이천시 부발읍 중부대로1796번길 5 ,031-636-3319  
진미식당,RIBBON_ONE,37.944939,126.837369,경기도 파주시 파평면 장마루로 261 ,031-958-3321  
덕화원,RIBBON_ONE,37.84399,127.062494,경기도 양주시 덕정길 4 ,031-858-0103  
명신반점,RIBBON_ONE,38.024138598070145,127.0697328494338,경기도 연천군 전곡읍 전곡역로 61 ,031-832-2307  
은하장,RIBBON_ONE,37.858448,126.78604,경기도 파주시 문산읍 문향로 78 뮤직갤러리,031-952-4121  
인하찹쌀순대,RIBBON_ONE,37.481032,126.773107,경기도 부천시 심곡로34번길 43 ,032-652-3834  
석기정,RIBBON_ONE,37.399857,126.921234,경기도 안양시 만안구 장내로139번길 55 ,031-444-6426  
매향통닭,RIBBON_ONE,37.28166168639556,127.01790662330005,경기도 수원시 팔달구 수원천로 317 ,031-255-3584  
대원옥,RIBBON_ONE,37.279325,127.0172,경기도 수원시 팔달구 정조로800번길 6-3 ,031-255-7493  
철산명가가마솥밥상,RIBBON_ONE,37.488361,126.869521,경기도 광명시 안양천로 459 2층,02-2060-9219  
슌,RIBBON_ONE,37.413459,127.125506,경기도 성남시 분당구 장미로 42 야탑리더스 빌딩1층,031-709-5795  
엘올리보,RIBBON_ONE,37.453321,127.002682,경기도 과천시 뒷골2로 16 에스엠케이 1층,02-502-1156  
봉순게장,RIBBON_ONE,37.509734,126.813308,경기도 부천시 역곡로284번길 18 ,032-682-0029  
묘향만두,RIBBON_ONE,37.56392,127.114868,경기도 구리시 아차산로 63 ,02-444-3515  
오지상함박스테이크,RIBBON_ONE,37.4614756956083,126.813913375415,경기도 부천시 옥길로 1 스타필드시티 4층 4135호,031-5173-3048  
진성장어,RIBBON_ONE,37.388827,126.971333,"경기도 안양시 동안구 귀인로 295 1층, 2층",031-422-6677  
군포해물탕,RIBBON_ONE,37.273409,127.04632,경기도 수원시 영통구 동수원로513번길 11 ,031-215-3705  
진미통닭,RIBBON_ONE,37.279589,127.01813,경기도 수원시 팔달구 정조로800번길 21 ,031-255-3401  
함흥곰보냉면,RIBBON_ONE,37.384299,126.960797,경기도 안양시 동안구 귀인로190번길 23 ,031-387-1122  
파스타까사,RIBBON_ONE,37.391459,126.953979,경기도 안양시 동안구 평촌대로227번길 26 세종상가,031-476-3053  
아름다운땅,RIBBON_ONE,37.250232,127.073516,경기도 수원시 영통구 청명남로4번길 2 ,031-204-8875  
어구미,RIBBON_ONE,37.259286,127.033171,경기도 수원시 팔달구 권광로134번길 35 ,031-238-8535  
셈프레베네,RIBBON_ONE,37.2653436061759,127.02832874822782,경기도 수원시 팔달구 효원로235번길 53 송덕빌딩 4층,031-235-2580  
수담,RIBBON_ONE,37.321861,127.11201,경기도 용인시 기흥구 죽전로27번길 14-6 ,031-897-6987  
르헤브드베베,RIBBON_ONE,37.326108,127.125589,"경기도 용인시 수지구 죽전로168번길 3-3 단대레드존상가 1층 101, 102호",031-889-5012  
큐슈울트라아멘,RIBBON_ONE,37.657549,126.772949,경기도 고양시 일산동구 정발산로 43-7 메리트윈 101호,031-904-7543  
진우동,RIBBON_ONE,37.386559,127.122112,경기도 성남시 분당구 황새울로335번길 8 덕산빌딩,031-708-1357  
페삭,RIBBON_ONE,37.378101,127.112294,경기도 성남시 분당구 황새울로214번길 8 MS프라자 306호,031-718-7852  
서현실비,RIBBON_ONE,37.385463,127.119615,경기도 성남시 분당구 황새울로311번길 14 서현리더스빌딩,031-8016-0624  
복성원,RIBBON_ONE,37.4949812740021,126.786010776513,경기도 부천시 부천로122번길 16 ,032-611-4278  
인화루,RIBBON_ONE,37.077823,127.055133,경기도 평택시 탄현로 283 ,031-666-2370  
홍태루,RIBBON_ONE,37.081192,127.055342,경기도 평택시 탄현로327번길 9 ,031-666-3871  
장안면옥,RIBBON_ONE,37.009903,127.269488,경기도 안성시 중앙로371번길 54 ,031-675-4703  
호성식당,RIBBON_ONE,36.962043,126.846998,경기도 평택시 포승읍 연암길 87 ,031-681-7786  
입주집,RIBBON_ONE,37.27928,127.017622,경기도 수원시 팔달구 팔달문로3번길 37 ,031-255-5384  
흘수선,RIBBON_ONE,37.394086,126.964462,경기도 안양시 동안구 부림로 121 동아프라자아케이드 1층,031-386-9545  
미도향,RIBBON_ONE,37.678567,126.75352,경기도 고양시 일산서구 대산로223번길 8-4 ,031-918-5332  
방일해장국,RIBBON_ONE,37.6773776561521,127.48724539953,경기도 가평군 설악면 신천중앙로 151 ,031-584-3116  
천현한우집,RIBBON_ONE,37.422119,127.314877,경기도 광주시 초월읍 무갑길 68 ,031-763-5762  
흑산도홍어,RIBBON_ONE,37.395855,126.919818,경기도 안양시 만안구 장내로 104 ,031-468-4566  
서종가든,RIBBON_ONE,37.604895,127.350947,경기도 양평군 서종면 무내미길 68 ,031-773-6035  
부산복칼국수,RIBBON_ONE,37.383039,126.961896,경기도 안양시 동안구 귀인로190번길 61-21 ,031-386-2849  
두꺼비집부대찌개,RIBBON_ONE,37.250822,127.075445,경기도 수원시 영통구 반달로 32 ,031-202-4267  
어랑생선구이,RIBBON_ONE,37.657128,126.771756,경기도 고양시 일산동구 정발산로 31-9 레이크프라자 1층,031-907-9295  
칸티푸르,RIBBON_ONE,37.330183,126.79105,경기도 안산시 단원구 다문화2길 28 ,031-493-9563  
뜨라또리아비니에올리,RIBBON_ONE,37.321336,127.110211,경기도 용인시 기흥구 죽전로15번길 8-1 ,031-889-4932  
센다이,RIBBON_ONE,37.367345,127.106285,경기도 성남시 분당구 정자일로 192 지.파크프라자,031-715-1470  
속초어시장,RIBBON_ONE,37.6617,126.769113,경기도 고양시 일산동구 무궁화로 32-23 우림보보카운티2차 1층,031-918-1325  
청춘구락부,RIBBON_ONE,37.663837,126.766269,경기도 고양시 일산동구 고봉로 32-26 삼호빌딩,031-925-8899  
송정갈비,RIBBON_ONE,37.333612,127.054328,경기도 용인시 수지구 신봉1로330번길 4-1 ,031-262-0010  
라그로타,RIBBON_ONE,37.33750561467525,127.29637266297199,경기도 광주시 도척면 도척윗로 278 ,031-8026-5566  
통일동산두부마을,RIBBON_ONE,37.78301,126.688811,경기도 파주시 탄현면 필승로 480 ,031-945-2114  
어랑손만두국,RIBBON_ONE,37.636282,127.224156,경기도 남양주시 경춘로 1084-25 ,031-592-2959  
산장대통령,RIBBON_ONE,37.78644,127.30017,경기도 가평군 상면 비룡로 1745 ,031-585-2081  
골목집소머리국밥,RIBBON_ONE,37.350299,127.339923,경기도 광주시 곤지암읍 경충대로 621 ,031-762-6265  
마방집,RIBBON_ONE,37.532074,127.217195,경기도 하남시 하남대로 674 ,031-791-0011  
명지원,RIBBON_ONE,37.971974,127.33082,경기도 포천시 일동면 화동로 1258 ,031-536-9919  
목향원,RIBBON_ONE,37.6834408119262,127.101599294224,경기도 남양주시 덕릉로1071번길 34-11 ,031-527-2255  
반구정임진강나루,RIBBON_ONE,37.8666618742878,126.753266235102,경기도 파주시 문산읍 반구정로 53-51 ,031-954-9898  
오복손두부,RIBBON_ONE,37.477512,127.186722,경기도 광주시 남한산성면 남한산성로 745-10 ,031-746-3567  
아지매,RIBBON_ONE,37.2788114675288,127.442615024054,경기도 이천시 서희로 36-1 ,031-635-0710  
유타로,RIBBON_ONE,37.386559,127.122112,경기도 성남시 분당구 황새울로335번길 8 덕산빌딩 101호 ,031-708-5999  
한채당,RIBBON_ONE,37.570818,127.201816,경기도 하남시 미사동로 38 ,031-791-8880  
엄지매운탕,RIBBON_ONE,37.4717592753964,127.309386573615,경기도 광주시 퇴촌면 천진암로 336 ,031-767-5839  
유정부대찌개,RIBBON_ONE,37.930495,127.05697,경기도 동두천시 평화로 2718 ,031-863-4491  
명덕잣나무집,RIBBON_ONE,37.860271,127.276886,경기도 포천시 화현면 봉화로 107 ,031-532-9734  
오산할머니집,RIBBON_ONE,37.153688,127.069121,경기도 오산시 오산로300번길 3 ,031-374-4634  
수원만두,RIBBON_ONE,37.281487,127.017367,경기도 수원시 팔달구 창룡대로8번길 6 ,031-255-5526  
원조삼거리부대찌개,RIBBON_ONE,37.86060193035685,126.78736003461722,경기도 파주시 문산읍 문향로 103 ,031-952-3431  
제일식당,RIBBON_ONE,37.164593,127.373623,경기도 용인시 처인구 백암면 백암로201번길 11 ,031-332-4608  
강민주의 들밥,RIBBON_ONE,37.22151451328498,127.36793816178398,경기도 이천시 마장면 지산로22번길 17 ,031-637-6040  
고야,RIBBON_ONE,37.646013472457035,127.36442901686172,경기도 남양주시 화도읍 북한강로 1542 ,031-592-1666  
유명산가마솥할머니해장국,RIBBON_ONE,37.622356,127.495098,경기도 가평군 설악면 유명로 883 ,031-584-9341  
덕소숯불고기,RIBBON_ONE,37.597186,127.231081,경기도 남양주시 와부읍 수레로 213 ,031-577-3892  
벌말매운탕,RIBBON_ONE,37.646234,126.548289,경기도 김포시 대곶면 대명항1로28번길 59 ,031-997-0626  
남강메기,RIBBON_ONE,37.659986,126.66587,경기도 김포시 김포대로 1535 ,031-985-7764  
광릉불고기,RIBBON_ONE,37.742977,127.199332,경기도 남양주시 진접읍 광릉내로82번길 40-1 ,031-527-6631  
삼대째손두부,RIBBON_ONE,37.681182,127.209479,경기도 남양주시 오남읍 진건오남로 531 ,031-573-0573  
나랏님이천쌀밥,RIBBON_ONE,37.300325,127.408381,경기도 이천시 경충대로 3052 ,031-636-9900  
가든갤러리,RIBBON_ONE,37.587843,127.174029,경기도 남양주시 강변북로632번길 57-28 ,031-566-7777  
참좋은생각,RIBBON_ONE,37.483483856649286,127.41103004721222,경기도 양평군 강하면 수대골길 45 ,031-774-7577  
오두산막국수,RIBBON_ONE,37.77139945696539,126.75896343405259,경기도 파주시 평화로 204 ,031-944-7022  
유니스의정원,RIBBON_ONE,37.311484,126.889064,경기도 안산시 상록구 반월천북길 139 ,031-437-2045  
원조파주골손두부,RIBBON_ONE,38.027707,127.278716,경기도 포천시 영중면 성장로 179 ,031-532-6590  
고바우설렁탕,RIBBON_ONE,37.507156,127.629957,경기도 양평군 용문면 은고갯길 3 ,031-771-0702  
평창갈비,RIBBON_ONE,37.664576,127.292126,경기도 남양주시 화도읍 묵현로 95 ,031-594-9933  
초계탕막국수,RIBBON_ONE,37.394453,127.423294,경기도 여주시 산북면 광여로 1024 ,031-884-7709  
김포한탄강,RIBBON_ONE,37.65486,126.670118,경기도 김포시 김포대로 1466 ,031-985-6556  
유정집,RIBBON_ONE,37.46169350447387,127.15572174393746,경기도 성남시 수정구 수정로 460-2 ,031-748-8791  
김네집,RIBBON_ONE,37.080863,127.052711,경기도 평택시 중앙시장로25번길 15 ,031-666-3648  
태능숯불갈비,RIBBON_ONE,37.63997,127.112829,경기도 구리시 금강로6번길 35 ,031-572-6652
팔미옥,RIBBON_ONE,37.2731660886751,127.00990075381,경기도 수원시 팔달구 효원로 3-1 2층,031-245-6325  
연지,RIBBON_ONE,37.332087,127.057705,경기도 용인시 수지구 신봉1로 291 ,031-896-5678  
커피의정원,RIBBON_ONE,37.37719,127.11212,경기도 성남시 분당구 백현로101번길 13 월드프라자 106호,031-712-2028  
신래향,RIBBON_ONE,37.740165,127.04824,경기도 의정부시 호국로1298번길 74 ,031-846-2910  
새소리물소리,RIBBON_ONE,37.454467,127.101943,경기도 성남시 수정구 오야남로38번길 10 ,031-723-7541  
강마을다람쥐,RIBBON_ONE,37.49286663174872,127.28287778831813,경기도 광주시 남종면 태허정로 556 ,031-762-5574  
건업리보리밥,RIBBON_ONE,37.387316,127.406447,경기도 광주시 곤지암읍 광여로 841 ,031-761-8148  
옥류담,RIBBON_ONE,37.66141,126.765133,"경기도 고양시 일산동구 호수로 672 대우메종리브르 1층, 101호 ",031-912-8222  
사각하늘,RIBBON_ONE,37.619222,127.357633,경기도 양평군 서종면 길곡2길 53 ,031-774-3670  
강마루,RIBBON_ONE,37.599965,126.820539,경기도 고양시 덕양구 행주산성로 99 ,031-971-5152  
군포식당,RIBBON_ONE,37.35547,126.947264,경기도 군포시 군포로556번길 6 ,031-452-0025  
들꽃향,RIBBON_ONE,37.381807,126.830523,경기도 시흥시 물왕수변로 12-1 ,031-405-4054  
둥근상시골집,RIBBON_ONE,37.3138071989344,126.915006165321,경기도 안산시 상록구 도마길 100 ,031-419-0788  
벨라로사,RIBBON_ONE,37.3625062165384,127.10754584296,경기도 성남시 분당구 성남대로 295 대림아크로텔 A동 상가 118호,031-717-7282  
산성한우생고기,RIBBON_ONE,37.462673,127.168628,경기도 성남시 수정구 산성대로 593 ,031-734-4687  
용문산중앙식당,RIBBON_ONE,37.545725,127.583343,경기도 양평군 용문면 용문산로 644 ,031-773-3422  
관촌순두부,RIBBON_ONE,37.29449,127.418517,경기도 이천시 경충대로 2934 ,031-635-6561  
미미향,RIBBON_ONE,38.031813,127.366263,경기도 포천시 이동면 화동로 2063 ,031-532-4331  
최네집,RIBBON_ONE,37.070208,127.064079,경기도 평택시 경기대로 1401 ,031-663-8922  
만포면옥,RIBBON_ONE,37.716905329933,126.971463676,경기도 양주시 장흥면 호국로 513 ,02-359-3917  
만강홍,RIBBON_ONE,37.386237,127.122389,경기도 성남시 분당구 황새울로 337 웰빙프라자 3층,031-705-8555  
명지쉼터가든,RIBBON_ONE,37.876633,127.529706,경기도 가평군 북면 가화로 777 ,031-582-9462  
반구정나루터집,RIBBON_ONE,37.868249,126.751795,경기도 파주시 문산읍 반구정로85번길 13 ,031-952-3472  
반구정어부집,RIBBON_ONE,37.8708822368302,126.756015769178,경기도 파주시 문산읍 사목로26번길 62 ,031-952-0117  
백제장,RIBBON_ONE,37.478665,127.183903,경기도 광주시 남한산성면 남한산성로780번길 3 ,031-746-4296  
메기일번지,RIBBON_ONE,37.659803,126.72505,경기도 고양시 일산서구 멱절길 22 ,031-918-3838  
초계탕,RIBBON_ONE,37.851081,126.889391,경기도 파주시 법원읍 초리골길 110 ,031-958-5250  
베이징코야,RIBBON_ONE,37.667363,126.767046,경기도 고양시 일산서구 중앙로 1376 한양상가 3층,031-917-5292  
보배네집,RIBBON_ONE,37.329752,127.648997,경기도 여주시 여양로 576-16 ,031-884-4243  
본수원갈비,RIBBON_ONE,37.2780143260641,127.04065858878,경기도 수원시 팔달구 중부대로223번길 41 ,031-211-8434  
산사랑,RIBBON_ONE,37.3531829701441,127.045723006646,경기도 용인시 수지구 샘말로89번길 9 ,031-263-6080  
소쇄원,RIBBON_ONE,37.699208,126.661054,경기도 김포시 하성면 금포로1915번길 53 ,031-983-8801  
송원막국수,RIBBON_ONE,37.826659,127.515231,경기도 가평군 가평읍 가화로 76-1 ,031-582-1408  
송월관,RIBBON_ONE,37.9010199093981,127.055046489727,경기도 동두천시 큰시장로 28-10 ,031-865-2428  
수레실가든,RIBBON_ONE,37.346317,127.154021,경기도 광주시 오포읍 수레실길 129 ,031-718-5292  
신라갈비,RIBBON_ONE,37.273741,127.049227,경기도 수원시 영통구 동수원로 538 ,031-212-2354  
아소산,RIBBON_ONE,37.659136,126.782642,경기도 고양시 일산동구 정발산로 128 ,031-903-5333  
안일옥,RIBBON_ONE,37.0076740444248,127.272894839101,경기도 안성시 중앙로411번길 20 ,031-675-2486  
영빈루,RIBBON_ONE,37.082699,127.056478,경기도 평택시 탄현로 341 ,031-666-2258  
오뎅식당,RIBBON_ONE,37.744091224976486,127.04949124304684,경기도 의정부시 호국로1309번길 7 ,031-842-0423  
옥천면옥,RIBBON_ONE,37.518043,127.455453,경기도 양평군 옥천면 옥천길 13 ,031-772-5187  
왈츠와닥터만,RIBBON_ONE,37.5919663107173,127.3384565303,경기도 남양주시 조안면 북한강로 856-37 ,031-576-0020  
유프로네,RIBBON_ONE,37.3367561018155,127.1730289056,경기도 용인시 처인구 모현읍 능원로 33 ,031-339-9180  
김근자할머니집,RIBBON_ONE,38.0353702681041,127.366895678769,경기도 포천시 이동면 장암1길 14 ,031-532-4667  
일산칼국수,RIBBON_ONE,37.670477,126.786049,경기도 고양시 일산동구 경의로 467 ,031-903-2208  
임금님쌀밥집,RIBBON_ONE,37.306306,127.403477,경기도 이천시 신둔면 경충대로 3134 ,031-632-3646  
진흥관,RIBBON_ONE,37.718258,126.975108,경기도 양주시 장흥면 호국로 550 ,031-826-4077  
참나무쟁이,RIBBON_ONE,37.794532,127.233365,경기도 포천시 내촌면 금강로 2458 ,031-531-7970  
파주옥,RIBBON_ONE,36.991943,127.087491,경기도 평택시 중앙2로 3 1층,031-655-2446  
평가옥,RIBBON_ONE,37.369541,127.110077,경기도 성남시 분당구 느티로51번길 9 ,031-786-1571  
평남면옥,RIBBON_ONE,37.9039038939775,127.051113879958,경기도 동두천시 생연로 127 ,031-865-2413  
향촌건업리묵집,RIBBON_ONE,37.385934,127.406676,경기도 광주시 곤지암읍 광여로 826 ,031-762-8467  
홍춘관,RIBBON_ONE,37.488516,127.492483,경기도 양평군 양평읍 한빛길 4 2층,031-774-7359  
갈릴리농원,RIBBON_ONE,37.83559,126.745579,경기도 파주시 탄현면 방촌로 1196 ,031-942-8400  
감미옥,RIBBON_ONE,37.408773,127.122856,경기도 성남시 분당구 탄천로 181 ,031-709-9448  
걸구쟁이네,RIBBON_ONE,37.264552,127.718884,경기도 여주시 강천면 강문로 707 ,031-885-9875  
경마장오리집,RIBBON_ONE,37.440992,127.010345,경기도 과천시 궁말로 20-4 ,02-502-7500  
고등반점,RIBBON_ONE,37.275018,127.002971,경기도 수원시 팔달구 팔달로52번길 43 ,031-255-3291  
고산떡갈비,RIBBON_ONE,37.742238,127.047801,경기도 의정부시 평화로562번길 13 ,031-842-3006  
광릉돌솥밥,RIBBON_ONE,37.749548,127.208623,경기도 남양주시 진접읍 금강로1845번길 1 ,031-527-3334  
김미자할머니집,RIBBON_ONE,38.034008,127.366108,경기도 포천시 이동면 화동로 2087 ,031-532-4459  
나주개미집,RIBBON_ONE,37.4876858884669,127.162164076795,경기도 하남시 학암로 52 ,02-400-8709  
다래식당,RIBBON_ONE,37.256643604615256,127.02630997050555,경기도 수원시 권선구 세권로195번길 28-3 양지빌딩,031-233-1627  
돈파스타,RIBBON_ONE,37.386134,127.123581,경기도 성남시 분당구 황새울로342번길 11 금호리빙스텔 2층,031-701-2155  
기와집양대창센타,RIBBON_ONE,37.505828,127.142883,경기도 하남시 감일남로 30 ,02-431-2329  
긴자,RIBBON_ONE,37.38339,127.138726,경기도 성남시 분당구 새마을로 75 ,031-701-7774  
강원한방토종삼계탕,RIBBON_ONE,37.489423,126.756409,경기도 부천시 부일로237번길 23 테마프라자 2층,032-325-9119  
생연칼국수삼계탕,RIBBON_ONE,37.903484,127.051357,경기도 동두천시 생연로 124 ,031-863-2011  
포비DMZ,RIBBON_ONE,37.8895387555879,126.740185879932,경기도 파주시 문산읍 임진각로 177 임진각,070-7774-6552  
멘야고코로,RIBBON_ONE,37.2779516081955,127.045384408359,경기도 수원시 영통구 월드컵로179번길 16 ,031-215-1259  
티나의식빵,RIBBON_ONE,37.6537984863297,126.887108412484,경기도 고양시 덕양구 세솔로 110-1 ,02-353-7238
모밥가,RIBBON_ONE,37.8037089442127,127.086580567137,경기도 양주시 송랑로 212 ,031-842-1178  
시골맛집,RIBBON_ONE,37.24512,127.651201,경기도 여주시 장여로 1662 ,031-882-8905  
두지리강촌매운탕,RIBBON_ONE,37.963275,126.893778,경기도 파주시 적성면 술이홀로2316번길 31 ,031-959-3858  
비스트로쎄봉,RIBBON_ONE,37.646721317027456,126.78027967720392,경기도 고양시 일산동구 강촌로26번길 15-17 ,031-901-0898  
우블리,RIBBON_ONE,37.6380494625681,126.789225760985,경기도 고양시 일산동구 경의로 19 현대밀라트 C동 1층,010-2412-8292  
스시료코,RIBBON_ONE,37.38114070975842,127.11664144633698,경기도 성남시 분당구 수내로 38 두산위브센티움1 1층 101호,031-719-2013  
광릉한옥집,RIBBON_ONE,37.743028,127.199285,경기도 남양주시 진접읍 광릉내로 36 ,031-574-6630  
남해소반,RIBBON_ONE,37.3766608532197,127.11623934422,경기도 성남시 분당구 내정로165번길 38 금호상가 2층,031-719-9199  
야마다야,RIBBON_ONE,37.33994,127.122346,경기도 성남시 분당구 구미로 124 굿모닝프라자1,031-713-5242  
구일가든,RIBBON_ONE,37.348582,127.348141,경기도 광주시 곤지암읍 광여로4번길 10 ,031-763-6366  
최미자소머리국밥,RIBBON_ONE,37.34610511811508,127.33547336747236,경기도 광주시 곤지암읍 도척로 58 ,031-764-0257  
봉덕칼국수,RIBBON_ONE,37.335601239552645,126.9656506849818,경기도 의왕시 징계골길 11 ,031-456-8464  
양수면옥,RIBBON_ONE,37.670701,126.791662,경기도 고양시 일산동구 애니골길 34 ,031-901-3377  
남부정육점,RIBBON_ONE,37.3971211074072,126.925135034907,경기도 안양시 만안구 장내로150번길 32 ,031-444-6305  
보타보타,RIBBON_ONE,37.60141191907545,126.78982120604137,경기도 김포시 고촌읍 아라육로152번길 210-22 MK빌딩 1층,031-998-2690  
고가,RIBBON_ONE,37.614011,126.759771,경기도 김포시 고촌읍 풍굴로92번길 54 ,031-986-5458  
데조로의집,RIBBON_ONE,37.403941,127.116242,"경기도 성남시 분당구 판교로 376 마크시티 퍼플 108,109호",031-8017-8248  
진영관,RIBBON_ONE,37.4905,127.488329,경기도 양평군 양평읍 양근강변길78번길 6 ,031-774-8519  
시그니쳐로스터스,RIBBON_ONE,37.3808648665764,126.959011352007,경기도 안양시 동안구 평촌대로127번길 88 ,070-7783-8904  
개성집,RIBBON_ONE,37.55939,127.234976,경기도 남양주시 와부읍 경강로 876 ,031-576-6497  
화천갈비,RIBBON_ONE,37.492131419966,127.488486784076,경기도 양평군 양평읍 양근로147번길 16-1 ,031-771-2487  
신내강호해장국,RIBBON_ONE,37.465696,127.528188,경기도 양평군 개군면 신내길 9 ,031-772-8627  
털보해물탕,RIBBON_ONE,37.483933,126.762629,경기도 부천시 경인로 65 ,032-662-6848  
양평신내서울해장국본점,RIBBON_ONE,37.465024,127.527817,경기도 양평군 개군면 신내길 16 ,031-773-8001  
송풍가든,RIBBON_ONE,37.306218,127.000671,경기도 수원시 장안구 경수대로 1013 ,031-252-4700  
만우정육점생고기식당,RIBBON_ONE,37.205778,127.543573,경기도 여주시 가남읍 태평로 68 ,031-883-6305  
피크닉엣더나무사이로,RIBBON_ONE,37.3797476315094,127.046035966335,경기도 성남시 분당구 석운로 194 ,070-4196-0885  
장지리가마솥해장국,RIBBON_ONE,37.396853,127.233867,경기도 광주시 순암로 150 ,031-767-8386  
핏제리아루카,NOT,37.5180310923224,127.601560547321,경기도 양평군 용문면 용문산로 234 ,031-772-3589  
포레스트피크닉,NOT,37.620737006622,126.902000367685,경기도 고양시 덕양구 서오릉로 317 ,02-3157-8820  
교하제면소,NOT,37.7792989644861,126.706911500686,경기도 파주시 탄현면 평화로 725 ,031-957-8989  
라플란드,NOT,37.7120838064194,126.6916603793,경기도 파주시 돌곶이길 178-3 ,031-949-9044  
달보드레파스타,NOT,37.3583199121192,126.932291369357,경기도 군포시 번영로 497 금화프라자 2층 안쪽,070-7543-1201  
위례정카페&펍,NOT,37.4690552424617,127.148487686413,경기도 성남시 수정구 위례순환로4길 8 ,010-8417-6650  
디유히엔콴,NOT,37.328978815662,126.789325290286,경기도 안산시 단원구 다문화1길 6 ,031-493-3756  
홍밀면옥,NOT,37.286639113092,126.989601971927,경기도 수원시 팔달구 수성로157번길 5-16 1층,031-271-4842  
제이스팟,NOT,37.394245407468,127.110306812433,경기도 성남시 분당구 판교역로 152 알파돔타워,031-622-7179  
재본소,NOT,37.3985205289857,126.923515934254,경기도 안양시 만안구 장내로149번길 9 ,031-443-2323  
파파라구,NOT,37.3857153001799,127.11197622411,경기도 성남시 분당구 판교역로10번길 22-3 ,031-709-5624  
의천각,NOT,37.4392567733968,127.142043268878,경기도 성남시 수정구 산성대로215번길 10-18 ,031-756-6783  
어썸브로,NOT,37.346716834357,127.33683332902,경기도 광주시 곤지암읍 곤지암로 102-54 ,010-4080-6124  
유림회관,NOT,37.5025416520547,126.775312407757,경기도 부천시 길주로 300 롯데백화점 중동점 10층,032-320-8182  
평양일미,NOT,37.2730876685805,127.061262679777,경기도 수원시 영통구 광교호수공원로 80 엘리웨이 어라운드라이프 3층,031-8067-7666  
목롯집,NOT,37.7449816431985,127.097374440948,경기도 의정부시 오목로205번길 21 ,010-7708-1990  
야키토리잔잔인계본점,NOT,37.2654257600945,127.032283173405,경기도 수원시 팔달구 인계로138번길 35 ,031-233-0877  
도미닉커피랩,NOT,37.2948029209528,127.053977556449,경기도 수원시 영통구 센트럴파크로127번길 46 ,070-8613-5494  
소문난이동갈비,NOT,38.026084,127.369043,경기도 포천시 이동면 화동로 1996 ,031-531-0721  
화양가옥수원역본점,NOT,37.2695484247883,127.007182472159,경기도 수원시 팔달구 향교로 58 ,031-247-0877  
연꽃언덕,NOT,37.5498463041723,127.325680288522,경기도 양평군 양서면 용늪언덕길 57 ,031-774-4577  
인더트립,NOT,37.2343229202265,127.197647496922,경기도 용인시 처인구 금령로12번길 6 ,010-9431-7190  
물레방아,NOT,37.233837,127.136181,경기도 용인시 기흥구 지삼로250번길 27 ,031-287-2447  
더더간장게장,NOT,37.6800494066693,126.849619975781,경기도 고양시 덕양구 원당로 357-1 ,031-969-8848  
카페소유,NOT,37.688414993185,127.107025407517,경기도 남양주시 순화궁로 729-11 ,031-571-2286  
중앙식당,NOT,37.16457714008792,127.3731742539236,경기도 용인시 처인구 백암면 근창로 13 ,031-333-7750  
지산가든,NOT,37.213758,127.36009,경기도 이천시 마장면 지산로 142 ,031-638-8626  
진미오리구이,NOT,37.613912,127.216631,경기도 남양주시 와부읍 석실로율석길 58 ,031-577-5292  
프리페어,NOT,37.6483457111138,126.682673480161,경기도 김포시 김포한강11로140번길 94 1층 102호 ,010-4903-0839  
디몰토,NOT,37.5251202773986,126.808976678374,경기도 부천시 원종로79번길 24 1층,010-6820-3529  
티바이양크레프리,NOT,37.7801153181292,126.709199797669,경기도 파주시 탄현면 국원말길 42 1층,031-941-0427  
청미횟집,NOT,37.213147,126.735644,경기도 화성시 송산면 사강로 177 ,031-357-7822  
호돌이문방구,NOT,37.4315957772898,127.131147622072,경기도 성남시 중원구 성남대로1140번길 16 ,031-722-1277  
오동추야,NOT,37.2902126872204,127.452146808163,경기도 이천시 증신로 160 ,031-631-9288  
카메라타,NOT,37.790014,126.699611,경기도 파주시 탄현면 헤이리마을길 83 ,031-957-3369  
커피리얼리스트,NOT,37.4944466184207,127.497513333446,경기도 양평군 양평읍 중앙로 80 ,031-771-1406  
옥루,NOT,37.6235022552194,126.833974728892,"경기도 고양시 덕양구 충장로 122 1층 101호, 113호",031-978-5959  
탈리,NOT,37.387732,127.1244,경기도 성남시 분당구 서현로 192 야베스밸리 2층,031-707-3192  
평양초계탕막국수,NOT,37.73903574282178,127.0377024565972,경기도 의정부시 둔야로33번길 34 ,031-874-6526  
여내울,NOT,37.2825214965929,127.613118494687,경기도 여주시 여주남로 70 ,031-886-1282  
평양초계탕막국수,NOT,37.501403,127.419594,경기도 양평군 강하면 강남로 309 ,031-772-8229  
풍성식당,NOT,37.1629310507097,127.376181633755,경기도 용인시 처인구 백암면 백암로 179 ,031-332-4604  
바스트로37,NOT,37.36286557105862,127.16416416344013,경기도 광주시 오포읍 문형산길 58 ,010-5929-8134
하백,NOT,37.6152126044709,127.343247005659,경기도 남양주시 화도읍 북한강로 1136 ,031-521-1234  
메종키친,NOT,37.7403639602762,127.060060431292,경기도 의정부시 능곡로 28 2층 ,031-846-9147  
핏제리아체뽀,NOT,37.2302220144557,127.187719923273,경기도 용인시 처인구 명지로60번길 15-21 ,031-336-2782  
소소,NOT,37.2758569444677,127.151277088807,경기도 용인시 기흥구 동백5로 22 가동 1층 143호,070-8822-2441  
리버헤드,NOT,37.2712134279757,127.007673979687,경기도 수원시 팔달구 고화로 18 1층 ,010-8024-3885  
갈비본질프리미엄,NOT,37.6507958617244,126.648031557932,경기도 김포시 양촌읍 김포한강4로 317 ,031-986-1223  
하술,NOT,37.6237024658783,127.152464010121,경기도 남양주시 다산중앙로123번길 9 로데오프라자 2층 202호,031-524-9935  
슈라즈케이크,NOT,37.6717982875005,126.748944739411,경기도 고양시 일산서구 호수로856번길 34-4 1층,070-4007-4574  
후이후이,NOT,37.2451294220493,127.061898704684,경기도 수원시 영통구 덕영대로 1566 더 판타지움 1층,031-8001-9700  
이진상회,NOT,37.2790228554903,127.400005934045,경기도 이천시 마장면 서이천로 648  ,070-8888-8882  
라온숨,NOT,37.6161705846195,127.343909364542,경기도 남양주시 화도읍 북한강로 1146 ,031-591-3433  
키오쿠,NOT,37.6658241156432,126.786527038246,경기도 고양시 일산동구 일산로330번길 45 1층,031-901-9015  
묵리459,NOT,37.1691204904098,127.238441675057,경기도 용인시 처인구 이동읍 이원로 484 ,031-335-4590  
군원,NOT,37.6509174810735,126.778893109192,경기도 고양시 일산동구 중앙로 1160 ,031-908-4057  
K.헤밍웨이베이커리카페&다이닝,NOT,37.3484540479686,127.102481434926,경기도 성남시 분당구 대왕판교로34번길 21 ,031-726-1001  
평장원,NOT,37.2746022216878,127.019038893742,경기도 수원시 팔달구 중부대로 22-13 ,031-245-0990  
홍원막국수,NOT,37.40258362825161,127.54722046598195,경기도 여주시 대신면 천서리길 12 ,031-882-8259  
문지리535,NOT,37.8300524673987,126.717986365934,경기도 파주시 탄현면 자유로 3902-10 ,010-3384-1243  
가야,NOT,37.462012,127.155515,경기도 성남시 수정구 수정로 458 ,031-746-7400  
갈비생각,NOT,37.777978,127.116132,경기도 포천시 소흘읍 광릉수목원로 1189 ,031-541-6100  
콩게미,NOT,37.2289131437365,127.103529207168,경기도 용인시 기흥구 공세로 20 ,031-285-5277  
신가네암소설렁탕,NOT,37.6602133454381,126.769110038547,경기도 고양시 일산동구 중앙로1275번길 60-30 일산 라페스타 B동 1층,031-903-9114  
르샹띠에,NOT,37.1127172516087,127.063723141391,경기도 평택시 진위면 하북4길 129-4 2층,031-667-8292  
호랑이굴,NOT,37.3919331303769,126.954812908919,경기도 안양시 동안구 시민대로 214 다운타운빌딩 1층 109호,031-381-1244  
태국식당팟퐁,NOT,37.3235860043263,127.124166403559,경기도 용인시 수지구 죽전로144번길 7-5 단대로데오타워 1층,031-898-1976  
포비든플레이스,NOT,37.8954467020524,126.732268893385,경기도 파주시 군내면 적십자로 139 ,없음
청춘조개,NOT,37.3430440576378,126.687114304828,경기도 시흥시 오이도로 199-1 ,010-8488-7338  
오롯,NOT,37.6148032731199,126.834456864566,경기도 고양시 덕양구 충장로 22 탑프라자 106호,010-3101-5707  
파스타가든,NOT,37.646736863068,126.789194642141,경기도 고양시 일산동구 강송로73번길 8-11 ,031-902-0148  
쉐누,NOT,37.7392520595464,127.431869207474,경기도 가평군 청평면 잠곡로91번길 29 ,031-584-5865  
송호성돈카츠,NOT,37.3132899396398,126.83263647222,경기도 안산시 단원구 광덕동로 99 현대타운,031-410-8209  
도너츠윤본점,NOT,37.9042780369488,127.042558029115,경기도 동두천시 벌마들로 26-38 ,070-8119-8156  
유일닭강정,NOT,37.8305618661562,127.513662956144,경기도 가평군 가평읍 가화로 122 ,031-581-6161  
포지티브스페이스566,NOT,37.6202730987382,126.69791747672,경기도 김포시 검단로 910 포지티브 스페이스566 1층,02-333-0008  
카페호야,NOT,37.3027233227865,127.402030633215,경기도 이천시 신둔면 황무로 485 한국도요 내,031-631-3333  
뷰66,NOT,37.5873233180689,127.176092468371,경기도 남양주시 강변북로632번길 66 ,031-559-5550  
덕화배꽃마을,NOT,37.6477644758004,127.108223240285,경기도 남양주시 불암산로 40 ,031-528-8674  
솥뚜껑닭볶음탕,NOT,37.5966418318946,127.50583778153,경기도 가평군 설악면 어비산길 130-18 ,010-5261-4503  
안안,NOT,37.3907470164198,127.076538502335,경기도 성남시 분당구 운중로138번길 28-4 ,031-705-4527  
떼네룸,NOT,37.6690229582856,126.775136185219,경기도 고양시 일산동구 대산로11번길 5-9 1층 떼네룸,0507-1425-1294  
그레이락,NOT,37.2887649094641,127.014846752926,경기도 수원시 팔달구 정조로 904-1 1층,010-9817-9665  
들풀,NOT,37.671123,127.503253,경기도 가평군 설악면 한서로124번길 16-12 ,031-585-4322  
커피미학,NOT,37.397233,127.113519,경기도 성남시 분당구 동판교로177번길 25 판교호반 써밋플레이스 2층,031-8017-0723  
디쎄베이커리,NOT,37.6412701660367,126.677601659359,"경기도 김포시 김포한강2로 41 제에비뉴동 1층, 제비-5호",070-8849-8512  
고삼묵밥,NOT,37.0868887226697,127.25768423309957,경기도 안성시 고삼면 무쇠막안길 2-8 ,031-672-7026  
장흥폭포수식당,NOT,37.745432,126.950005,경기도 양주시 장흥면 권율로309번길 169 ,031-855-5656  
란이네가든,NOT,37.3878279896615,127.406172935335,경기도 광주시 곤지암읍 광여로 849-11 ,031-798-6598  
한마당생고기,NOT,37.28985528511303,126.99953988069885,경기도 수원시 장안구 장안로75번길 61 1층,031-246-0288  
보리고개,NOT,37.752176,126.911992,경기도 파주시 광탄면 보광로471번길 41 ,031-948-1012  
자유로민물장어웅어회,NOT,37.6177453221276,126.823732396488,경기도 고양시 덕양구 토당로12번길 2 ,031-971-0418  
마산아구이천쌀밥,NOT,37.236475,127.365545,경기도 이천시 마장면 덕평로882번길 2-9 ,031-632-6924  
키와마루아지,NOT,37.276116,127.042669,경기도 수원시 팔달구 아주로13번길 22 ,031-214-9015  
프란로칼,NOT,37.610328,127.349205,경기도 양평군 서종면 북한강로 819 ,031-773-7576  
토정,NOT,37.4286793306214,126.990958708463,경기도 과천시 새술막길 10-13 태양빌딩 3층,02-502-1374  
하얀풍차,NOT,37.2417399462448,127.034165232558,경기도 수원시 권선구 곡반정로 160 라퍼스트 1동 134~136호,031-215-3738  
만수정,NOT,37.2836119964831,127.102645248432,경기도 용인시 기흥구 신정로 135 ,031-266-4357  
라스마가리타스,NOT,37.322039,127.109709,경기도 용인시 기흥구 죽전로15번길 15-8 101호,031-889-4343  
소담골,NOT,37.94648844599477,127.07083806116182,경기도 동두천시 평화로2910번길 148-24 ,031-867-5999  
비스킷테이블,NOT,37.7373676374438,127.048002050424,경기도 의정부시 평화로 508 ,031-878-7020  
고모리691,NOT,37.796848,127.160743,경기도 포천시 소흘읍 고모루성길 267 ,031-541-9691  
풍천장어전문,NOT,37.370244,127.107506,경기도 성남시 분당구 성남대로 381 폴라리스빌딩 3층,031-718-5129  
일미정,NOT,37.600935413386,126.814623801957,경기도 고양시 덕양구 행주산성로 168 ,031-974-0123  
삐쭉이백합칼국수,NOT,37.275527,126.569098,경기도 안산시 단원구 대부황금로 1337 ,032-886-1002  
숯고개부대찌개,NOT,37.081224,127.053926,경기도 평택시 쇼핑로 39-4 ,031-666-2768  
형네식당,NOT,37.744172,127.049408,경기도 의정부시 호국로1309번길 9 ,031-846-4833  
바다예찬,NOT,37.263471998622,127.030007009288,경기도 수원시 팔달구 효원로249번길 18-5 경일빌딩 101호,031-236-4466  
마쓰야키토리,NOT,37.6474587422116,126.784365937355,경기도 고양시 일산동구 강송로113번길 54-1 ,031-936-9292  
민쿡다시마,NOT,37.63248502195165,126.83253012533471,경기도 고양시 덕양구 화신로260번길 37 진솔그린프라자 110호,031-978-3236  
포크너,NOT,37.3181157520239,126.836545917769,경기도 안산시 단원구 예술대학로 11 해남빌딩,031-401-4752  
프레스비,NOT,37.2074774156432,127.061577748401,경기도 화성시 동탄공원로3길 14-11 102호,010-9470-0860  
카페톤,NOT,37.313907465278,127.261676912946,경기도 용인시 처인구 모현읍 초부로 192 ,070-4106-0007  
산비탈,NOT,38.070288,127.304672,경기도 포천시 영북면 산정호수로 295 ,031-534-3992  
베트남고향식당,NOT,37.328796,126.788736,경기도 안산시 단원구 중앙대로 443 ,031-492-0865  
예전한정식,NOT,37.464302,127.325932,경기도 광주시 퇴촌면 천진암로 515-14 ,031-767-0242  
두리원 손두부,NOT,37.712132,126.813111,경기도 고양시 일산동구 장진천길46번길 22-11 ,031-976-6009  
백련,NOT,37.743521,127.133423,경기도 남양주시 별내면 용암제청말길 121 ,031-841-6588  
빠니스비떼,NOT,37.657622,126.787738,경기도 고양시 일산동구 일산로 243 도헌프라자 1층,031-904-0505  
송전매운탕,NOT,37.135610900449585,127.20196414661103,경기도 용인시 처인구 이동읍 경기동로751번길 7 ,031-336-7339  
해올,NOT,37.41084231859582,127.12681732185294,경기도 성남시 분당구 야탑로75번길 9 금호프라자 2층,031-707-4947  
설하식당,NOT,37.59840918163189,127.33268940460381,경기도 남양주시 조안면 북한강로855번길 81 ,031-576-3336  
동강민물매운탕,NOT,37.17870579986039,127.23560917367021,경기도 용인시 처인구 이동읍 이원로 319 ,031-332-2913  
밀밭식당,NOT,37.858851,126.786431,경기도 파주시 문산읍 문향로 84 ,031-952-7152  
모니카플라워케이크,NOT,37.5070345183345,126.756627265925,경기도 부천시 송내대로265번길 37 아름다운프라자,070-7355-2220  
다인막국수,NOT,37.7981200375645,127.087774869486,경기도 양주시 송랑로 147 ,031-543-9995  
지장산막국수,NOT,38.089288,127.206909,경기도 포천시 관인면 창동로 895 ,031-533-1801  
앙토낭카렘,NOT,37.373895,127.136679,경기도 성남시 분당구 불정로 380 동남프라자,031-704-0715  
루프엑스,NOT,37.384991,127.114069,경기도 성남시 분당구 동판교로52번길 25-18 ,031-8016-2570  
마데몽,NOT,37.3899591966301,126.741757006715,경기도 시흥시 월곶중앙로46번길 24 2층,010-4134-9955
베네쿠치,NOT,37.390512,127.080551,경기도 성남시 분당구 운중로146번길 19 운천빌딩 1층,031-8016-0955  
스시카메,NOT,37.638306450255236,126.7883350735051,경기도 고양시 일산동구 호수로 340-28 비잔티움2단지 1층 101호,031-901-4843  
운멜로,NOT,37.284727,127.011474,경기도 수원시 팔달구 화서문로32번길 4 2층,031-256-0149  
카페휘바,NOT,37.715736,126.980949,경기도 양주시 장흥면 호국로550번길 111 ,031-877-5111  
블리스인씨암,NOT,37.384544,127.112721,경기도 성남시 분당구 판교역로2번길 10 ,031-8016-1184  
리오그릴,NOT,37.080044,127.050496,경기도 평택시 중앙시장로6번길 30-14 ,031-666-7136  
중평떡볶이,NOT,37.263915,127.03174,경기도 수원시 팔달구 효원로265번길 44 ,031-226-8878  
브릭스키친,NOT,37.002323567413434,127.11310319573755,경기도 평택시 비전9길 81 1층,010-2262-7149  
카페스토리,NOT,37.5548669403533,127.241313309074,경기도 남양주시 와부읍 팔당로81번길 74-65 ,031-577-5004  
미가들깨수제비충무김밥,NOT,37.3867307725774,127.121976391707,경기도 성남시 분당구 황새울로335번길 10 멜로즈프라자,031-8016-3832  
은성손두부,NOT,37.2277357065848,127.526248215706,경기도 여주시 가남읍 헌바디길 23-121 ,031-886-7579  
옛날맛손두부,NOT,37.256090701315,127.467264326586,경기도 이천시 부발읍 가좌로103번길 158 ,031-633-5190  
곽지원빵공방,NOT,37.5442312173592,127.316970349647,경기도 양평군 양서면 두물머리길8번길 28 ,031-774-0376  
대흥식당,NOT,37.1522240016999,127.069880176558,경기도 오산시 오산로278번길 9-12 ,031-374-4723  
능서돼지국밥,NOT,37.2993695906913,127.556073818925,경기도 여주시 흥천면 흥천로 5 ,070-4117-1155  
천서리막국수,NOT,37.402590512590365,127.54651124213107,경기도 여주시 대신면 여양로 1974 ,031-883-9799  
부용식당,NOT,37.1518607931522,127.069865996337,경기도 오산시 오산로278번길 11 ,031-377-1420  
항만식당,NOT,37.724784,126.537423,경기도 김포시 월곶면 김포대로 2954 ,031-981-0311  
도토리네칼국수,NOT,37.0365881423485,127.261978627337,경기도 안성시 사곡길 2 ,031-672-1621  
소희네묵집,NOT,37.849957456905386,127.3555636180345,경기도 가평군 조종면 운악청계로 387 ,031-585-5321  
아씨마늘보쌈,NOT,38.028942,127.067412,경기도 연천군 전곡읍 전곡로188번길 11 ,031-833-5353  
엔로제,NOT,37.645083,127.383202,경기도 양평군 서종면 화서로 32 ,031-774-6398  
일루션커피,NOT,37.8007949538143,126.792290791543,경기도 파주시 월롱면 통일로 1029 ,031-959-7896  
동성회관,NOT,37.429093,126.99119,경기도 과천시 새술막길 36 동성빌딩 1층,02-502-1333  
조순금닭도리탕,NOT,37.301092,126.864336,경기도 안산시 상록구 본삼로 39 인제빌딩 6층,031-501-1007  
빈센트반커피,NOT,37.201043590175736,126.98388317165512,경기도 화성시 봉담읍 세자로 399 ,031-235-5991  
정마루호박꽃,NOT,37.229927,127.301203,경기도 용인시 처인구 양지면 남평로 183 ,031-335-8118  
서오릉메카다슬기,NOT,37.627541409669014,126.89205531009365,경기도 고양시 덕양구 서오릉로 437 ,02-357-4779  
한터시골농장,NOT,37.261298,127.280359,경기도 용인시 처인구 양지면 한터로 690 ,031-339-6600  
청평호반닭갈비막국수,NOT,37.7343088942172,127.417268804586,경기도 가평군 청평면 강변로 45-7 청평호반닭갈비막국수,031-585-5921  
강영감네닭내장수구레,NOT,37.550651,127.185139,경기도 하남시 하남대로 1039 ,031-795-1821  
고복수평양냉면,NOT,36.989654,127.099759,경기도 평택시 조개터로1번길 71 ,031-655-4252  
태화루,NOT,37.080375,127.076242,경기도 평택시 동안길 1 ,031-662-3444  
수엠부,NOT,37.266915,127.003605,경기도 수원시 팔달구 매산로20번길 9 2층,031-258-3305  
평양면옥,NOT,37.064975,127.066444,경기도 평택시 서정로 300 ,031-665-8791  
옛집,NOT,37.387177,126.931869,경기도 안양시 만안구 만안로55번길 40 ,031-442-4886  
관악장,NOT,37.153796,127.116551,경기도 용인시 기흥구 농서로 162-2 ,031-693-5799  
구이동,NOT,37.330351,126.862813,경기도 안산시 상록구 태마당로 25 ,031-417-9290  
장수생고기,NOT,37.26221375039432,127.03380640492422,경기도 수원시 팔달구 효원로291번길 17 동건빌딩,031-239-3074  
최부자집,NOT,37.522671295194066,127.1893827799818,경기도 하남시 서하남로 447 ,031-796-0876  
레디쉬브라운,NOT,37.386215,127.110985,경기도 성남시 분당구 판교역로18번길 30 ,031-8016-2055  
마당곤드레밥,NOT,37.517814,127.600802,경기도 양평군 용문면 용문산로 239 ,031-775-0311  
건강한밥상,NOT,37.475781,127.188082,경기도 광주시 남한산성면 남한산성로 731-23 ,070-8883-3080  
모소밤부,NOT,37.3604833653476,127.057501262869,경기도 용인시 수지구 고기로 470 ,070-4667-3001  
민수라간장게장,NOT,37.384538,127.131216,경기도 성남시 분당구 새마을로7번길 5 ,031-705-0602  
연평도아구찜꽃게찜,NOT,37.382475,126.961744,경기도 안양시 동안구 귀인로190번길 71 ,031-384-9333  
석일식당,NOT,36.991127,127.106293,경기도 평택시 중앙로 209-1 ,031-652-9101  
온고재,NOT,37.5471470089019,127.248103061582,경기도 남양주시 와부읍 팔당로139번길 19-29 ,031-577-8702  
오륙하우스,NOT,37.9172957461617,127.05556844865,경기도 동두천시 상패로 210-9 ,031-865-5656  
제로투나인,NOT,37.390743244853894,127.08058799846955,경기도 성남시 분당구 운중로146번길 19-3 ,031-702-6625  
레드파이프,NOT,37.7259088838674,126.692823825906,경기도 파주시 지목로 17-7 ,031-944-0999  
산마루들녘에,NOT,37.507556,126.804999,경기도 부천시 길주로561번길 15 ,032-678-6506  
자작나무이야기,NOT,37.283619,127.277137,경기도 용인시 처인구 양지면 대대로 302 ,031-332-3928  
쉐푸스,NOT,37.277686,127.032426,경기도 수원시 팔달구 중부대로 150 라마다프라자수원 5층,031-230-0074  
브레드쏭,NOT,37.5547684273285,127.236521285686,경기도 남양주시 와부읍 경강로926번길 15 ,031-576-8522  
메종드포레,NOT,37.46797,127.193529,경기도 광주시 남한산성면 검복길 75 ,031-743-6625  
카페제부리,NOT,37.1706553456414,126.617326961215,경기도 화성시 서신면 해안길 330-1 ,010-7135-7776  
밤가시버거,NOT,37.66908084209575,126.7846206467847,경기도 고양시 일산동구 일산로372번길 46 ,031-813-9010  
카페문릿,NOT,37.5037389484964,127.596779609115,경기도 양평군 용문면 덕촌길 101 ,010-5047-1880  
아임홈,NOT,37.383983,127.111371,경기도 성남시 분당구 판교역로10번길 3-1 ,070-4418-0415  
달과6펜스 베이커리 카페,NOT,37.76849,127.463999,경기도 가평군 청평면 상지로 107 ,070-4124-2577  
베러펄슨,NOT,37.3914225476128,127.098199126463,경기도 성남시 분당구 서판교로58번길 4-4 ,010-6801-1440  
서호식당,NOT,37.7089697108985,127.446717722669,경기도 가평군 설악면 유명로 2343 ,031-584-0446  
양촌리아구,NOT,37.671987,126.736277,경기도 고양시 일산서구 대화2로 152 ,031-911-0430  
블루박스,NOT,37.714865,126.688692,경기도 파주시 문발로 240-21 ,031-955-7440  
하우스베이커리,NOT,37.5984974209966,127.35299416525,경기도 양평군 서종면 북한강로 684 ,031-772-8333  
호아마이,NOT,37.0819949824561,127.051304262123,경기도 평택시 신장1로17번길 2 ,031-664-2555  
달빛과자상점,NOT,37.6706530214042,126.782934247352,경기도 고양시 일산동구 일산로394번길 34 ,031-811-3128  
외갓집,NOT,37.7416322346961,126.651562507811,경기도 김포시 하성면 석평로 374-8 ,031-998-4331  
안나푸르나레스토랑,NOT,37.488105,126.784517,경기도 부천시 부흥로402번길 45 ,032-662-5075  
구스타프커피,NOT,37.6555683973189,126.684044231246,경기도 김포시 김포한강11로 312 ,010-7474-9962  
시골보리밥집,NOT,37.752553,126.910803,경기도 파주시 광탄면 보광로471번길 32-22 ,031-948-7169  
장단콩두부집,NOT,37.939574406888774,126.83659541575447,경기도 파주시 파평면 장마루로 197 ,031-958-6057  
유명숯불닭갈비,NOT,37.6718344853241,127.489842586264,경기도 가평군 설악면 신천중앙로 15 ,031-584-3381  
금강막국수닭갈비,NOT,37.772309,127.37141,경기도 가평군 상면 수목원로 16 ,031-584-5669  
일미순대국,NOT,37.2674005491516,127.001584347069,경기도 수원시 팔달구 향교로 2 ,031-251-9640  
아다미식당,NOT,37.267261,127.001742,경기도 수원시 팔달구 매산로 1-8 ,031-242-4190  
명산식당,NOT,37.267167,127.001695,경기도 수원시 팔달구 매산로 1-6 ,031-242-3999  
시골순대,NOT,37.301999,126.861147,경기도 안산시 상록구 용신로 351 대아상가,031-418-3352  
진미식당,NOT,36.99731600616009,127.08411634050975,경기도 평택시 통복시장2로9번길 15 ,031-652-2068  
아이노스,NOT,37.71195,126.691803,경기도 파주시 돌곶이길 182 ,031-948-1209  
해주탕집,NOT,36.9959698284941,127.087305842939,경기도 평택시 통복시장2로39번길 2 ,031-655-3893  
치화,NOT,37.391747615129944,127.0579811329386,경기도 성남시 분당구 하오개로351번길 3 2층,031-705-3335  
광천정육점식당,NOT,37.744058,127.200335,경기도 남양주시 진접읍 광릉내로 52 ,031-527-7002  
사마르칸트(안산점),NOT,37.32898,126.789622,경기도 안산시 단원구 다문화2길 3 ,031-492-6984  
골목집설렁탕,NOT,37.290928,127.014647,경기도 수원시 장안구 팔달로291번길 21-17 ,031-242-6059  
진미옥,NOT,37.9090507279755,127.052920243398,경기도 동두천시 생연로 185-1 ,031-865-3626  
더라운지,NOT,37.400367,127.094641,경기도 성남시 분당구 서판교로 162 랜드리스타워 1층,031-8016-8059  
진짜무릎도가니탕&설농탕,NOT,37.428219,127.24024,경기도 광주시 이배재로 141 ,031-765-3055  
효,NOT,37.36825247994039,127.10507494664158,경기도 성남시 분당구 느티로 2 AK와이즈플레이스 1층,031-712-2755  
풍년설렁탕해장국,NOT,37.291113,127.013503,경기도 수원시 장안구 팔달로271번길 40 ,031-243-8237  
안성마춤한우촌,NOT,37.036711,127.371225,경기도 안성시 삼죽면 신미1길 126 ,031-673-5550  
운봉농장,NOT,37.275154,127.041464,경기도 수원시 영통구 중부대로 236 ,031-213-5668  
진미회관,NOT,37.258423,127.041625,경기도 수원시 영통구 매탄로79번길 6-25 ,031-212-9266  
연안생태찌개,NOT,37.302364,126.852555,경기도 안산시 상록구 서암로3길 23 ,031-406-1104  
중앙가든,NOT,37.010171,127.208328,경기도 안성시 공도읍 서동대로 4557 중앙가든,031-618-9144  
태원정육식당,NOT,37.40347,126.908729,경기도 안양시 만안구 박달로507번길 19 ,031-443-9233  
넓은공간,NOT,37.945630103155146,127.06574948032265,경기도 동두천시 평화로2910번길 82 ,031-865-6787  
밥상마루,NOT,37.706976,126.686368,경기도 파주시 문발로 140 점프존상가 201호,031-955-1077  
미르,NOT,37.5493029817463,127.57216863809491,경기도 양평군 용문면 용문산로 766 ,031-774-8497  
원당헌,NOT,37.683009,126.850103,경기도 고양시 덕양구 원당로 390 ,031-965-0721  
오또코,NOT,37.368135,127.106274,경기도 성남시 분당구 느티로 16 젤존타워1,031-711-0771  
이노루,NOT,37.6451231955675,126.789593744818,경기도 고양시 일산동구 백석로86번길 74-14 ,070-4224-2022  
바타르,NOT,37.667212,127.248391,경기도 남양주시 천마산로 64 106호,031-592-0459  
온달면가,NOT,37.7937065038056,126.954414349751,경기도 양주시 백석읍 권율로 1125 ,031-855-1355  
보영식당,NOT,37.74434338722778,127.04975010056846,경기도 의정부시 태평로133번길 26 ,031-842-1129  
진미식당,NOT,37.743986,127.049687,경기도 의정부시 호국로1309번길 6 ,031-843-7729  
호수식당,NOT,37.909279,127.055106,경기도 동두천시 중앙로 312 ,031-865-3324  
통나무집,NOT,37.428956,126.991428,경기도 과천시 새술막길 38 중앙빌딩 1층,02-503-9555  
부부0325,NOT,37.667262879074514,126.77226247751234,경기도 고양시 일산동구 무궁화로93번길 29 ,070-8272-3108  
정통부대고기,NOT,37.742845,127.026183,경기도 의정부시 호국로 1102 ,031-872-7814  
대성부대고기전문,NOT,37.234959,127.206575,경기도 용인시 처인구 금령로90번길 3-6 ,031-335-3486  
실비식당,NOT,37.743338,127.028706,경기도 의정부시 호국로1123번길 12 ,031-872-1269  
개화식당,NOT,36.995628,127.085183,경기도 평택시 통복시장로6번길 2 ,031-655-2225  
화정가든,NOT,37.599468105125,126.826198744418,경기도 고양시 덕양구 행주로15번길 49-12 ,031-972-7705  
초가집순두부보리밥,NOT,37.901965504931674,127.30615344761831,경기도 포천시 화현면 화동로 395 ,031-533-0966  
눈솜,NOT,37.207676,127.064683,경기도 화성시 동탄지성로 94 하나로오피스텔 104호,070-7765-2806  
진짜원조소나무집,NOT,37.238745,126.613843,경기도 안산시 단원구 대부황금로 732 ,032-886-2450  
이학순베이커리,NOT,37.4479134480636,126.884045024072,경기도 광명시 소하로 77 골든프라자 1층,02-899-0807  
운천막국수,NOT,38.09338539870358,127.2732662409357,경기도 포천시 영북면 영북로 215-1 ,031-532-5748  
원조주막칡냉면,NOT,37.281086,127.464235,경기도 이천시 증신로 22-49 ,031-631-4942  
군남면옥,NOT,38.084588674485,127.018830527587,경기도 연천군 군남면 군남로 413-6 ,031-833-8131  
옥천고읍냉면,NOT,37.5199584680356,127.464491840023,경기도 양평군 옥천면 옥천길98번길 12 ,031-772-5302  
백운농장,NOT,37.331860514636745,127.01556700587442,경기도 수원시 장안구 광교산로 564 ,031-257-9600  
광탄은행나무집,NOT,37.789509,126.846157,경기도 파주시 광탄면 혜음로 1220-11 ,031-947-0618  
로얄인디아,NOT,37.662015,126.767338,경기도 고양시 일산동구 무궁화로 20-11 라페스타 F동 207호,031-816-6692  
델리다바,NOT,37.266846304981705,127.00238557875734,경기도 수원시 팔달구 매산로 6-2 ,031-248-1090  
대자골토속음식,NOT,37.708786,126.878039,경기도 고양시 덕양구 동헌로 199-11 ,031-962-8545  
아시아아시아,NOT,37.654732,126.772628,경기도 고양시 일산동구 정발산로 24 웨스턴돔 2층,031-901-0086  
사계진미,NOT,37.417116,127.132468,경기도 성남시 분당구 양현로 453 ,031-707-5868  
후안즈,NOT,37.3898706874902,127.09195974832,경기도 성남시 분당구 판교공원로2길 55 ,031-707-8612  
베이징스토리,NOT,37.406283,127.116422,경기도 성남시 분당구 판교역로 230 ,031-696-0306  
지동관,NOT,37.74007345332978,127.04816342716612,경기도 의정부시 호국로1298번길 78 ,031-846-2047  
모티마할,NOT,36.993156,127.08667,경기도 평택시 평택1로9번길 8 2층,031-616-3358  
라플로르,NOT,37.717154,126.689322,경기도 파주시 직지길 522 양서원출판그룹 1층,070-7516-1600  
카리,NOT,37.370363,127.106522,경기도 성남시 분당구 정자일로 230 동양파라곤 105동 지하 1층,031-781-3388  
리즈델리,NOT,37.361034,127.105185,경기도 성남시 분당구 정자일로 121 분당더샵스타파크 상가동 1층 B30호,070-8801-2865  
긴자인도레스토랑,NOT,37.390518,126.954781,경기도 안양시 동안구 평촌대로217번길 19 백산프라자,031-383-2223  
충북추어탕,NOT,37.5987713315525,127.137404671718,경기도 구리시 안골로57번길 36-8 ,031-563-2393  
평양초계탕막국수,NOT,37.757781,126.908437,경기도 파주시 광탄면 보광로 566 ,031-948-4631  
초대,NOT,37.585551,127.171538,경기도 남양주시 강변북로632번길 6-45 ,031-555-7318  
태릉허참갈비,NOT,37.64694,127.10918,경기도 남양주시 불암산로 30 ,031-527-2290  
수엠부,NOT,37.198094,127.077822,경기도 화성시 노작로4길 18-15 1층,031-8015-2494  
오오마참치,NOT,37.659743,126.768772,경기도 고양시 일산동구 중앙로1275번길 60-21 크리스탈 빌딩 109호,031-901-1014  
원조천마산곰탕,NOT,37.654949,127.255217,경기도 남양주시 마치로 17 ,031-591-3657  
두메산골,NOT,37.28254,127.742344,경기도 여주시 강천면 부평로 340-3 ,031-885-6088  
암소제비추리,NOT,37.293938,127.111653,경기도 용인시 기흥구 석성로 107 ,031-283-3294  
온정손만두,NOT,37.27740597717071,127.45456681238676,경기도 이천시 애련정로 49-1 ,031-638-2282  
비엣남,NOT,37.7229368094568,126.738651335904,경기도 파주시 교하로159번길 7 목동 트윈프라자 112호,031-945-5004  
코끼리만두,NOT,37.276822,127.015562,경기도 수원시 팔달구 중부대로3번길 27 ,031-255-6704  
황지참게매운탕,NOT,38.057779,127.029518,경기도 연천군 군남면 군남로 24 ,031-833-4595  
북경반점,NOT,37.007032,127.269155,경기도 안성시 안성맞춤대로 1047-1 ,031-674-2356  
영흥루,NOT,37.005900745394435,127.27202102158691,경기도 안성시 중앙로412번길 26 ,031-675-4722  
고려도경,NOT,37.3914652856781,127.090009877334,경기도 성남시 분당구 운중로225번길 30 ,031-8017-8914  
담원쭈꾸미,NOT,37.445917,126.844963,경기도 광명시 광명로 521-15 ,02-2060-7755  
보승루,NOT,37.269586,127.435242,경기도 이천시 부악로76번길 6 ,031-635-2223  
은영이네,NOT,36.924719,126.90545,경기도 평택시 현덕면 서동대로 169 ,031-682-9981  
그집,NOT,37.646157,126.613163,경기도 김포시 양촌읍 구래로87번길 137 ,031-981-7111  
두마레,NOT,37.344129,127.127817,경기도 성남시 분당구 구미로 191 아산웰빙프라자 2층,031-718-0011  
묵향,NOT,37.50153908465229,126.7746395759715,경기도 부천시 중동로254번길 104 호정프라자 206호,032-322-3481  
당고개냉면,NOT,37.7122189476294,127.105511570607,경기도 의정부시 송산로 903 ,02-936-6481  
전주식백반은진식당,NOT,37.773199,126.902733,경기도 파주시 광탄면 기산로 36 ,031-948-5241  
이수사,NOT,37.344031,127.110469,경기도 성남시 분당구 금곡로11번길 4 ,031-715-5204  
본가장작불곰탕해장국,NOT,37.73184182787061,127.4099895470949,경기도 가평군 청평면 경춘로 712 ,031-584-1987  
남강집,NOT,37.497891,127.302064,경기도 광주시 남종면 산수로 1668 ,031-767-9217  
황토마당,NOT,37.51520235273921,127.29831365800919,경기도 남양주시 조안면 다산로 759 ,031-576-8087  
이경숙할머니음식점,NOT,37.702332,127.396574,경기도 가평군 청평면 북한강로 2092 ,031-584-0064  
자선농원,NOT,37.3153796655905,127.019014765343,경기도 수원시 장안구 광교산로 363-1 ,031-247-6093  
수흥부대찌개,NOT,37.738892,127.049141,경기도 의정부시 태평로73번길 41 ,031-846-8620  
이모네,NOT,38.06873627406506,127.32302939177569,경기도 포천시 영북면 산정호수로411번길 98 ,031-534-6173  
쌍흥원,NOT,37.064722,127.065978,경기도 평택시 이충로100번길 45 ,031-666-2004  
원이쌀밥,NOT,37.2364418191812,127.495454372032,경기도 이천시 대월면 사동로 76-19 ,031-636-0893  
오향선,NOT,37.672821,126.753925,경기도 고양시 일산서구 중앙로 1493 애비뉴상가 1055호,031-917-1955  
옥천순두부,NOT,37.532298,127.466915,경기도 양평군 옥천면 신복길 124 ,031-774-4369  
시실리,NOT,37.782295221486706,127.02969186120137,경기도 양주시 부흥로1398번길 26-13 ,031-842-5295  
스시혼,NOT,37.3973207561987,127.11356226927,경기도 성남시 분당구 동판교로177번길 25 판교 호반 써밋 플레이스,031-701-0923  
내추럴가든529,NOT,37.6371489347801,127.380908885024,경기도 양평군 서종면 내수입길 108-8 ,031-771-7208  
무안낙지골,NOT,37.250176,127.075253,경기도 수원시 영통구 청명남로12번길 28 ,031-202-7450  
예닮골,NOT,37.322465,127.677336,경기도 여주시 북내면 여양2로 211 ,031-883-5979  
완이네작은밥상,NOT,37.713811,126.687788,경기도 파주시 문발로 220 별관동 103호,031-955-6162  
호박촌,NOT,37.259314,127.143178,경기도 용인시 기흥구 중부대로773번길 7 ,031-283-0708  
하버커피,NOT,37.629316,127.356547,경기도 양평군 서종면 북한강로 1041 ,070-4402-2060  
엘리수피자,NOT,37.6660301215934,126.771357817446,경기도 고양시 일산동구 무궁화로75번길 18 ,070-4098-0215  
연밭,NOT,37.543277,127.326496,경기도 양평군 양서면 목왕로 34 ,031-772-6200  
나무아래오후N,NOT,37.7606561183014,127.361496085833,경기도 가평군 상면 수목원로 204 ,031-584-9300  
서삼릉보리밥,NOT,37.66305,126.860054,경기도 고양시 덕양구 서삼릉길 124 ,031-968-5694  
윌커피로스터스,NOT,37.6202660418252,126.83139763832155,경기도 고양시 덕양구 행신로143번길 24 ,031-973-5874  
커피하우스 제로제,NOT,37.513806,127.603889,경기도 양평군 용문면 서원말길 3 ,031-774-7237  
에코의서재,NOT,37.321471,127.109975,경기도 용인시 기흥구 죽전로15번길 11-3 ,031-266-1138  
두향,NOT,37.358887,127.122986,경기도 성남시 분당구 불곡남로 5 ,031-718-3344  
양평해장국,NOT,37.2263158091697,127.10503646463,경기도 용인시 기흥구 기흥단지로 63 ,031-274-8845  
정운숯불갈비,NOT,37.08021,127.051347,경기도 평택시 중앙시장로9번길 5 ,031-666-4279  
와궁,NOT,37.360356,127.149067,경기도 광주시 오포읍 신현로 21 ,031-713-2277  
이동폭포갈비,NOT,38.0508,127.38055,경기도 포천시 이동면 여우고개로 698 ,080-2080-9292  
느티나무갈비,NOT,38.034272,127.366179,경기도 포천시 이동면 화동로 2089 ,031-532-4454  
다락,NOT,37.373122,127.138114,경기도 성남시 분당구 불정로386번길 10 미래타운상가,031-706-6453  
손가면옥,NOT,37.511855,126.774606,경기도 부천시 신흥로 313 ,032-677-8800  
미스리햄버거,NOT,37.0814079574376,127.053096893116,경기도 평택시 쇼핑로 33 월드프라자,031-667-7171  
미스진햄버거,NOT,37.080407299815285,127.05003269392468,경기도 평택시 쇼핑로 3-1 ,031-667-0656  
포폴로피자,NOT,37.6584011318816,126.773393488954,"경기도 고양시 일산동구 정발산로 43-20 센트럴프라자 102, 103호",031-932-9337  
가비양,NOT,37.385788349614465,127.13511296226831,경기도 성남시 분당구 안골로 33 ,031-708-4288  
블루메,NOT,37.789254,126.696533,경기도 파주시 탄현면 헤이리마을길 59-30 ,031-942-6320  
아라비카,NOT,37.4680478222731,127.202748358515,경기도 광주시 남한산성면 남한산성로 536-27 ,031-746-5956  
파브리끄,NOT,37.401276,127.110419,경기도 성남시 분당구 판교역로 230 삼환하이펙스 B동 1층,031-698-4536  
고당,NOT,37.536383,127.302336,경기도 남양주시 조안면 북한강로 121 ,031-576-8090  
땅차커피드립바,NOT,37.49554,126.777186,"경기도 부천시 부흥로315번길 27 와이즈빌딩 103, 104호",032-321-4879  
카페나라,NOT,37.712681,126.692825,경기도 파주시 돌곶이길 176 ,031-942-7481  
해금강,NOT,37.729816,127.104107,경기도 의정부시 고산로 102 ,031-841-8019  
운암회관,NOT,37.1482764641751,127.074318422287,경기도 오산시 운천로 61 ,031-372-4886  
마을식당,NOT,37.290498,127.640403,경기도 여주시 여양로 54 ,031-885-2450  
제주은희네해장국(일산본점),NOT,37.6764766165122,126.799388811552,경기도 고양시 일산동구 고양대로 946 ,031-969-0831  
수원소갈비해장국,NOT,37.08635002711198,126.82669851520683,경기도 화성시 장안면 3.1만세로 125 ,031-358-7339  
그집해장국,NOT,37.296644,127.012349,경기도 수원시 장안구 송정로 142 ,031-244-6694  
항아리집,NOT,37.316225,127.003496,경기도 수원시 장안구 파장천로 144-6 ,031-271-0099  
달보드레,NOT,37.28724790869218,127.0350129678712,경기도 수원시 팔달구 월드컵로 310 ,031-245-7900  
사계절한정식,NOT,37.3823034862019,127.093855681171,경기도 성남시 분당구 판교백현로 49 ,031-708-7115  
정일품,NOT,37.81350559788195,126.77669279343274,경기도 파주시 월롱면 옥돌내길 121-10 ,031-944-3006  
명가누룽지,NOT,37.677573,126.793614,경기도 고양시 일산동구 애니골길 127 ,031-907-5048  
홍익정육점식당,NOT,36.99959627609727,127.32259371600077,경기도 안성시 금광면 진안로 1016 ,031-671-0729  
화청갈비,NOT,37.283116,127.020279,경기도 수원시 팔달구 창룡대로41번길 12 ,031-216-5005  
사또가든,NOT,37.226102,127.107453,경기도 용인시 기흥구 기흥단지로 89 ,031-285-6865  
미미곱창,NOT,37.5637612084486,127.189620532746,경기도 하남시 미사강변중앙로 193 120-122,010-8788-8783  
황주생고기,NOT,37.905037,127.051935,경기도 동두천시 생연로 142 ,031-865-2026  
청계산장,NOT,37.430317,127.071353,경기도 성남시 수정구 청계산로 442 ,031-723-9938  
제일생고기,NOT,37.330214,126.861589,경기도 안산시 상록구 부곡로 89 ,031-502-1373  
새말해장국,NOT,37.1608778541688,127.07946519088402,경기도 오산시 현충로 95 ,031-373-5929  
아리랑갈비,NOT,37.8908020858711,127.056612278066,경기도 동두천시 평화로2261번길 36 ,031-868-2435  
라비떼,NOT,37.3915939909564,127.089364091459,경기도 성남시 분당구 판교공원로3길 18 ,070-4221-8116  
원조할머니묵집,NOT,37.713858,126.694912,경기도 파주시 돌곶이길 108-5 ,031-942-3017  
망캄,NOT,37.381483,127.128082,경기도 성남시 분당구 중앙공원로39번길 7 1층 110호,031-706-9786  
청목,NOT,37.299598,127.408593,경기도 이천시 경충대로 3046 ,031-634-5414  
숏컷로스터스,NOT,37.69617855033165,126.79886983237493,경기도 고양시 일산동구 성석로 218-16 ,010-5281-8236  
필라스,NOT,37.7489151849651,127.043078558358,경기도 의정부시 가능로109번길 43 ,031-847-1201  
쿠치나디까사,NOT,37.381949,127.1516,경기도 성남시 분당구 문정로 136 ,031-705-7866  
파스타비노,NOT,37.080443,127.05213,경기도 평택시 중앙시장로9번길 21 ,031-666-1617  
쉐프깐딴떼,NOT,37.394471049824794,127.24302707005315,경기도 광주시 순암로 55 ,031-769-9239  
한성치킨,NOT,37.64952742417464,126.64268361763533,경기도 김포시 양촌읍 석모로73번길 85 ,031-987-2744  
대동관,NOT,37.653551,126.776297,경기도 고양시 일산동구 중앙로 1199 2층,031-908-6660  
문호리팥죽,NOT,37.595516,127.35024,경기도 양평군 서종면 북한강로 641 ,031-774-5969  
까로떼,NOT,37.3861044896532,127.114942262654,경기도 성남시 분당구 동판교로52번길 19-20 ,010-5016-2099  
마리에뜨,NOT,37.195816,127.07292,경기도 화성시 동탄공원로3길 32-2 ,031-8003-9211  
레스토랑마고,NOT,37.370303,127.10679,경기도 성남시 분당구 정자일로 230 동양정자파라곤 105동 지하 1층,031-719-2228  
일블루,NOT,37.208464,127.066571,경기도 화성시 동탄시범한빛길 17-1 ,031-613-0003  
나리스키친,NOT,37.4977,126.778192,경기도 부천시 신흥로 150 위브더스테이트 702동 110호,032-620-5690  
광현가든,NOT,37.32899454379219,127.39015248823621,경기도 광주시 곤지암읍 신만로 7 ,031-763-5364  
윤몽,ATTENTION,37.6696734609311,126.773486166319,경기도 고양시 일산동구 대산로31번길 5-16 ,010-2743-2118  
한식주점휘얼,NEW,37.2755271181009,127.044357690238,경기도 수원시 영통구 아주로 6-3 1층,031-211-1202
카야마구로,NEW,37.2651381728083,127.028685485358,경기도 수원시 팔달구 효원로235번길 52 2층,010-7118-2688
윤희와망고,NEW,37.2651248641234,127.04784013569,경기도 수원시 영통구 산남로 17 ,010-8339-6569
곰터먹촌,NEW,37.7941950415587,127.230032867539,경기도 포천시 내촌면 내촌로 169 ,031-534-0732  
누벨,NEW,37.7347274073134,127.047403054294,경기도 의정부시 평화로483번길 21  ,031-836-7195 
규원,NEW,37.6468895968911,126.680521997391,경기도 김포시 김포한강11로140번길 15-18 -,031-998-8091  
메르오르,NEW,37.1349707922065,127.039577579582,경기도 오산시 남부대로 36 메르오르,031-372-0707  
도온정,NEW,37.60000888397,126.890065259613,경기도 고양시 덕양구 꽃내음1길 130 1층 ,070-4044-1280
뜨라또리아로마냐,NEW,37.2980252815321,127.045674146628,경기도 수원시 영통구 대학1로8번길 81 1층,010-2037-2944
스톤커피바,NEW,37.2881339033892,127.142609335737,경기도 용인시 기흥구 언동로71번길 45 4층,0507-1338-5441
드윝,NEW,37.3621749058887,127.106553698118,경기도 성남시 분당구 정자일로 136 정자역 엠코헤리츠 3단지 110호,010-2133-2125
열문집,NEW,37.3873395397425,127.12246451531,경기도 성남시 분당구 서현로180번길 19 비전월드 1층102호,010-9142-5402
포앤드,NEW,37.2505304248344,127.07376227758,경기도 수원시 영통구 청명남로 6 ,010-5944-5455
동네식당,NEW,37.7308236218048,127.048658158465,경기도 의정부시 평화로440번길 6-7 ,010-5629-3019
보석한우,NEW,37.2327793868862,127.187420199813,경기도 용인시 처인구 명지로40번길 10 sk프라자 ,070-8657-0863
함흥미식관,NEW,37.3613993780208,127.113165749848,경기도 성남시 분당구 불정로77번길 15 ,031-711-0609
포크너(범계점),NEW,37.3910154417126,126.953656310193,경기도 안양시 동안구 평촌대로223번길 36 중앙빌딩,031-360-3693
유비노,NEW,37.3149551732586,127.077564891186,경기도 용인시 수지구 성복2로 71 명원빌딩,031-263-0855
문화반점,NEW,37.6172499902732,126.748913507681,경기도 김포시 고촌읍 상미4로 20 반송프라자 204호,031-996-4588
한돈곳간(분당정자점),NEW,37.3625100862929,127.106555413744,경기도 성남시 분당구 정자일로 140 엠코헤리츠 2단지,031-717-1971
오코노미스토리(안양점),NEW,37.3996697728322,126.922671114549,경기도 안양시 만안구 장내로149번길 37 2층 오코노미 스토리,010-8346-3433
사자갈비,NEW,37.3903294088302,126.954133500425,경기도 안양시 동안구 평촌대로217번길 27 백두프라자 1층 101호,031-384-1244
미려돈,NEW,37.5662871417766,127.189231111369,경기도 하남시 미사강변중앙로 220 우성미사타워  101호(약국옆),031-8027-2939
우대포(분당직영점),NEW,37.3860492558363,127.121697508944,경기도 성남시 분당구 황새울로335번길 5 앤타운빌딩,010-8151-1111
체리커피(수원점),NEW,37.2653980945439,127.035745453786,경기도 수원시 팔달구 인계로166번길 15-8 ,02-8031-7222
동심,NEW,37.500794309197,126.774636725313,경기도 부천시 소향로 241 제일프라자 ,032-321-2558
조선헛간텍사스바베큐,NEW,37.7409325652165,127.199072523072,경기도 남양주시 진접읍 부평로 33-11 산들리움,010-9597-8801
미가,NEW,37.2638843015003,127.03310232868,경기도 수원시 팔달구 권광로 184 캐슬타워 111호,070-4797-0747
반코,NEW,37.5020701156006,126.76792763595,경기도 부천시 소향로 181 센트럴파크 푸르지오 171호,010-3094-3062
힘찬숯불유황오리,NEW,37.2516333911864,126.992001464428,경기도 수원시 권선구 매송고색로804번길 49-10 1층,031-291-9252
리비토,NOT_RECORD,37.5985342802709,126.890213054012,경기도 고양시 덕양구 꽃내음1길 182 지하1층 (향동천1층),02-3159-2008
그롤라,NOT_RECORD,37.2658849967954,127.031026221546,경기도 수원시 팔달구 인계로124번길 27-10 엘리시아IT타워,010-4604-5292
쿠모쿠모베이커리,NOT_RECORD,37.3680155148275,126.92759744702,경기도 군포시 산본로432번길 4 1층 103호 쿠모쿠모베이커리,031-397-0122
한양중식,NOT_RECORD,37.4171034624346,126.880947375247,경기도 광명시 양지로 16 광명역 써밋플레이스 2층,02-895-1100
오디너리벗써니컵케이크,NOT_RECORD,37.395800819414,127.107592379777,경기도 성남시 분당구 대왕판교로606번길 10 알파리움1단지 상가 140호,070-4221-9745
육분당,NOT_RECORD,37.3489404443443,127.110466899341,경기도 성남시 분당구 미금일로90번길 32 웰파크 116호,031-714-5592
박용정's커피,NOT_RECORD,37.2613287245894,127.063637995106,경기도 수원시 영통구 매영로 222 삼일빌딩 2층,031-226-0766
줄라이베이커리,NOT_RECORD,37.5016876100662,126.772357839045,경기도 부천시 원미구 중동로254번길 64 신일아르디세 107호,032-328-3500
웨하커피로스터스,NOT_RECORD,37.4211854985339,126.991242601845,경기도 과천시 별양로 28 b동 1089호,0507-1349-9231
바램 고깃들,NOT_RECORD,37.6490641128528,126.896975022417,경기도 고양시 덕양구 동송로 33 이편한세상시티삼송1차 상가 1층 85호,02-371-0212
스시쿤(판교점),NOT_RECORD,37.4004659332759,127.106812648944,경기도 성남시 분당구 대왕판교로 660 유스페이스몰 1차 지하1층 A동 115호,0507-1355-6972
미담칼국수,NOT_RECORD,37.2444909969815,126.9738967886,경기도 수원시 권선구 오목천로 127-1 ,031-296-6885
더화룡,NOT_RECORD,37.3821848709371,126.959546177308,경기도 안양시 동안구 귀인로172번길 58 ,031-341-8600
화룡짬뽕전문점,NOT_RECORD,37.3959438685764,126.916829414193,경기도 안양시 만안구 양화로14번길 29 ,031-444-8600
네이키드키친,NOT_RECORD,37.3846027421473,126.962189372884,경기도 안양시 동안구 귀인로190번길 140-9 ,031-381-3191
키스톤스피시즈,NOT_RECORD,37.6365609696014,127.225480055151,경기도 남양주시 경춘로 1104-2 ,070-8887-1104
이자카야 오니,NOT_RECORD,37.3691438762557,126.726058404858,경기도 시흥시 서울대학로264번길 7 B동 118호,031-364-8144
아리랑개성손만두,NOT_RECORD,37.4962687595557,126.777019204125,경기도 부천시 부흥로315번길 41 상문프라자 1층,032-322-1650
미나미참치,NOT_RECORD,37.2637115611221,127.036216454063,경기도 수원시 팔달구 효원로307번길 61 장성빌딩 1층,031-225-3737
히피브루어스,NOT_RECORD,37.267868604837,127.007319180836,경기도 수원시 팔달구 매산로52번길 20 1층 중간,010-3170-5667
브런치빈(시흥대야점),NOT_RECORD,37.4500172530654,126.792481843792,경기도 시흥시 복지로 126  엠스퀘어 3층,031-317-0622
로커피,NOT_RECORD,37.2318260599769,127.287470219522,경기도 용인시 처인구 양지면 남평로 17-1 ,031-328-8286
라벤치레스토랑(정자점),NOT_RECORD,37.2912772180926,127.004518952785,경기도 수원시 장안구 수성로 295 ,031-8067-5533
핏제리아수플리 ,NOT_RECORD,37.0453058369773,127.153711162014,경기도 안성시 원곡면 만세로 1140 ,0507-1346-5728
신림춘천집(평촌점),NOT_RECORD,37.3933193690503,126.963172221695,경기도 안양시 동안구 관평로170번길 43 훼미리 타운 ,0507-1420-1998
청정칼국수수제비전문점(본점),NOT_RECORD,37.4927644799871,126.759120028286,경기도 부천시 상일로145번길 42 ,032-323-6504
청담추어정,NOT_RECORD,37.4218250982142,127.10843791737,경기도 성남시 수정구 여수대로56번길 3 ,031-758-5977
유담솥뚜껑닭볶음탕,NOT_RECORD,37.3712000751728,127.114975966966,경기도 성남시 분당구 내정로119번길 6 1층 ,031-717-9777
언더스탠드커피,NOT_RECORD,37.4990321852366,127.302591323072,경기도 광주시 남종면 산수로 1684 ,070-4923-2900
브라운팩토리,NOT_RECORD,37.3152131053821,127.072942564189,경기도 용인시 수지구 성복1로 62 KCC스위첸 상가동 110호,031-893-7767
마편당,NOT_RECORD,37.7207395597398,126.746047045628,경기도 파주시 가온로 122 열린프라자1 105호 & 105-1호,031-946-7122
요로시,NOT_RECORD,37.7409245394796,127.047644694429,경기도 의정부시 평화로542번길 7-13 태광빌딩 1층,031-846-6491
소탄,NOT_RECORD,37.7196727836662,126.737721737471,경기도 파주시 와석순환로252번길 14 유진빌 1층,070-8152-8292
젠틀케틀,NOT_RECORD,37.2876086076178,127.057001896438,경기도 수원시 영통구 도청로18번길 26 힐스테이트광교중앙역 상가A 1층 166호,031-216-7725
삼화식당,NOT_RECORD,37.4660858883142,127.137453219601,경기도 성남시 수정구 위례서일로1길 4 ,031-754-2043
라쪼,NOT_RECORD,37.3083489841266,126.828265186376,"경기도 안산시 단원구 광덕1로 165 동남레이크빌I 108호, 109호",010-4212-1531
스시도원,NOT_RECORD,37.5032053014414,126.768162751102,경기도 부천시 길주로 234 힐스테이트 중동 상가 2층 2036호,010-7654-9651
도안,NOT_RECORD,37.2637115611221,127.036216454063,경기도 수원시 팔달구 효원로307번길 61 장성빌딩 3층,070-8884-1204
젠틀비,NOT_RECORD,37.6691414364439,126.74955804785,경기도 고양시 일산서구 킨텍스로 255 대방디엠시티 126호,031-922-8847
남종베이커리,NOT_RECORD,37.5696931242599,127.184709447519,경기도 하남시 미사강변대로226번길 14 1층 ,031-795-8872
데프커피,NOT_RECORD,37.6742448166223,126.77816509826,경기도 고양시 일산동구 산두로229번길 43-5 ,0507-1345-0254
푸르레여울,NOT_RECORD,37.4990321852366,127.302591323072,경기도 광주시 남종면 산수로 1684 ,0507-1385-2900
동양솥밥,NOT_RECORD,37.3181157520239,126.836545917769,"경기도 안산시 단원구 예술대학로 11 해남빌딩 202, 203호",031-403-6392
고향옥얼큰순대국본점,NOT_RECORD,37.6598054476523,126.766807615454,경기도 고양시 일산동구 무궁화로 8-38 1층,031-901-5110
메종포레,NOT_RECORD,37.2918080435448,127.262507869518,경기도 용인시 처인구 포곡읍 금어로 555 ,0507-1315-2672
라이크미,NOT_RECORD,36.9991806783585,127.112540530139,경기도 평택시 비전5로 10 센트럴돔 2081호,010-2103-3742
장심도한국본점,NOT_RECORD,37.4572192797322,126.814403939622,경기도 시흥시 범안로 288 ,031-313-1224
능이향,NOT_RECORD,37.2361722945662,127.286333637581,경기도 용인시 처인구 양지면 교동로10번길 5 ,031-321-5292
코우즈,NOT_RECORD,37.3090945924351,126.828951250039,경기도 안산시 단원구 광덕대로 141 B동 1층 106호,0507-1461-9211
뚝방길생두루치기 ,NOT_RECORD,37.6130690857226,126.833201138811,경기도 고양시 덕양구 무원로6번길 12 대흥빌딩,031-978-7892
서울경양식,NOT_RECORD,37.207507186162,127.065050936064,경기도 화성시 동탄지성로 92 센트럴프라자 1층 105호,031-8003-7688
풍곡가든,NOT_RECORD,37.6125029160227,126.76139718784,경기도 김포시 고촌읍 풍곡로 89 ,031-985-8215
에스프레소바코드,NOT_RECORD,37.6706006777783,126.785645565784,경기도 고양시 일산동구 경의로 459-38 ,0507-1372-2268
커피나인(광명역점),NOT_RECORD,37.420657856999,126.883173812408,경기도 광명시 신기로17번길 3 서원빌딩 102호,070-4136-6666
히마,NOT_RECORD,37.6250872033066,127.15161588836,경기도 남양주시 다산중앙로123번길 22-74 MH타워 1층 101호,010-3088-0802
슬로우드링크,NOT_RECORD,37.6731110812513,126.775527494435,경기도 고양시 일산동구 일산로463번길 23-9 ,010-9698-5182
가평냉면부손설악본점,NOT_RECORD,37.6780565234562,127.472726370192,경기도 가평군 설악면 유명로 1818-13 ,031-584-7772
그린오브 ,NOT_RECORD,37.3377550363499,127.116506163087,경기도 성남시 분당구 미금로 48 오성프라자 204호,010-8872-0670
에이에이치티커피,NOT_RECORD,37.2365163938833,127.198473865768,경기도 용인시 처인구 금령로27번길 23 2층 201호,010-4138-5698
뵈르아워,NOT_RECORD,37.2101421642725,127.051620596668,"경기도 화성시 동탄숲속로35번길 24-12 1동 1, 2층 ",010-2942-4785
페어링하우스,NOT_RECORD,37.5625864791901,127.189964124756,"경기도 하남시 미사강변중앙로 181 더퍼스트테라스 3층 322,322호",031-791-0181
그라츠커피랩(동탄호수공원점),NOT_RECORD,37.1720762292297,127.104078001389,경기도 화성시 동탄대로 181 동탄린스트라우스더레이크 지하3층 C8306,031-373-2231
그라츠커피랩본점,NOT_RECORD,37.2108651707078,127.089445559923,경기도 화성시 동탄첨단산업1로 27 금강펜테리움 IX타워 1층 M82호,031-784-8887
마므레크로와상,NOT_RECORD,37.5048322159039,126.752430839268,경기도 부천시 상동로 83 그랜드프라자 106호,010-8777-2270
시에나커피로스터스,NOT_RECORD,37.3995094826934,126.924204192389,경기도 안양시 만안구 만안로 208-1 2층 ,010-4564-6660
와인라이트,NOT_RECORD,37.2825861537357,127.01666621841,경기도 수원시 팔달구 정조로 834-1 1층 ,010-2969-5332
심슨더스파이스,NOT_RECORD,37.7271718679568,126.770530777752,경기도 파주시 운정벌판길 24-22 단독건물,031-941-9267
기치브루랩,NOT_RECORD,37.2764541640864,126.996382953405,"경기도 수원시 팔달구 동말로16번길 18 황제연립 라동, 1층 ",010-6441-1321
펄치커피,NOT_RECORD,37.3839107611132,127.111371590863,경기도 성남시 분당구 판교역로10번길 3 ,010-2510-1420
연리희재,NOT_RECORD,37.7684166754188,126.713346253687,경기도 파주시 탄현면 장릉로51번길 48-21 ,010-4320-8032
메이플탑(동탄점),NOT_RECORD,37.2006732594761,127.097922758261,경기도 화성시 동탄역로 160 롯데백화점 지하1층,031-8036-3567
올드몬트,NOT_RECORD,37.4730513390026,127.141262948182,경기도 성남시 수정구 위례광장로 104 1층 1075호 ,010-2675-8592
더376,NOT_RECORD,37.3209893962943,126.829258245673,경기도 안산시 단원구 화랑로 376 1층,031-482-5200
덴트로커피하우스,NOT_RECORD,37.2959646807164,127.057315761435,경기도 수원시 영통구 센트럴파크로128번길 60 1층 102호,010-2090-8497
온심재,NOT_RECORD,37.4884727521487,126.780307107525,"경기도 부천시 신흥로56번길 53 1층, 102호",070-7543-6453
당당초밥,NOT_RECORD,37.323414446818,126.785087914248,경기도 안산시 단원구 산단로 325 리드스마트스퀘어 2층 C-273,031-8042-5817
서봉수참치앤스시,NOT_RECORD,37.3081170712656,126.830650449765,경기도 안산시 단원구 광덕대로 130 폴리타운 b동 2층,031-401-6698
요로시(구리점),NOT_RECORD,37.6000607564335,127.141206385629,경기도 구리시 검배로6번길 7 ,0507-1442-5615
GTS버거 ,NOT_RECORD,37.250664904498,127.064089695338,경기도 수원시 영통구 매영로310번길 87 상가 지하 1층,031-205-7732
야미케이크,NOT_RECORD,37.3732182030325,126.790712669353,경기도 시흥시 황고개로 472 ,010-7331-4012
고부기(평택본점),NOT_RECORD,36.9999145785826,127.114644478536,경기도 평택시 비전5로 20-51 H탑3빌딩 201호,070-8286-7789
육회바른연어(김포한강점),NOT_RECORD,37.6412701660367,126.677601659359,경기도 김포시 김포한강2로 41  e편한세상 캐널시티 에비뉴동 1층 C-14호,031-989-6055
착륙,NOT_RECORD,37.6139925532056,127.166192141111,경기도 남양주시 다산중앙로82번안길 85-2 1층 ,070-4116-7389
산뜨락곤드레,NOT_RECORD,37.7092150271575,126.703785315596,경기도 파주시 교하로681번길 16 ,031-947-5225
블레블레,NOT_RECORD,37.6954250377903,126.764587472166,"경기도 고양시 일산서구 일현로 93 1, 2층",031-925-2223
블레블레(현대백화점킨텍스점),NOT_RECORD,37.6679852145335,126.751647571454,경기도 고양시 일산서구 호수로 817  현대백화점 킨텍스점 지하1층,0507-1480-5886
산성대가,NOT_RECORD,37.476636,127.181909,경기도 광주시 남한산성면 남한산성로792번길 11-12 ,031-743-6559
어림,NOT_RECORD,37.6028527980624,127.159682380737,경기도 남양주시 가운로 39 ,031-567-7939
달구운바람(동탄영천점),NOT_RECORD,37.206558266721,127.112463591778,경기도 화성시 지산1길 3-1 ,031-373-9192
몽연,NOT_RECORD,37.2053842522352,127.07433912353,경기도 화성시 노작로 195 코스모타워 2층,031-613-9991
동양솥밥(과천점),NOT_RECORD,37.4297945568098,126.990295584667,경기도 과천시 관문로 92 제비동 제지1층 제비-비110호,031-3679-6392
달구운바람돼지갈비(영통망포점),NOT_RECORD,37.2433020987325,127.055738900634,경기도 수원시 영통구 영통로174번길 5 ,031-205-9192
조상일커피,NOT_RECORD,37.3468997480954,126.951592713951,"경기도 군포시 고산로185번길 4 황토빌딩 1층, 2층",010-4628-2048
양심소,NOT_RECORD,37.2288240982057,127.071336917109,경기도 화성시 삼성1로 278-20 1층,031-205-1618
르코르크,NOT_RECORD,37.4661432246385,127.139272679501,경기도 성남시 수정구 위례서일로3길 12 골드하우스,010-5210-1504
인기명수원망포,NOT_RECORD,37.2466489882292,127.056208998995,경기도 수원시 영통구 영통로217번길 13 ,031-205-8419
따따라멘,NOT_RECORD,37.0458278359148,127.045056429299,경기도 평택시 고덕중앙2로 77-6 리치타워 105호,010-9998-5989
영포화로(영통점),NOT_RECORD,37.2514587479802,127.075935916587,"경기도 수원시 영통구 청명남로28번길 20 플러스타운빌딩 105, 106호 ",010-3213-9224
해월커피(배곧점),NOT_RECORD,37.368371329452,126.727341176579,"경기도 시흥시 서울대학로264번길 25 배곧 아브뉴프랑 블루동 103,104호",031-319-0146
커피나인(덕은리버위크점),NOT_RECORD,37.5780164503878,126.862525363288,경기도 고양시 덕양구 청초로 66 a동 1층 110호,0507-1344-8277
위스크,NOT_RECORD,37.3971879735886,126.96738686836,경기도 안양시 동안구 시민대로327번길 12-6 ,031-424-5698
하누비노,NOT_RECORD,37.3621749058887,127.106553698118,경기도 성남시 분당구 정자일로 136 엠코헤리츠 3단지 101호,031-719-2192
누룩,NOT_RECORD,37.286268807226,127.023925293449,경기도 수원시 팔달구 창룡대로 90-5 ,010-3202-0671
이동백운갈비,NOT_RECORD,38.0715987941497,127.407257893971,경기도 포천시 이동면 포화로 188-38 ,031-535-9827
정비소,NOT_RECORD,37.4876383319824,126.789563941811,경기도 부천시 원미로 53-6 ,032-233-2331
상동백년갈비,NOT_RECORD,37.5071735406897,126.751476572166,"경기도 부천시 길주로77번길 55-19 굿모닝프라자 1층 101호, 102호",032-323-5815
즉석깡우동,NOT_RECORD,37.2519041253168,127.075243713155,"경기도 수원시 영통구 청명남로28번길 2 아이텐텐빌딩 107, 108호 ",010-3213-9224
우산화로,NOT_RECORD,37.382650987288,126.962894140534,경기도 안양시 동안구 귀인로190번길 92 1층 ,031-383-8592
로얄피그,NOT_RECORD,37.2722147478422,127.151005407332,경기도 용인시 기흥구 동백중앙로 213 삼성타워,031-282-3325
고잔갈비,NOT_RECORD,37.3089521131686,126.831761827009,"경기도 안산시 단원구 광덕2로 194-8 한무프라자 101, 102호",070-7766-1862
춘계옥본점,NOT_RECORD,37.2671339971731,127.030070469552,경기도 수원시 팔달구 경수대로466번길 51 102호,031-223-8538
쭈막촌,NOT_RECORD,37.2899085048256,126.857846644822,경기도 안산시 상록구 충장로 94 1층,031-409-7942
브런치위치,NOT_RECORD,37.5012721711363,126.754156605207,경기도 부천시 조마루로97번길 17-10 ,010-2131-6118
날라리식당(의정부민락직영점),NOT_RECORD,37.7531898155774,127.113773313956,경기도 의정부시 민락로 360 송산3동행정복지센터 1층,031-851-1077
유유차적,NOT_RECORD,37.0218043247646,127.202836054065,경기도 안성시 공도읍 명삼길 267-14 ,070-4224-2822
정온,NOT_RECORD,37.5483379803093,127.216582349876,경기도 하남시 신평로168번길 124 1층,031-792-2947
만돈,NOT_RECORD,37.6558964094856,126.772038816453,경기도 고양시 일산동구 정발산로 24 웨스턴돔B동 2층,031-901-9463
차고145,NOT_RECORD,37.3944039022277,127.108352326702,경기도 성남시 분당구 판교역로 145 알파리움2단지 108호,031-781-1450
아장아장(아빠가만든전복장),NOT_RECORD,37.2461172281763,127.04122753343,경기도 수원시 영통구 권선로882번길 107-66 101호,031-205-1154
사이쵸동탄,NOT_RECORD,37.2062388115091,127.074764426064,"경기도 화성시 노작로 203 서해더블루 101,102호",0507-1393-0680
골덴가이하이볼클럽,NOT_RECORD,37.3094302796125,126.830679089431,경기도 안산시 단원구 광덕대로 146 일번지프라자 124호,0507-1389-0680
태백한우실비,NOT_RECORD,37.2527690141039,127.070900946094,경기도 수원시 영통구 매영로345번길 7 트리플렉스 111호,070-7755-1584
참진짜장(신흥점),NOT_RECORD,37.443078384772,127.13981075734,경기도 성남시 수정구 수정로 178 ,031-757-0687
동인장어집,NOT_RECORD,37.5559967610014,127.207785996679,경기도 하남시 미사강변한강로409번길 24 동인타워,031-792-0666
낙원제과,NOT_RECORD,37.5914257165994,127.141535980077,경기도 구리시 체육관로74번길 67 구리수택 행복주택 103호,031-523-2282
박금순특허청국장돌솥밥,NOT_RECORD,37.5135927138159,127.604368355057,경기도 양평군 용문면 용문산로 179 ,031-775-9228
최박사돈까스냉면,NOT_RECORD,37.4610422038019,127.167613268628,경기도 성남시 중원구 산성대로 574 ,031-745-5406
커피냅로스터스,NOT_RECORD,37.0988337930557,127.090132055775,경기도 평택시 진위면 봉남2길 35 ,031-666-4131
금성,NOT_RECORD,37.231751,127.286713,경기도 용인시 처인구 양지면 남평로 16 ,031-338-3366
원조옛날보리밥집,NOT_RECORD,0.0,0.0,경기도 의왕시 손골길 17 ,031-424-2515
김삿갓밥집,NOT_RECORD,37.6643565585227,127.361445293758,경기도 남양주시 화도읍 경춘로 2483 ,031-559-9188
유명산흥부네솥뚜껑닭볶음탕,NOT_RECORD,37.597427830731,127.509820508728,경기도 가평군 설악면 어비산길99번길 67-13 ,0507-1429-2528
나눔터오리,NOT_RECORD,37.7188192534429,127.185313746865,경기도 남양주시 진접읍 장현천로10번길 9-1 ,031-574-9252
엄나무닭곰탕,NOT_RECORD,37.7991366812862,127.102086601383,경기도 양주시 삼숭로58번길 10 ,031-843-5134
나의집,NOT_RECORD,37.3266931431465,126.887853492772,경기도 군포시 둔대로 33-21 ,031-437-7028
남촌집,NOT_RECORD,37.602800478674,127.352740671391,경기도 양평군 서종면 무내미길 38 ,031-771-6647
다람쥐마을누룽지백숙,NOT_RECORD,37.6732760274249,126.789085580665,경기도 고양시 일산동구 애니골길43번길 48 ,031-907-3601
덕담오리초계탕,NOT_RECORD,37.1792079587232,127.016431887146,경기도 오산시 독산성로 138 ,031-372-3213
도담,NOT_RECORD,37.4402247180105,126.794046810355,경기도 시흥시 대은로 16-14 ,0507-1337-4398
동의궁 백숙 닭죽촌,NOT_RECORD,37.4620381929749,127.155750829868,경기도 성남시 수정구 수정로 460 ,031-736-1213
동이손만두,NOT_RECORD,37.7733846719007,127.157736227841,경기도 포천시 소흘읍 광릉수목원로 700-3 ,031-541-6870
두향,NOT_RECORD,37.0167761459251,127.321190132769,경기도 안성시 보개면 서동대로 5680 ,031-672-3217
들밥,NOT_RECORD,37.3845082077025,127.254749996552,경기도 광주시 양벌로 131-20 ,031-766-0688
미가 들깨수제비 충무김밥 본점,NOT_RECORD,37.3867307725774,127.121976391707,경기도 성남시 분당구 황새울로335번길 10 ,031-8016-3832
사계진미 야탑본점,NOT_RECORD,37.4171535104078,127.132480611118,경기도 성남시 분당구 양현로 453 ,031-707-5868
산너머남촌,NOT_RECORD,37.3581281496342,126.916852084187,경기도 군포시 수리산로 100 설악상가 2층,031-391-1399
산애로,NOT_RECORD,37.5469005493282,127.249616893465,경기도 남양주시 와부읍 팔당로139번길 37-1 ,031-576-1860
숨두부촌 ,NOT_RECORD,37.3721111776699,126.92812277365,경기도 군포시 산본로482번길 7 ,031-394-0292
신호등장작구이,NOT_RECORD,37.6258160809824,126.89716650271,경기도 고양시 덕양구 서오릉로 396-14 ,02-382-4536
행복한 콩박사,NOT_RECORD,37.1938294967862,127.028910104326,경기도 오산시 양산로398번길 8-11 ,031-372-1232
퓨전 굽는삼계탕,NOT_RECORD,37.3769053693663,126.76531713087,경기도 시흥시 동서로168번길 71-1 ,031-433-5736
아라리곰탕,NOT_RECORD,37.1095556710523,127.244828766698,경기도 안성시 양성면 안성맞춤대로 2304-7 1층,031-673-2999
초평골,NOT_RECORD,37.3145208524683,126.936117404341,경기도 의왕시 천왕골길 22 ,031-461-0702
콩밭,NOT_RECORD,37.3495129168864,126.820828465574,경기도 안산시 단원구 쑥개길 7 ,031-475-3434
약초와산이야기,NOT_RECORD,37.5071735406897,126.751476572166,경기도 부천시 길주로77번길 55-19 ,032-326-9959
옛길우거지밥상,NOT_RECORD,37.7674318123495,127.100622718633,경기도 의정부시 호국로1828번길 14 ,031-847-3151
예봉산더덕집,NOT_RECORD,37.5470772898263,127.250186906067,경기도 남양주시 와부읍 팔당로139번길 43 ,031-521-4286
옛날에손만두,NOT_RECORD,37.6429705830892,127.2032540989,경기도 남양주시 진건읍 사릉로136번길 16 ,031-575-9323
장수촌,NOT_RECORD,37.195635378458,126.956107190853,경기도 화성시 정남면 보통내길253번길 112 ,031-366-5533
대관령감자옹심이,NOT_RECORD,37.4615907916562,127.168337104315,경기도 성남시 중원구 산성대로 584 ,031-744-7442
천만애능이백숙,NOT_RECORD,37.3573656860743,126.987368918978,경기도 의왕시 오매기가운데말길 7 ,031-429-5295
명선기운찬식당,NOT_RECORD,37.0108709847025,127.171786356617,경기도 안성시 공도읍 덕봉서원로 76 ,031-655-3773
장수관,NOT_RECORD,37.6822896440352,126.779319124914,경기도 고양시 일산동구 고양대로 750 ,031-975-2112
세희네돈까스,NOT_RECORD,37.3732046962505,127.068010463777,경기도 성남시 분당구 판교대장로7길 16 힐스테이트 판교 엘포레 6단지 107호,031-778-8857
담구리샤브칼국수,NOT_RECORD,37.6390734809532,126.673179663809,경기도 김포시 초당로16번길 114-1 1층 102호,0507-1303-1158
쿠오체레,NOT_RECORD,37.6528350492817,126.68443022381,경기도 김포시 김포한강1로 240 라비드퐁네프 블루동 302호,031-994-3437
아장아장(아빠가만든전복장),NOT_RECORD,37.2461172281763,127.04122753343,경기도 수원시 영통구 권선로882번길 107-66 ,031-205-1154
띠디,NOT_RECORD,37.6428068511903,126.622775348817,경기도 김포시 김포한강8로 416 채움메디컬빌딩,010-2310-8028
해오름한정식,NOT_RECORD,37.6450543770892,126.784560867709,경기도 고양시 일산동구 중앙로 1079 백석역 더리브 스타일 2층,031-932-8677
삼거리다방,NOT_RECORD,37.6599020883527,127.301115378943,경기도 남양주시 화도읍 비룡로87번길 12 삼거리다방,010-6522-8212
콘비노,NOT_RECORD,37.3790480318957,127.137485931104,경기도 성남시 분당구 돌마로522번길 10-1 ,010-2700-9166
한티옥(평촌점),NOT_RECORD,37.3899854320589,126.950421554565,경기도 안양시 동안구 시민대로 180 롯데백화점 지하1층 ,031-8086-9077
우만동족발집,NOT_RECORD,37.2782348046246,127.043218629351,경기도 수원시 팔달구 아주로27번길 10-20 우만동족발집 1층,031-214-7066
들내음(김포점),NOT_RECORD,37.6522168336511,126.639540620875,경기도 김포시 양촌읍 석모로 99 ,031-988-3820
이탈리안테이블,NOT_RECORD,37.0377255349591,127.032371194351,경기도 평택시 함박산8길 21 ,010-5742-6835
홍익돈까스(동탄본점),NOT_RECORD,37.2074058862758,127.062582541795,경기도 화성시 동탄공원로2길 37 ,031-613-1691
인더비엣,NOT_RECORD,37.3119295387297,126.831037062059,경기도 안산시 단원구 광덕대로 174 D동 1층 137호~139호,031-485-5021
숯불에닭(웨스턴돔점),NOT_RECORD,37.6573936432322,126.772404140408,경기도 고양시 일산동구 정발산로 31-10 파크프라자,031-912-1085
창심관,NOT_RECORD,37.2077244538009,127.065497337074,경기도 화성시 동탄반송3길 8 동탄타워,0507-1332-6568
미솥지음,NOT_RECORD,37.1978203296795,127.445811531535,경기도 이천시 모가면 사실로 979-10 B동 ,031-631-1213
라피셀,NOT_RECORD,37.2887016141017,127.061237557645,경기도 수원시 영통구 광교중앙로 180 ,0507-1312-2845
양미가옥,NOT_RECORD,37.3604029877478,126.932274372096,경기도 군포시 산본로323번길 4-25 ,031-399-9456
청담특양평해장국일산본점,NOT_RECORD,37.6766648904832,126.798947685773,경기도 고양시 일산동구 고양대로 942 청담특양평해장국본점,031-963-7701
센트랄드파사드,NOT_RECORD,37.3143807255296,126.839328587797,경기도 안산시 단원구 광덕4로 244 천혜그레이스빌딩 103호,010-4999-0037
월화식당(평택고덕점),NOT_RECORD,37.0418311700926,127.053193190939,경기도 평택시 고덕여염12길 92 ,031-662-5666
이색어담,NOT_RECORD,37.5030479410544,126.76206803816,경기도 부천시 석천로177번길 11 제이클래스,032-326-7908
별밤,NOT_RECORD,37.264161,127.030123,경기도 수원시 팔달구 효원로249번길 38 조훈빌딩,031-223-5569
우성생고기,NOT_RECORD,37.329574,126.798266,경기도 안산시 단원구 관산2길 4-19 ,031-494-2126
와인테라스,NOT_RECORD,37.264697463315,127.030873990619,경기도 수원시 팔달구 권광로187번길 31 ,031-221-1992
오리사냥,NOT_RECORD,37.659897,127.292614,경기도 남양주시 화도읍 맷돌로 13 ,031-595-2616
일프리모,NOT_RECORD,37.4003868266681,126.919463454058,경기도 안양시 만안구 안양로323번길 7 성진빌딩,031-689-5515
옵스(롯데평촌점),NOT_RECORD,37.3899854320589,126.950421554565,경기도 안양시 동안구 시민대로 180 ,031-8086-9070
위치타,NOT_RECORD,37.3978588674954,126.918464643284,경기도 안양시 만안구 냉천로203번길 6 1층  ,050701783093
바리스타강,NOT_RECORD,37.3105369330912,126.904539382374,"경기도 안산시 상록구 건건로 107 1층, 102호",031-437-5459
막스로스터스,NOT_RECORD,37.4446365228271,126.786028918058,경기도 시흥시 복지로43번길 32-2 ,010-7146-2480
퀸스타운,NOT_RECORD,37.2061584057883,127.094372707219,경기도 화성시 동탄기흥로520번나길 20 1층,031-376-5202
리꼬 화덕피자 하남미사 본점,NOT_RECORD,37.5689990018634,127.18314566024,경기도 하남시 미사강변북로30번길 65 ,031-791-1898
빠박이생고기전문점,NOT_RECORD,37.0090382697236,127.271877148051,경기도 안성시 중앙로399번길 42 빠박이생고기 ,031-677-7231
맨션1102,NOT_RECORD,37.1559884974908,127.110051134739,경기도 화성시 동탄장지천6길 34 ,070-7799-1102
경성양과점,NOT_RECORD,37.7159784842967,126.763735001248,경기도 파주시 송학1길 135-30 어반하임 102호,070-8657-0344
우시륵,NOT_RECORD,37.3339202392581,127.05198332409,경기도 용인시 수지구 신봉1로344번길 10 ,031-262-8570
경인로570숯불구이,NOT_RECORD,37.4864663318419,126.817717802861,경기도 부천시 경인로 570 ,032-710-7555
미가훠궈양고기,NOT_RECORD,37.3227228798527,127.098206919446,경기도 용인시 수지구 풍덕천로140번길 15 미성빌딩,031-272-2222
옥탑빵,NOT_RECORD,37.201986645093,127.029588738015,경기도 화성시 병점노을로 31 병점역 아이파크 캐슬 상가1동 19호 ,031-304-9615
포터블,NOT_RECORD,37.310552244991,126.827433877675,경기도 안산시 단원구 광덕서로 66 101호,031-401-0249
 진리면관,NOT_RECORD,37.5027792645918,126.773716849978,경기도 부천시 길주로 284 1동 124호,010-8505-1275
서양밥집,NOT_RECORD,36.9802635996925,126.929094033058,경기도 평택시 안중읍 송담2로 55 ,0507-1341-0162
미담,NOT_RECORD,37.3645066353735,127.107093767636,경기도 성남시 분당구 성남대로331번길 9-13 이현빌딩,050713050774
몰래먹던뒷고기,NOT_RECORD,37.3176823563285,126.838581601634,경기도 안산시 단원구 고잔2길 65 경신씨티프라자 1층 ,010-5656-5140
리틀타이랜드,NOT_RECORD,37.3788949275109,127.137658399999,경기도 성남시 분당구 돌마로522번길 12 ,031-709-6595
르꾸떼,NOT_RECORD,37.4476452216679,126.884972577884,경기도 광명시 소하로109번길 19 서울프라자 303호,070-8244-0242
카츠랩,NOT_RECORD,37.2361855484076,127.206318765285,경기도 용인시 처인구 금령로93번길 7-1 ,031-355-1362
채우정,NOT_RECORD,37.3682047072201,126.728938399307,경기도 시흥시 서울대학로278번길 34 아브뉴프랑 옐로우동 123호,031-8042-2339
들뫼약산흑염소전문점,NOT_RECORD,37.0834874138077,127.075580447981,경기도 평택시 오리곡길 101 ,031-611-0778
판교집,NOT_RECORD,37.3901576089752,127.091797600613,경기도 성남시 분당구 판교공원로2길 58 ,0507-1422-6650
구스토구스토,NOT_RECORD,37.6663497142599,126.77318582578,경기도 고양시 일산동구 무궁화로93번길 5-1 ,031-923-9993
윤시커피로스터스,NOT_RECORD,37.6645873234193,126.785771664668,경기도 고양시 일산동구 일산로316번길 25-9 ,0507-1346-3623
코다리백가,NOT_RECORD,36.9995369673699,127.133493335476,경기도 평택시 현촌4길 2-38 ,031-681-8822
베이커리설,NOT_RECORD,37.2372202984303,126.954804106465,경기도 화성시 봉담읍 수영로 60-24 1동 102호,031-292-8900
오리사냥,NOT_RECORD,37.7703680050526,127.120814727298,경기도 의정부시 민락로560번길 95 ,031-851-7935
우프하우스,NOT_RECORD,37.6080967868212,127.376747237303,경기도 양평군 서종면 잠실3길 4 ,070-4402-0021
블랑제리115,NOT_RECORD,37.6523414192885,126.661742861569,경기도 김포시 김포한강6로 115 ,031-998-2049
장흥회관,NOT_RECORD,37.280217502236,127.438871199731,경기도 이천시 중리천로 8-1 장흥회관,031-635-3710
함지박,NOT_RECORD,37.4755089754091,127.18911719291,경기도 광주시 남한산성면 남한산성로 731-15 ,031-744-7462
js가든(판교점),NOT_RECORD,37.392793537537784,127.11208816175997,경기도 성남시 분당구 판교역로146번길 20 현대백화점 판교점 9층,031-5170-1957
카페아루,NOT_RECORD,37.4900852504295,126.743953822285,경기도 부천시 상이로21번길 7-9 1층,032-326-7112
별의감성,NOT_RECORD,37.3133197193014,126.818251310399,경기도 안산시 단원구 광덕3로 49 세라빌딩 101호,010-3194-3629
피코차이나,NOT_RECORD,37.488037633357,126.779762473226,경기도 부천시 신흥로52번길 47 영일탑스빌,032-654-0501
삼돌집(2호점),NOT_RECORD,37.4270493061114,127.256594072614,경기도 광주시 행정타운로 6-3 ,010-5203-4466
제이와이피마카롱,NOT_RECORD,37.66147090149,126.890083374183,경기도 고양시 덕양구 신원로 7 ,010-5199-0318
두부진,NOT_RECORD,37.3860281419418,126.838671875494,경기도 시흥시 동서로811번길 26 ,031-413-0109
블러프커피,NOT_RECORD,37.6648027708546,126.787377965593,경기도 고양시 일산동구 일산로316번길 53-1 ,070-4230-0303
도도만두,NOT_RECORD,37.2313789805281,127.108329219126,경기도 용인시 기흥구 공세로 73 ,031-281-1231
모리코무,NOT_RECORD,37.3943527597949,126.961778602993,경기도 안양시 동안구 시민대로 280 ,031-381-3436
셔터,NOT_RECORD,37.166390217906,127.095277217267,경기도 화성시 동탄순환대로3가길 11 ,010-3900-5035
소소떡볶이(의정부점),NOT_RECORD,37.7475837340212,127.045243725789,경기도 의정부시 평화로 623 ,031-848-8457
남해,NOT_RECORD,37.489840648089,126.75714960415,경기도 부천시 부일로243번길 33 ,032-323-3311
남해옥,NOT_RECORD,37.4897781886626,126.757930242721,경기도 부천시 석천로25번길 37 ,032-324-5959
블루쇼파스타,NOT_RECORD,37.3073826722409,127.085450438456,경기도 용인시 수지구 만현로 103 한길프라자 1층,070-7758-3264
그릭당,NOT_RECORD,37.7393464744631,127.037175172426,경기도 의정부시 시민로19번길 22-9 ,031-877-0370
고종의뜰,NOT_RECORD,37.6772701473096,126.812443700793,경기도 고양시 일산동구 위시티2로11번길 16 ,031-965-3894
앙코르보아,NOT_RECORD,37.2500549923934,127.076803878408,경기도 수원시 영통구 영일로 29 ,031-204-8933
스탠다드커피랩,NOT_RECORD,37.6466197987871,127.235989263191,경기도 남양주시 경춘로1286번안길 19-2  ,031-591-5850
구구족주막(광명점),NOT_RECORD,37.4798230179535,126.852298477517,경기도 광명시 오리로 997 ,02-2681-9991
아더사이드,NOT_RECORD,37.3996441086743,126.970274096871,경기도 안양시 동안구 벌말로 126 오비즈타워 122호,070-8299-5900
미당맷돌순두부,NOT_RECORD,37.4906796202749,126.7559912584,경기도 부천시 상일로122번길 15 ,032-503-5252
비스트로와락,NOT_RECORD,37.7342554750934,127.041691820502,경기도 의정부시 경의로55번길 28 1층 비스트로와락,070-7576-2958
도미닉커피로스터즈,NOT_RECORD,37.2952097364216,127.054962775099,경기도 수원시 영통구 센트럴파크로127번길 24 ,031-546-1684
동네술집,NOT_RECORD,37.1752854965454,127.050728584879,경기도 오산시 수목원로468번길 6-21 ,031-372-5869
탐라담,NOT_RECORD,37.3698356601897,126.728353838883,"경기도 시흥시 서울대학로278번길 19-8 새롬프라자 112, 113호",031-362-6226
뽁식당,NOT_RECORD,37.310108731276,126.829030848646,"경기도 안산시 단원구 광덕대로 151 삼영타운 101호, 102호",070-4047-8345
뽁식당(배곧점),NOT_RECORD,37.368371329452,126.727341176579,경기도 시흥시 서울대학로264번길 25 아브뉴프랑 센트럴 블루 2층,070-5055-1922
뽁식당(호매실점),NOT_RECORD,37.2732778742353,126.954752231108,경기도 수원시 권선구 금곡로196번길 62 SJ타워 109호~111호,070-4353-2656
뽁식당(범계점),NOT_RECORD,37.3903595340571,126.953064536797,경기도 안양시 동안구 평촌대로223번길 49 아트타워빌딩 지하2층,070-4060-4451
카사데타코,NOT_RECORD,37.3104996531489,126.829067753133,경기도 안산시 단원구 광덕대로 155 퍼스트빌,070-8671-2121
오복당,NOT_RECORD,37.3103788659256,126.828411502352,경기도 안산시 단원구 광덕2로 163-5 황금프라자 110호,070-8250-8345
소굿,NOT_RECORD,37.3109265442891,126.82849429791,경기도 안산시 단원구 광덕2로 163-11 21세기빌딩 111호,070-7542-8077
오로르,NOT_RECORD,37.652137711416,126.660708725929,경기도 김포시 해평로 125-36  ,0507-1481-5222
신의식탁,NOT_RECORD,37.4865363407348,126.780614898827,경기도 부천시 부일로 453 가온팰리스 107호,032-611-6286
어느달,NOT_RECORD,37.8469274363599,127.223895260211,경기도 포천시 가산면 마전길 237-1 1층,031-543-4047
헬로에스프레소,NOT_RECORD,37.3112892352202,126.830827660184,경기도 안산시 단원구 광덕대로 168 신화타운 102~104호,031-405-5047
타이로드,NOT_RECORD,37.7106586602791,126.759350612558,경기도 파주시 경의로 1046 이더펠리체 104호,0507-1310-1585
블루,NOT_RECORD,37.3567956500871,127.324406247328,경기도 광주시 곤지암읍 경충대로 778 금진빌딩,031-762-7627
써니스피자마켓,NOT_RECORD,37.3243166971603,127.098555481467,경기도 용인시 수지구 풍덕천로148번길 5-13 ,031-266-6966
화로양미,NOT_RECORD,37.2959845408428,127.069980570607,경기도 용인시 수지구 광교중앙로296번길 6 광교어드벤스힐,031-211-1314
마모리,NOT_RECORD,37.3301218015495,127.070977858367,경기도 용인시 수지구 신봉2로 94-32 ,010-7444-8457
하우스플랜비,NOT_RECORD,37.2839831053039,127.01153648218,경기도 수원시 팔달구 신풍로23번길 62 102호 하우스플랜비 ,031-245-0324
정성식탁,NOT_RECORD,37.2988041515366,126.972812300148,경기도 수원시 장안구 서부로2136번길 9 ,010-4592-1190
봉궁순대국본점,NOT_RECORD,37.2984950703762,126.924970214205,경기도 안산시 상록구 사사안골길 2-2 ,031-439-0005
크룸커피,NOT_RECORD,37.7713279141284,127.04814112976,경기도 양주시 동일로 968  ,070-8866-1007
더수플레,NOT_RECORD,37.314249247468,126.828281208668,경기도 안산시 단원구 광덕3로 135-18 월드타워 112호,070-8833-7215
호박꽃,NOT_RECORD,37.9028065067182,127.2156465601,경기도 포천시 군내면 청성로33번길 18-13 ,031-536-8892
이유간백년칼국수,NOT_RECORD,37.7468963950623,127.068553630025,경기도 의정부시 추동로140번길 42 ,031-852-0235
행화촌,NOT_RECORD,37.2625844725614,127.03523716075,경기도 수원시 팔달구 권광로180번길 42-7 ,031-239-4900
유럽식당,NOT_RECORD,37.6464371949623,127.124865371949,경기도 남양주시 별내2로 64 센타프라자 112호,070-8691-0310
미방,NOT_RECORD,37.3681634346789,127.106311660534,경기도 성남시 분당구 느티로 16 젤존타워1 1층,031-715-9204
뷰66마네쿠,NOT_RECORD,37.8167435281051,127.103687436292,"경기도 양주시 어하고개로 107-40 3, 4층",031-865-5558
뷰66양주스퀘어,NOT_RECORD,37.8167435281051,127.103687436292,경기도 양주시 어하고개로 107-40 2층,031-865-5559
언니네화덕핏짜,NOT_RECORD,37.3012460499123,126.838978795517,경기도 안산시 상록구 성안길 87 가은빌딩,031-407-4596
앳튠,NOT_RECORD,37.8617315545763,126.773407493881,경기도 파주시 문산읍 당동1로 39-27 1층 102호,0507-1399-3540
여운,NOT_RECORD,37.2018771076575,126.828005103936,경기도 화성시 남양읍 역골로 20 104호,031-357-0577
꺼거2,NOT_RECORD,37.3621749058887,127.106553698118,경기도 성남시 분당구 정자일로 136 엠코헤리츠 3단지,0507-1354-9680
맛있는이야기,NOT_RECORD,37.5219394048998,126.805129571423,경기도 부천시 소사로 740 정복빌딩 2층,032-678-0937
화로구이육걸(마석점),NOT_RECORD,37.6545441479581,127.303680796223,경기도 남양주시 화도읍 마석중앙로37번길 20 ,031-559-8024
화로구이육걸,NOT_RECORD,37.6545796814528,127.246568826065,경기도 남양주시 호평로60번길 16-1 ,031-511-1224
온적공간,NOT_RECORD,37.428944709035,127.104589265174,경기도 성남시 수정구 대왕판교로982번길 21-2 ,010-7325-1551
안주가,NOT_RECORD,37.3197236803391,126.847366387629,경기도 안산시 상록구 화랑로 534 안산파크 푸르지오 상가 1층 112호,010-2038-0280
왕창족발,NOT_RECORD,37.379964955328,127.116832474045,경기도 성남시 분당구 수내로46번길 11 대덕글로리빌딩 1층,031-715-3666
윈야드다산,NOT_RECORD,37.6130708407415,127.168796214064,"경기도 남양주시 다산중앙로82번안길 156 114호, B-01호, B-02호, B-03호",070-4035-1889
금석오리,NOT_RECORD,37.6026026047579,126.891178148989,경기도 고양시 덕양구 꽃내음2길 50-2 ,02-6449-0031
파르팔레,NOT_RECORD,37.741992404941,127.050792896572,경기도 의정부시 시민로121번길 87 ,031-848-9427
청기와타운(부천중동점),NOT_RECORD,37.5015058001873,126.772785651307,경기도 부천시 중동로248번길 71 1층,032-326-1143
드래곤차이,NOT_RECORD,37.4004090859667,126.921478953293,"경기도 안양시 만안구 안양로314번길 18 1층, 2층",031-469-0039
호야,NOT_RECORD,37.7225666671623,127.04408391175,경기도 의정부시 호암로 247 영현빌딩,031-827-8258
풀브렛첼,NOT_RECORD,37.1738698181571,127.113366608595,경기도 화성시 동탄산척로2가길 29 101호 (상가주택),070-5208-7583
청기와타운(고덕점),NOT_RECORD,37.0474701609914,127.04546231786,경기도 평택시 고덕중앙로 200-33 2층,031-668-2030
은항아리정육식당,NOT_RECORD,37.8131257581917,127.161923404838,경기도 포천시 소흘읍 죽엽산로 211 ,031-543-4621
철마숙성한우(용인본점),NOT_RECORD,37.3399595979967,127.172675927466,경기도 용인시 처인구 모현읍 충렬로 1 ,010-3022-5296
디어스윗랩,NOT_RECORD,37.2942412282805,127.055313270113,경기도 수원시 영통구 센트럴파크로127번길 147 ,070-8777-0514
화홍문갈비,NOT_RECORD,37.2943709532527,127.024747664733,경기도 수원시 장안구 월드컵로 438 ,010-6333-3603
드디어커피,NOT_RECORD,37.7465670232431,126.729934259203,경기도 파주시 교하로 1229-36 ,070-4279-6935
호작도,NOT_RECORD,37.2863223437013,127.016440376537,경기도 수원시 팔달구 화서문로75번길 7 1층,010-4105-5105
그렇게함박이된다(광교아브뉴프랑점),NOT_RECORD,37.2915676707273,127.050470929016,"경기도 수원시 영통구 센트럴타운로 85 광교C1 호반베르디움, Summit Place광교",031-8001-1413
착화,NOT_RECORD,37.4038504387942,126.953054090224,경기도 안양시 동안구 관악대로275번길 27 ,031-382-9211
제일회관(인계직영점),NOT_RECORD,37.264697463315,127.030873990619,경기도 수원시 팔달구 권광로187번길 31 명성빌딩,031-221-0870
제일회관,NOT_RECORD,37.2689790980757,127.006465484095,경기도 수원시 팔달구 향교로 52 ,0507-1340-0878
구좌리얼크니손칼국수,NOT_RECORD,37.3627233045556,127.098942756414,경기도 성남시 분당구 쇳골로 25 1층,031-711-5557
구좌리얼크니손칼국수(화담숲직영점),NOT_RECORD,37.3424292769683,127.33199763792,경기도 광주시 도척면 도척윗로 73 ,031-767-3224
명동칼국수,NOT_RECORD,37.4128926910695,127.290194891265,경기도 광주시 초월읍 현산로 289 ,031-766-1505
슐츠커피,NOT_RECORD,37.3773424502175,126.727496126419,경기도 시흥시 배곧4로 30 배곧타운I,010-5829-4842
도조커피,NOT_RECORD,37.3767491227915,127.112355461382,경기도 성남시 분당구 백현로101번길 12 ,031-715-8252
임금돼지(부천본점),NOT_RECORD,37.5023422984096,126.773163900307,경기도 부천시 중동로262번길 76 중동플라자,032-321-8292
뵈르,NOT_RECORD,37.2026971610624,127.125400712242,경기도 화성시 동탄치동천로2길 4-18 ,010-6806-4785
라우드커피플레이스,NOT_RECORD,37.3378795564947,126.934427165917,경기도 군포시 삼성로20번길 12-7 은성빌리지,031-391-0814
다이닝1324,NOT_RECORD,37.7377820876921,127.049730620553,경기도 의정부시 시민로132번길 4 지상2층,070-7543-5744
르뺑데쟈코벵,NOT_RECORD,37.2792703438517,127.153453166634,경기도 용인시 기흥구 평촌2로1번길 35 정원빌,031-285-3643
꼬모윤(다산신도시점),NOT_RECORD,37.6248726304674,127.152422448068,경기도 남양주시 다산중앙로123번길 22-26 헤리움그랑비스타1차 119호 꼬모윤,010-3587-0447
윌로우우드,NOT_RECORD,37.3705044199436,126.727970634048,경기도 시흥시 서울대학로278번길 19-13 시흥배곧 C1 호반 써밋플레이스상가 B동 243호,031-497-5696
광주칼국수,NOT_RECORD,37.35240103765,127.165527050222,경기도 광주시 능평로 59 더베일리하우스 303동,031-718-8849
프렛베이커리,NOT_RECORD,37.383699233336,127.149706930739,경기도 성남시 분당구 새마을로 173 1층,0507-1379-4151
마이미니노,NOT_RECORD,37.817674016142,127.09650175832,경기도 양주시 옥정동로5나길 83-3 1층 ,010-8474-1855
킵샐러드(판교본점),NOT_RECORD,37.3954648629951,127.112113596734,경기도 성남시 분당구 분당내곡로 131 판교테크원타워 2층 20-2호,031-601-7552
아누보,NOT_RECORD,37.6666791740219,126.772843437673,경기도 고양시 일산동구 무궁화로93번길 13 ,070-7622-9811
술로맨스 퓨전요리전문,NOT_RECORD,37.6518833009949,127.128118486856,경기도 남양주시 순화궁로 249 파라곤스퀘어 N동 2층 A205호,010-8675-3005
궁중삼계탕,NOT_RECORD,37.3016913386604,126.851087861155,경기도 안산시 상록구 석호공원로 69 인우빌 101호,031-502-9090
솔가원,NOT_RECORD,37.7651805316343,127.092535395453,경기도 의정부시 호국로 1769-5 ,031-821-7556
카페부부(서판교점),NOT_RECORD,37.3905006967421,127.093321714485,경기도 성남시 분당구 판교공원로1길 32 101호 ,
박네집송탄부대찌개&무공닭갈비,NOT_RECORD,37.2810297051829,126.969382862232,경기도 수원시 권선구 서부로1934번길 2 ,031-291-7171
할머니손순대,NOT_RECORD,37.3018128006666,127.009992598525,경기도 수원시 장안구 송원로 82 ,031-252-3612
글렌로스골프클럽,NOT_RECORD,37.2944664882956,127.185738968163,경기도 용인시 처인구 포곡읍 에버랜드로562번길 69 글렌로스 클럽하우스,031-320-9601
카페포레,NOT_RECORD,37.291319858743,127.140898214956,경기도 용인시 기흥구 구성로279번길 3-11 1층,031-284-9995
딩딩,NOT_RECORD,37.646417892181,127.235807326789,경기도 남양주시 경춘로1286번안길 22 103호,031-594-1133
오프레베이크,NOT_RECORD,37.3129721977202,126.832609989701,경기도 안산시 단원구 광덕동로 95 궁전타워 102호,031-486-0407
날라리식당,NOT_RECORD,37.7397148658476,127.036936310554,경기도 의정부시 시민로19번길 30-5 1층 날라리식당,031-841-1077
빵집우상향,NOT_RECORD,37.6117467554368,126.72649225465,경기도 김포시 유현로 215 풍무 센트럴 푸르지오 후문(Gate 2) 상가,031-981-0577
마또이따레스토랑루프탑앤바,NOT_RECORD,37.4763126069551,126.870100850823,경기도 광명시 철산로 36 양정타워 ,02-2617-7777
미츠스테이크 서현,NOT_RECORD,37.3840671535876,127.121552935695,경기도 성남시 분당구 분당로53번길 11 서원플라자 5층,031-708-6617
마망젤라또,NOT_RECORD,37.3637209133898,127.106324583275,경기도 성남시 분당구 정자로 13 ,010-2803-2106
파인팔레트,NOT_RECORD,37.6736971410655,126.798093080634,경기도 고양시 일산동구 숲속마을2로 52 ,031-901-5073
할머니의 부뚜막,NOT_RECORD,37.3262972764931,127.101516099029,경기도 용인시 수지구 풍덕천로 188-1 103호,031-8004-0827
알천비빔국수,NOT_RECORD,37.7916595704615,127.164997671396,경기도 포천시 소흘읍 죽엽산로 476-13 ,031-541-5388
상원회관,NOT_RECORD,37.2976222324033,127.042573192301,경기도 수원시 영통구 대학1로 12 광교빌 1층,010-8823-8789
오티티,NOT_RECORD,37.2634659541288,127.034032772779,경기도 수원시 팔달구 권광로180번길 21 ,010-9492-7329
죽여주는동치미국수,NOT_RECORD,37.568267,127.322006,경기도 남양주시 조안면 북한강로 547 ,031-576-4020
토리코코로 ,NOT_RECORD,37.64388077797,127.110083097611,경기도 남양주시 불암로 25-39 ,010-6442-1892
행복한소풍 ,NOT_RECORD,37.429865663465,127.071685539119,경기도 성남시 수정구 달래내로 407 ,0507-1396-3425
화양연화,NOT_RECORD,37.5035104155183,126.764264791509,경기도 부천시 석천로184번길 26 ,010-9969-8458
얼큰명가찌개마을,NOT_RECORD,37.294492236938,127.021988962123,경기도 수원시 장안구 광교산로 34 ,031-242-8147
한돈곳간(동탄본점),NOT_RECORD,37.2059172256117,127.113349866127,경기도 화성시 지산2길 9 ,0507-1342-1971
퍼부어(밤리단길점),NOT_RECORD,37.6706831492438,126.781830150864,경기도 고양시 일산동구 일산로394번길 19-7 ,0507-1354-2948
명백집(오산점),NOT_RECORD,37.1607414331868,127.077699871446,"경기도 오산시 현충로 95 104동, 106, 107호",
라퐁텐,NOT_RECORD,37.2731945359489,127.07272014116,경기도 용인시 기흥구 흥덕2로65번길 11-2 ,010-7679-5949
커피볶는곰다방,NOT_RECORD,37.197965,127.075546,경기도 화성시 노작로4길 39-16 ,031-613-2778
식당수북,NOT_RECORD,37.6990531063405,126.753575820691,경기도 고양시 일산서구 하이파크2로 40 금문프라자 202호 ,031-925-9437
남해물고기,NOT_RECORD,37.3909063697575,126.953304727246,경기도 안양시 동안구 평촌대로223번길 42 중앙프라자 4층 404호,031-381-7770
빌리스커피하우스,NOT_RECORD,37.6388338805425,126.627564536337,경기도 김포시 김포한강9로12번길 23-19 101호,010-7235-7621
브라우너리,NOT_RECORD,37.357267846086,127.124175023365,경기도 성남시 분당구 불곡남로 27 1층 브라우너리 커피 로스터스,0507-1336-0283
쿠시코와,NOT_RECORD,37.5625864791901,127.189964124756,경기도 하남시 미사강변중앙로 181 더퍼스트테라스 3층 308호,010-2766-2907
옴브레,NOT_RECORD,37.7391119910723,127.048255948641,경기도 의정부시 행복로 2 진성빌딩 2층,031-0821-7757
휴고스커피,NOT_RECORD,37.3714689708242,127.129752700097,경기도 성남시 분당구 수내로 201 샛별마을삼부아파트 분산상가,010-2436-7540
찌엔용,NOT_RECORD,37.5620314431748,127.192812893671,경기도 하남시 미사강변동로 79 미사역타워 2층 204호,031-795-8778
맛나반점,NOT_RECORD,37.8493212211671,126.79118555326,경기도 파주시 파주읍 충현로 25 ,031-952-7737
아가치타,NOT_RECORD,37.2422642022191,127.069660384057,경기도 용인시 기흥구 서그내로62번길 25 우리식품 가동 1층  ,010-7227-8169
커피나인(이천SK하이닉스점),NOT_RECORD,37.2525105751105,127.48994489114,경기도 이천시 부발읍 경충대로 2100 ,031-8011-9994
호윤,NOT_RECORD,37.501628908314,126.771773445521,경기도 부천시 중동로248번길 55 무광프라자 1층,070-7543-4364
스시다린,NOT_RECORD,37.8194236586263,127.092133550562,경기도 양주시 옥정로 200 씨네마엠디 309호 스시다린,010-2223-6675
성포정육식당,NOT_RECORD,37.3205746334363,126.846058548307,경기도 안산시 상록구 화랑로 523 성포주공10단지,031-402-3956
서울페이스트리(행궁점),NOT_RECORD,37.2858952247334,127.015294330857,경기도 수원시 팔달구 정조로 873 ,0507-1319-5794
라벨르마망,NOT_RECORD,37.3630091848763,127.106533316945,경기도 성남시 분당구 정자일로 146 엠코헤리츠 1단지,031-711-3372
마마문스판교본점,NOT_RECORD,37.3944039022277,127.108352326702,경기도 성남시 분당구 판교역로 145 알파리움2단지 라스트리트 2층 215호,031-707-4204
범표원두(갈매점),NOT_RECORD,37.6389804882922,127.123567504293,경기도 구리시 갈매순환로204번길 51-14 ,070-7807-3071
별림당,NOT_RECORD,37.4323910895284,127.134052116834,경기도 성남시 중원구 제일로63번길 16 ,010-2153-8253
팔레트커피,NOT_RECORD,37.3186915641078,126.836518384424,"경기도 안산시 단원구 예술대학로 17 안산중앙노블레스 204,205호",010-3368-1388
666버거,NOT_RECORD,37.2668313941414,127.054212038916,경기도 수원시 영통구 매영로 110 ,031-213-7789
전기구이나는통닭본점,NOT_RECORD,37.3965285100571,126.930301561895,경기도 안양시 만안구 관악대로 50 디스퀘어큐브 1층 112호,031-444-8292
초대창(백석점),NOT_RECORD,37.6460955031928,126.787364563004,경기도 고양시 일산동구 강송로87번길 39 ,031-903-7879
명백집,NOT_RECORD,37.2485039341448,127.05493863973,경기도 수원시 영통구 신원로 124-1 ,010-4519-5408
팔당냉면(수지광교본점),NOT_RECORD,37.3044128876658,127.075043334924,경기도 용인시 수지구 수지로 16 풍천빌딩,010-7462-5500
영동교집(위례직영점),NOT_RECORD,37.4667243057134,127.137331514615,경기도 성남시 수정구 위례서일로1길 3-12 남위례역 3번출구에서 456m,031-755-3455
부산의밤,NOT_RECORD,37.4318946564142,127.132831310893,경기도 성남시 중원구 제일로63번길 27 ,010-9663-6258
어텀바이브,NOT_RECORD,37.2342952152708,127.204100581556,경기도 용인시 처인구 금령로56번길 5-16 ,070-8866-7190
동경에서온주방장 ,NOT_RECORD,37.4000417914656,126.973570975014,경기도 안양시 동안구 인덕원로8번길 13 ,010-9103-3558
분식백화점(동탄영천직영점),NOT_RECORD,37.2108651707078,127.089445559923,경기도 화성시 동탄첨단산업1로 27 금강펜테리움IX타워 코벤트가든,010-7636-5806
제주은희네해장국(시흥정왕점),NOT_RECORD,37.3446369818996,126.735441702881,경기도 시흥시 중심상가로 184 수목프라자,031-319-2729
미스트,NOT_RECORD,37.2451294220493,127.061898704684,경기도 수원시 영통구 덕영대로 1566 ,031-206-8313
마네쿠,NOT_RECORD,37.7083303528939,127.04787943597,경기도 의정부시 평화로 185 1층,031-876-7655
분당두부,NOT_RECORD,37.3508873918775,127.109492449514,경기도 성남시 분당구 성남대로 168 미도프라자 1층,010-2669-7251
허선생,NOT_RECORD,37.7388576944996,127.049446689053,경기도 의정부시 태평로63번길 44 우주빌딩,070-7585-9800
돌체베이커리,NOT_RECORD,37.386016889663,127.111002414842,경기도 성남시 분당구 판교역로14번길 27 1층 돌체베이커리,070-8670-6431
파랑새야!,NOT_RECORD,37.3899740797681,126.953529121118,경기도 안양시 동안구 평촌대로217번길 45 평촌코아주차빌딩 1층 107호,031-386-1244
달씨,NOT_RECORD,37.7365994268374,127.085227306759,경기도 의정부시 용민로 60 ,070-8280-1984
비토스콘(구래점),NOT_RECORD,37.6452671816497,126.626294177736,경기도 김포시 김포한강9로76번길 87 골든타임 101호,031-982-1013
그냥,NOT_RECORD,37.4897755700098,126.75595665864,경기도 부천시 송내대로74번길 34 뉴스타프라자,010-8414-2509
돼지체육관,NOT_RECORD,37.8174962895288,127.097990572071,경기도 양주시 옥정동로5라길 6-20 1층 돼지체육관,070-7670-1117
포크너(인계점),NOT_RECORD,37.2633931057919,127.035712151263,경기도 수원시 팔달구 권광로180번길 53-8 홍암타워 1층,070-8807-4752
제이청담반점,NOT_RECORD,37.8311056892846,127.069005077274,경기도 양주시 엄상동길 50-7 골든빌 ,031-859-3993
진1926(풍무점),NOT_RECORD,37.6073967175777,126.72618836119,경기도 김포시 풍무2로 10 2층 201호,031-996-1926
"1987,봄",NOT_RECORD,37.3726101726552,127.114052580893,경기도 성남시 분당구 백현로144번길 7-6 ,010-4590-3873
오브스토리지(일산점),NOT_RECORD,37.6577673770129,126.771382818559,경기도 고양시 일산동구 정발산로 31-21 맥클린21 1층,031-907-3121
참치한상,NOT_RECORD,37.6252049735869,127.154936446325,경기도 남양주시 다산중앙로146번길 12-16 파크뷰타워 304-305호,031-556-4300
오월의꽃수저 ,NOT_RECORD,37.2491043772112,127.042485240859,경기도 수원시 영통구 권선로882번길 26-3 ,031-204-1001
비스트로올,NOT_RECORD,37.4115425587772,127.131141344937,경기도 성남시 분당구 야탑로111번길 19-1 1층 비스트로올,010-4153-8735
슬로우제이커피공장,NOT_RECORD,37.2121476048137,127.169766050854,경기도 용인시 처인구 이동읍 백자로 127-1 ,031-333-7989
금쪽갈비,NOT_RECORD,37.7387209459209,127.049186906982,경기도 의정부시 태평로63번길 45 ,031-841-1036
검은소새끼,NOT_RECORD,37.269475815725,127.006933075673,경기도 수원시 팔달구 향교로 56 ,031-8001-7854
1059-3베이글커피하우스,NOT_RECORD,37.2547014075791,127.021871207888,경기도 수원시 권선구 세권로166번길 31 ,0507-1309-9974
참참식당,NOT_RECORD,37.0008226013027,127.080693425658,경기도 평택시 세교공원로 16 ,031-666-0211
도란치킨,NOT_RECORD,37.1471773416003,127.074190489299,경기도 오산시 운천로 49 2층,031-376-5450
화이트헤이븐커피,NOT_RECORD,37.5700176084467,127.181080303494,경기도 하남시 미사강변북로30번안길 22 혜민빌딩 1층,070-4120-5597
환이네뭉티기,NOT_RECORD,37.2507391462565,127.074847823295,경기도 수원시 영통구 청명남로12번길 13 ,031-273-4830
한성돈까스(위례점),NOT_RECORD,37.4667677914813,127.142159396264,경기도 성남시 수정구 위례광장로 12 위례역푸르지오 6단지 상가 2층 6a-207,070-8721-8443
돌삼닭(철산점),NOT_RECORD,37.4749531611589,126.867903781074,경기도 광명시 오리로856번길 8-1 ,02-2066-2604
비비디바비디부,NOT_RECORD,37.3692095306727,126.729332730924,경기도 시흥시 서울대학로278번길 25-32 다인로얄팰리스 2차 104호,010-7605-1620
차이나퀴진,NOT_RECORD,37.7500161057265,127.118580219773,경기도 의정부시 용민로 493 엘스퀘어 2층228호,031-851-8744
퇴촌중앙갈비 ,NOT_RECORD,37.4717741361398,127.31192487122,경기도 광주시 퇴촌면 천진암로 358 ,010-2338-6614 
마부시,NOT_RECORD,37.3943527597949,126.961778602993,경기도 안양시 동안구 시민대로 280 평촌 샤르망2,031-384-3436
원동,NOT_RECORD,37.6624430215494,126.890526556169,경기도 고양시 덕양구 신원로 12-7 한양플러스,02-381-3819
키키자케시,NOT_RECORD,37.4686092354122,126.822564219768,경기도 부천시 양지로171번길 38 1층 키키포차,070-4177-8902
디그리,NOT_RECORD,37.3087905401283,126.82892125654,경기도 안산시 단원구 광덕대로 137 A동 103호,031-481-8333
분더커피바,NOT_RECORD,37.4880315249104,126.813823325157,경기도 부천시 부일로763번길 30 더 제이 캐슬 1층 ,010-3439-6334
고기의즐거움(분당직영점),NOT_RECORD,37.3644920476942,127.106784891112,경기도 성남시 분당구 성남대로331번길 9-14 모선빌딩 1층,031-713-7737
고기의즐거움,NOT_RECORD,37.2073672433305,127.073684310644,경기도 화성시 동탄원천로 163 위너스타빌딩 1층,031-8015-5575
원앙칼국수광릉,NOT_RECORD,37.7786872035547,127.142827266186,경기도 포천시 소흘읍 광릉수목원로 922 원앙칼국수광릉,031-543-0922
참소예,NOT_RECORD,37.3839945538029,126.828318987031,경기도 시흥시 동서로 706-27 참소예,031-410-5553
온실과자점,NOT_RECORD,37.3489404443443,127.110466899341,경기도 성남시 분당구 미금일로90번길 32 웰파크빌딩,070-7778-8333
카페굿웨더,NOT_RECORD,37.3866161898751,127.124286529502,경기도 성남시 분당구 황새울로342번길 19 유성그린빌딩,031-698-2331
나단이태리식당,NOT_RECORD,37.2370233123127,127.077839400503,경기도 용인시 기흥구 서천동로43번길 9-12 ,031-206-5252
우미당,NOT_RECORD,37.6137779145211,127.16556781867,경기도 남양주시 다산중앙로82번안길 103-13 ,031-522-5083
미쓰발랑코,NOT_RECORD,37.4993464944471,126.775398429638,경기도 부천시 조마루로285번길 40 굿모닝로얄프라자  1층,032-324-7087
정갈,NOT_RECORD,37.6414650423993,126.786742695439,경기도 고양시 일산동구 일산로 30 효성레제스 오피스텔 111호,010-8616-0256
사이쵸세카이,NOT_RECORD,37.3677103184992,126.728468295924,경기도 시흥시 서울대학로264번길 35 시흥배곧 아브뉴프랑 센트럴 그린동 123호,031-433-1120
사또통족발,NOT_RECORD,37.2948073574866,127.02707212631,경기도 수원시 장안구 연무로 37-2 1층,031-242-8254
미리내,NOT_RECORD,37.5025495906564,126.771605866261,경기도 부천시 중동로262번길 50 뉴월드프라자,0507-1305-5031
라멘온도,NOT_RECORD,37.5632526660464,127.194725811456,경기도 하남시 미사강변동로84번길 29 ,031-793-1008
양주흑염소,NOT_RECORD,37.8115326287356,126.990985133547,경기도 양주시 광적면 부흥로 912 자운빌딩 1층,031-836-9397
범고래,NOT_RECORD,37.402284993562,126.919047149259,경기도 안양시 만안구 안양로340번길 5 ,010-6391-9248
타이마실(동탄병점점),NOT_RECORD,37.2112139670853,127.041528031745,경기도 화성시 병점동로 78 ,031-267-2544
사이쵸쇼우지,NOT_RECORD,37.3092932367297,126.831313125306,경기도 안산시 단원구 광덕2로 186-3 1층105호,070-8233-0680
사이쵸,NOT_RECORD,37.2945556992494,126.862736667891,경기도 안산시 상록구 샘골로 119 ,070-4110-1461
명물숯불닭갈비(양수점),NOT_RECORD,37.5442101932411,127.323164528344,경기도 양평군 양서면 양수로118번길 17 ,031-772-0223
오붓하다,NOT_RECORD,37.6472318780324,126.676948369746,경기도 김포시 김포한강2로24번길 78-54 청명거택 102호,070-7576-4546
일템포 ,NOT_RECORD,37.3267234415968,127.10854616741,경기도 용인시 수지구 용구대로 2701 테이스티에비뉴 111호,031-266-6261
원더풀치타,NOT_RECORD,37.2740918013599,127.015851637801,경기도 수원시 팔달구 향교로 154 만호빌딩 1층,010-4676-8199
다이닝채이,NOT_RECORD,37.6620866553614,126.888858448259,경기도 고양시 덕양구 신원로1길 27 ,010-8262-4433
도깨비반점,NOT_RECORD,37.3181875246317,126.951937173477,경기도 의왕시 부곡시장4길 8 백운아파트 상가 1층 103호,031-462-1313
생선선생,NOT_RECORD,37.3711932154318,127.114616947467,경기도 성남시 분당구 내정로119번길 7 ,031-714-0898
증포설렁탕,NOT_RECORD,37.290308950549,127.451335410884,경기도 이천시 증신로 166 1층,010-4763-9959
만두요법,NOT_RECORD,37.7255254171252,126.796369303,경기도 고양시 일산동구 고봉로 804 ,010-5041-0204
알로하오에,NOT_RECORD,37.5480385921797,127.322314916075,경기도 양평군 양서면 양수로138번길 51 ,031-771-5373
호우04,NOT_RECORD,37.6462966453661,126.790206732514,경기도 고양시 일산동구 강송로73번길 7-5 ,070-5151-5212
픽키,NOT_RECORD,37.2878001857508,127.015409630333,경기도 수원시 팔달구 정조로900번길 15 ,031-244-0709
갤러리카페봄,NOT_RECORD,37.4159172946519,126.982713712294,경기도 과천시 가일로 15-3 ,02-502-0606
누루,NOT_RECORD,37.3838443552957,126.959221107035,경기도 안양시 동안구 평촌대로 133 경한프라자 101호,031-383-1020
오키,NOT_RECORD,37.3921937000392,126.948619359043,"경기도 안양시 동안구 동안로159번길 26 은하수한양5단지 상가동, okki",070-4224-8345
교소바,NOT_RECORD,37.4003793746832,127.10208724198,경기도 성남시 분당구 대왕판교로645번길 36 NS홈쇼핑별관 지하 1층,031-606-8521
돌하르방식당,NOT_RECORD,37.8169010511842,127.096652824038,경기도 양주시 옥정동로5바길 11 ,010-9195-8526
해조,NOT_RECORD,37.3940333895461,126.961353808735,경기도 안양시 동안구 관평로186번길 23 ,031-385-1407
계절곳간,NOT_RECORD,37.2822455156544,127.017601061177,경기도 수원시 팔달구 창룡대로7번길 5 ,031-8004-0411
골드핸즈,NOT_RECORD,37.682877149161,126.790877250722,경기도 고양시 일산동구 성석로 30 ,031-975-0967
미담휴,NOT_RECORD,37.3646927269071,127.106762033824,경기도 성남시 분당구 성남대로331번길 9-12 우경빌딩 ,0507-1350-9996
바이웨이,NOT_RECORD,37.7488107594075,127.069650694541,경기도 의정부시 청사로5번길 26 경남빌딩 1층,010-2637-9647
아티스츠커피,NOT_RECORD,37.4061178572279,126.972137220461,경기도 안양시 동안구 동편로 22 KTOWN오피스텔 112호  ,010-9869-0804
와플랑,NOT_RECORD,37.3850358596408,127.110998145724,경기도 성남시 분당구 판교역로14번길 15 성음아트센터,031-707-0716
콩심팥심,NOT_RECORD,37.6509965297031,126.648703264453,경기도 김포시 양촌읍 김포한강4로 313 ,031-997-6824
장어명가,NOT_RECORD,37.688972306808,126.902389094203,경기도 고양시 덕양구 서리골길 15 ,010-8713-2524
수비토,NOT_RECORD,37.6131347683792,126.834481403206,경기도 고양시 덕양구 충장로 2 센트럴빌딩 1층 118호 ,010-8366-6625
연호두,NOT_RECORD,37.7301780020126,127.059432374304,경기도 의정부시 동일로 468 ,010-9487-2603
육콩,NOT_RECORD,37.2825327322374,127.033276256704,경기도 수원시 팔달구 중부대로143번길 97 거성빌딩,031-204-6060
웹스커피,NOT_RECORD,37.3132144190534,126.83211771781,경기도 안산시 단원구 광덕3로 175-11 삼우타워 201호,031-402-3337
카페리핑,NOT_RECORD,37.2487062491326,127.042615088112,경기도 수원시 영통구 권선로882번길 31-4 1층,070-7755-2326
야미카츠(판교본점),NOT_RECORD,37.4138277453544,127.099316624097,경기도 성남시 수정구 대왕판교로 815 판교제2테크노밸리 기업지원허브 1층 106호,0507-1324-4790
두레,NOT_RECORD,37.4765018878755,127.187590412871,경기도 광주시 남한산성면 남한산성로 731-14 ,031-744-3532
카페인신현리포레스트,NOT_RECORD,37.3783105090253,127.164280017606,경기도 광주시 오포읍 새말길167번길 68 카페인신현리,070-5073-2424
가하,NOT_RECORD,37.5625864791901,127.189964124756,경기도 하남시 미사강변중앙로 181 더퍼스트테라스 119호,031-791-7970
양과자점취향,NOT_RECORD,37.2537110951157,127.111930477077,경기도 용인시 기흥구 한보라2로14번길 3-8 상가 101호,010-3494-4708
코다리와능이버섯미사,NOT_RECORD,37.5654096848705,127.191397352591,경기도 하남시 미사강변동로 121 더랜드시티 211호,031-796-7988
잔잔(수원역점),NOT_RECORD,37.2691552965662,127.005583168849,경기도 수원시 팔달구 향교로 43 ,010-8821-4391
광연,NOT_RECORD,37.6693446459622,126.785311067638,경기도 고양시 일산동구 일산로372번길 58-1 1층,070-8228-6290
이매진도넛,NOT_RECORD,37.3954205092827,127.113554546191,경기도 성남시 분당구 대왕판교로606번길 58 판교 푸르지오 월드마크 1-20호,031-8023-9199
김가네전주콩나물국밥,NOT_RECORD,37.0584934849315,127.073881552337,경기도 평택시 추담로 58-11 ,031-611-9589
삼백반점,NOT_RECORD,37.0584934849315,127.073881552337,경기도 평택시 추담로 58-11 ,031-611-8298
이터너티 린 케이크제작소,NOT_RECORD,37.4154506290774,127.250370389911,경기도 광주시 포돌이로 12-10 ,031-769-8779
블루힐,NOT_RECORD,37.4561645369252,127.224691974981,경기도 광주시 남한산성면 남한산성로 255 ,031-747-6789
젤라떼리아 칠렉싱,NOT_RECORD,37.3202646161296,127.109862171061,경기도 용인시 기흥구 죽전로 10 109-2호,010-2811-7259
오뵈르,NOT_RECORD,37.6518833009949,127.128118486856,경기도 남양주시 순화궁로 249 B-117호,010-8232-6440
여기로와,NOT_RECORD,37.477835516504,127.1860224934,경기도 광주시 남한산성면 남한산성로 759 ,031-747-9893
어니스트 ,NOT_RECORD,37.2149315940082,127.100158159356,경기도 화성시 동탄대로 677-12 효성ICT타워 134호,031-378-1911
하나기,NOT_RECORD,37.6613188072903,126.767301436388,경기도 고양시 일산동구 무궁화로 20-18 하임빌로데오빌딩 104호,031-905-1770
올트커피,NOT_RECORD,37.9073793270461,127.05122453621,경기도 동두천시 강변로430번길 10  ,070-8691-3239
비와별닭갈비(스타필드고양점),NOT_RECORD,37.6469771187284,126.89477806511,경기도 고양시 덕양구 고양대로 1955 3층 비와별닭갈비 스타필드고양점,031-5173-3447
오포진뚝닭,NOT_RECORD,37.3880868044223,127.255413206995,경기도 광주시 오포읍 양벌로 89  ,031-765-7444
일도씨닭갈비(판교점),NOT_RECORD,37.394244787236,127.112210932491,경기도 성남시 분당구 분당내곡로 117 크래프톤타워 지하1층,031-622-7509
팍스테이블,NOT_RECORD,37.5008379979602,126.774348325924,경기도 부천시 소향로 239 대야하이빌2차 104호,070-7333-3030
하남장터곱창,NOT_RECORD,37.5398176379992,127.209319527184,경기도 하남시 하남대로787번길 10 ,031-793-0582
쓰리어클락,NOT_RECORD,37.6542678348328,126.68481909007,경기도 김포시 김포한강1로 247 헤리움타운 1층 115호,070-4221-4280
에도마에텐동하마다(서현점),NOT_RECORD,37.383526936654,127.121780037862,경기도 성남시 분당구 분당로53번길 10 동호플라자 ,0507-1365-7233
일미담,NOT_RECORD,37.9089034693516,127.056316619282,경기도 동두천시 동광로 73 ,031-866-4063
봉봉,NOT_RECORD,37.3721599902148,127.112863090015,경기도 성남시 분당구 백현로144번길 19-1  ,070-7718-9740
성심어린,NOT_RECORD,37.6586701971311,126.767621359759,경기도 고양시 일산동구 중앙로1275번길 86-1 중앙하이츠빌 108호,031-908-5666
아씨네족발,NOT_RECORD,37.6470060438559,127.123181600391,경기도 남양주시 별내중앙로57번길 23-7 ,031-528-5898
성호커피,NOT_RECORD,37.440485839406,127.173565779809,경기도 성남시 중원구 사기막골로105번길 25 중앙인더스피아2차 지층 B103호,031-745-0215
크레센도커피로스터스,NOT_RECORD,37.4051254914238,127.126936671291,경기도 성남시 분당구 판교로 478 금강프라자 108호,031-702-0153
잼앤브레드,NOT_RECORD,37.39109195476756,127.09170026863768,경기도 성남시 분당구 운중로277번길 40-15 ,031-707-6113
이오참치,NOT_RECORD,37.5066772102609,126.756466806807,경기도 부천시 길주로121번길 18-7 성원프라자 2층,032-323-2537
미키,NOT_RECORD,37.3940760380464,126.962567900335,경기도 안양시 동안구 관평로182번길 43 삼일프라자 202호,070-8830-6014
리커피(동탄파라곤점),NOT_RECORD,37.2039744437243,127.072192727906,경기도 화성시 동탄반석로 172 동탄 파라곤 141호 ,031-613-7319
내게기대,NOT_RECORD,37.5610945158436,127.190693867516,경기도 하남시 미사강변중앙로 161 미사파크뷰 2층 206호  ,010-2773-1827
비스트로이니,NOT_RECORD,37.6670330755368,126.772841905716,경기도 고양시 일산동구 무궁화로93번길 20 ,031-812-2533
백세삼계탕,NOT_RECORD,37.3180439518529,126.988926840812,경기도 수원시 장안구 경수대로 1200  ,031-293-5888
일영대추나무집(일산점),NOT_RECORD,37.6621170851788,126.768038454559,경기도 고양시 일산동구 무궁화로 32-12 라페스타E동 2층 204호,031-901-5238
동백다방,NOT_RECORD,37.2763945486179,127.152646661699,경기도 용인시 기흥구 동백중앙로 265 더엠빌딩 1층  ,031-281-3576
피오니파스타바,NOT_RECORD,37.4353351686482,127.138112543433,경기도 성남시 중원구 광명로 89 성남센트럴푸르지오시티 157호,0507-1391-0329
쉐프케이,NOT_RECORD,37.817349451935,127.096988559576,경기도 양주시 옥정동로5바길 22 ,031-866-8966
앤센스 에스프레소 커피바 ,NOT_RECORD,37.4993009160948,126.785191225614,경기도 부천시 부천로167번길 17 ,0507-1344-1532
뇌프,NOT_RECORD,37.7427088820062,127.048153675545,경기도 의정부시 호국로1298번길 18 1층,031-928-6209
몽스베이커리(정자역점),NOT_RECORD,37.3643948114297,127.10769641858,경기도 성남시 분당구 성남대로331번길 3-13 대명제스트빌딩 1층 109호,031-711-6431
몽스베이커리,NOT_RECORD,37.3587618141043,127.124113257481,경기도 성남시 분당구 불곡남로13번길 10-1 1층  ,031-717-1165
도도한면(다산직영점),NOT_RECORD,37.6212810351291,127.148816998809,경기도 남양주시 다산순환로 118-40 ,0507-1384-1379
오와케이크,NOT_RECORD,37.6573799092556,127.127130193073,경기도 남양주시 두물로27번길 18-6 ,010-6717-8513
에버노크,NOT_RECORD,37.8964703985722,127.056772947544,경기도 동두천시 평화로2349번길 43 ,070-8836-8268
반마이,NOT_RECORD,37.7059079583638,126.717569488124,경기도 파주시 교하로 555 ,070-7764-8799
카레현,NOT_RECORD,37.7437567584744,127.099659951417,경기도 의정부시 천보로 14 글래드스톤 1층 1047호,070-7537-0122
내음밤리단길,NOT_RECORD,37.6708841216538,126.781713380579,경기도 고양시 일산동구 일산로394번길 5-21 ,0507-1320-6654
로스트피그(하남점),NOT_RECORD,37.5686269351169,127.183581448395,경기도 하남시 미사강변북로30번길 105 ,031-792-9279
온돈네,NOT_RECORD,37.7449816431985,127.097374440948,경기도 의정부시 오목로205번길 21 골드프라자3 113호,010-7683-0818
효자관,NOT_RECORD,37.755685249519,126.908733197295,경기도 파주시 광탄면 보광로 542 ,031-943-9966
포이남,NOT_RECORD,37.7514469136246,127.118059854934,경기도 의정부시 용민로 477 티엘프라자 ,031-878-1128
비니투스,NOT_RECORD,37.4707175083074,127.142268729817,경기도 성남시 수정구 위례순환로 130 위례 아트리버 푸르지오,010-8836-8821
포크너(분당점),NOT_RECORD,37.3517203372396,127.105689710757,경기도 성남시 분당구 정자일로 21 삼라마이다스빌,070-8671-4752
데뮤어,NOT_RECORD,37.4800263276287,126.853272423386,경기도 광명시 오리로 992 광명리더스빌딩 1층, 010-5288-2460
강남면옥(평촌점),NOT_RECORD,37.3970245375177,126.974376581417,경기도 안양시 동안구 시민대로 401 대륭테크노타운15차 1층,031-422-6888
양가네쪽갈비,NOT_RECORD,37.7348575779275,127.418058058644,경기도 가평군 청평면 시장중앙로 7-37 ,031-585-5947
카페소비,NOT_RECORD,37.6697214344469,126.785607856724,경기도 고양시 일산동구 산두로 134 ,031-903-1285
마츠노키,NOT_RECORD,37.6891391428715,126.762622697116,"경기도 고양시 일산서구 산현로 8 성지상가 104호,105호",031-915-1231
김포옥,NOT_RECORD,37.6540272635513,126.592670212742,경기도 김포시 대곶면 대명항로 236 ,031-983-5569
호무라텐동,NOT_RECORD,37.2083954095462,127.061223186784,경기도 화성시 동탄공원로3길 23 ,031-373-5840
신분당선숯불구이,NOT_RECORD,37.3098257362266,127.086075656397,경기도 용인시 수지구 만현로 82-6 신분당선숯불구이 ,031-261-9339
블랙텐,NOT_RECORD,37.6458151519928,126.700891222041,경기도 김포시 걸포로 169  ,010-5150-4628
오창은군산집,NOT_RECORD,37.3435885895842,127.127667689603,경기도 성남시 분당구 구미로192번길 4 유한빌딩 3층 ,031-715-3377
화정다방,NOT_RECORD,37.3576725293271,126.822801776688,경기도 안산시 단원구 꽃우물길 90 ,031-410-8272
에인트커피,NOT_RECORD,37.4012945444973,127.255389810917,경기도 광주시 역동로 83  ,031-797-9143
마이스터심슨부대찌개,NOT_RECORD,37.4169076436569,127.274334505797,경기도 광주시 경안천로 136 ,031-761-0880
데이아,NOT_RECORD,37.5029580733058,126.772850689993,경기도 부천시 길주로 276 무광오피스빌딩 103호 ,032-322-8540
부타센세,NOT_RECORD,37.248267907971,127.079464216528,경기도 수원시 영통구 청명로 6 대경빌딩,010-3366-9534
피제리아비니스,NOT_RECORD,37.3908091831812,127.091157317881,경기도 성남시 분당구 판교공원로1길 70 ,031-701-0345
대박각,NOT_RECORD,37.6703408611995,126.762784599418,경기도 고양시 일산서구 강성로 115 115호,031-906-9603
델레니오,NOT_RECORD,37.5032053014414,126.768162751102,경기도 부천시 길주로 234 힐스테이트 중동 힐스에비뉴 상가 3층 3033호,032-323-0724
해담장,NOT_RECORD,37.5824673520379,126.864940868128,경기도 고양시 덕양구 대덕산2길 44 더 라미 하우스,010-3324-3001
현대모터스튜디오고양키친바이해비치,NOT_RECORD,37.6662065620536,126.747684861405,경기도 고양시 일산서구 킨텍스로 217-6 현대모터스튜디오고양,1899-6611
위례와인바주연,NOT_RECORD,37.4669135040489,127.138193562163,경기도 성남시 수정구 위례서일로1길 8-13 ,070-7537-0232
수제순대신주옥미,NOT_RECORD,37.3950821426674,127.24450291246,경기도 광주시 순암로 44 수제순대 신주옥미,031-761-6969
월화식당(동탄영천점),NOT_RECORD,37.2056790908575,127.113712464759,경기도 화성시 지산2길 11-4 ,031-376-8592
월화식당(다산신도시점),NOT_RECORD,37.625494450757,127.152104609791,경기도 남양주시 다산중앙로123번길 22-30 다산헤리움그랑비스타 2차 ,031-552-5560
보꼬네,NOT_RECORD,37.4691653602235,126.819544091752,경기도 부천시 양지로166번길 16 1층,032-351-1113
신림춘천집(부천중동현대점),NOT_RECORD,37.5033178949467,126.760958856665,경기도 부천시 석천로177번길 31 1층 ,0507-1310-1998
신림춘천집(수원역직영점),NOT_RECORD,37.2691795981586,127.006119829681,경기도 수원시 팔달구 향교로 48 ,0507-1436-1998
신림춘천집(나혜석거리점),NOT_RECORD,37.2638843015003,127.03310232868,"경기도 수원시 팔달구 권광로 184 캐슬타워 105,106호",0507-1448-1998
온아담,NOT_RECORD,37.2873183115697,127.451696904823,경기도 이천시 이섭대천로 1330 ,031-638-2592
하우스오브컨티뉴,NOT_RECORD,37.7059662542756,126.762927162241,경기도 파주시 송학말길 34-3 ,031-949-0888
그레인스퀘어,NOT_RECORD,37.2307715119992,127.186268085276,경기도 용인시 처인구 명지로60번길 14-2 ,031-332-0142
테이블드파스타,NOT_RECORD,37.5595579847945,127.201526539898,경기도 하남시 미사강변한강로354번길 10 예하우스1층,031-8028-1990
팔딱산,NOT_RECORD,37.2867564857414,127.012590512988,경기도 수원시 팔달구 화서문로45번길 32 지하 1층,0507-1400-2118
베이키베이커리,NOT_RECORD,37.347556670052,127.11178229293,경기도 성남시 분당구 미금일로74번길 20 ,070-8848-7988
야키토리야타이,NOT_RECORD,37.6643934379853,126.765773331567,경기도 고양시 일산동구 고봉로 32-12 1층,0507-1427-3332
생또오,NOT_RECORD,37.2750009452322,126.954079196941,경기도 수원시 권선구 금곡로 219 리더스빌딩 ,010-2265-3350
기와집,NOT_RECORD,37.2855785564655,126.958318596276,경기도 수원시 권선구 서수원로594번길 251 ,031-298-8882
오루카,NOT_RECORD,37.3910074884474,126.954993129278,경기도 안양시 동안구 평촌대로223번길 11 ,031-341-1466
행주만리,NOT_RECORD,37.6009911150225,126.817819357562,경기도 고양시 덕양구 행주산성로120번길 29 3층,031-978-4980
막퍼전복본점,NOT_RECORD,37.314278607386,126.828769160875,경기도 안산시 단원구 광덕3로 145-17 신천빌딩,031-405-5976
리버52,NOT_RECORD,37.3001292256975,127.631757034284,경기도 여주시 강변로 52 1층,031-881-3800
프린시플커피컴퍼니,NOT_RECORD,37.6524852733616,127.112735937018,경기도 남양주시 불암로109번길 4-46 1층,010-7669-0251
국시함,NOT_RECORD,37.5913895943183,127.141604867323,경기도 구리시 체육관로74번길 67 상가동 101호,031-551-5006
스월링라운지,NOT_RECORD,37.3810935982072,126.959160721434,경기도 안양시 동안구 평촌대로127번길 85 103호,0507-1323-3936
일상엔베이커리카페,NOT_RECORD,37.2703543406802,127.008191505926,경기도 수원시 팔달구 고화로 8  ,031-252-0914
싼타나레스토랑,NOT_RECORD,37.0601674702656,127.175617855715,경기도 안성시 양성면 만세로 859 창진산장휴게소,031-674-7676
스틸존,NOT_RECORD,37.3427920200245,127.227618028329,경기도 용인시 처인구 모현읍 문현로 166 ,010-5212-0593
버킷,NOT_RECORD,37.49874221807,126.778610906761,경기도 부천시 신흥로 170-1 위브더스테이트 6단지 603동 115호,010-2855-3036
델씨엘로,NOT_RECORD,37.7530600719358,127.433793841158,경기도 가평군 청평면 경춘로 1031 ,031-584-1767
산성쌈밥 ,NOT_RECORD,37.4587142536596,127.165251340559,경기도 성남시 중원구 산성대로 540 신성빌딩,031-733-6054
덕수궁,NOT_RECORD,37.3126352042072,127.006461437071,경기도 수원시 장안구 수일로123번길 115 ,031-252-5789
스시카지츠,NOT_RECORD,37.5030683739057,126.771411913047,경기도 부천시 길주로 262 이안더클래식 a동 1층, 010-5317-0764
피오커피 ,NOT_RECORD,37.6575928102258,126.772944560294,경기도 고양시 일산동구 정발산로 43-7 메리트윈  1층 110호,031-909-0066
올디스트커피,NOT_RECORD,37.3620923289005,126.922452317692,경기도 군포시 고산로539번길 7-6 묘향롯데아파트 상가 104호 ,031-360-0724
와이엠엠디,NOT_RECORD,37.2939120040548,127.055281450564,경기도 수원시 영통구 센트럴파크로127번길 144  ,031-8019-7789
도도브로스,NOT_RECORD,37.5379934199104,127.230724283606,경기도 하남시 검단산로 269 1층,031-791-6745
유니코알,NOT_RECORD,37.6016085061602,127.172628053391,경기도 남양주시 다산지금로 124-42  유니코빌딩, 031-555-1817
부천집,NOT_RECORD,37.5074757706979,126.753039186319,경기도 부천시 상동로 113 승재프라자 2층,032-325-2333
윤세영식당(광교직영점),NOT_RECORD,37.3088762137566,127.051742953769,경기도 수원시 영통구 웰빙타운로36번길 46-105 ,0507-1422-3426
윈드커피,NOT_RECORD,37.2758569444677,127.151277088807,경기도 용인시 기흥구 동백5로 22 동백문월드 b162호,010-9936-5441
코너546,NOT_RECORD,37.3461036326146,127.11009324513,경기도 성남시 분당구 미금일로90번길 2 ,010-7250-9412
사계절참맛 ,NOT_RECORD,37.3131462961154,126.828656776725,경기도 안산시 단원구 광덕3로 145-5 동일프라자,031-401-9123
한성옥,NOT_RECORD,37.3318733205256,127.119721962535,경기도 용인시 수지구 현암로 95 현대프라자 106호,031-889-3601
비와별닭갈비(스타필드위례점),NOT_RECORD,37.4801356884837,127.148404124838,경기도 하남시 위례대로 200 4층 비와별닭갈비 스타필드위례점 ,031-8097-1445
비와별닭갈비(스타필드안성점),NOT_RECORD,36.9946334108693,127.147249620616,경기도 안성시 공도읍 서동대로 3930-39 ,031-8092-1500
크레마노,NOT_RECORD,37.2524890526693,127.075715233126,경기도 수원시 영통구 청명남로 32 월드프라자,070-4115-0524
랑차이,NOT_RECORD,37.7116052375612,127.04804020421,경기도 의정부시 평화로 220 다메오상가 A동 2층,031-877-2811
로렌스308,NOT_RECORD,37.398144681613,126.922636767753,경기도 안양시 만안구 장내로139번길 7 삼원프라자호텔 1층,031-443-4669
잇쇼니키친(파주점),NOT_RECORD,37.757914861638,126.766909772034,경기도 파주시 번영로 56 ,010-2389-5612
우텐더(정자점),NOT_RECORD,37.3680299802465,127.105520669444,경기도 성남시 분당구 정자일로 197 푸르지오시티 2차 211호,010-4234-9992
롬브,NOT_RECORD,37.6564583502911,127.12724625461,경기도 남양주시 두물로27번길 7 1층,010-9258-5022
윤시케이크,NOT_RECORD,37.3859226587334,127.137021404177,경기도 성남시 분당구 안골로48번길 5 1층,031-702-8988
삼중대광,NOT_RECORD,37.3913627249287,126.954661026766,경기도 안양시 동안구 평촌대로223번길 16 현대프라자 2층 ,010-9268-3953
정가네숯불갈비,NOT_RECORD,37.315166111556,126.95842500497,경기도 의왕시 부곡공원길 7  ,031-461-9192
금정황소곱창,NOT_RECORD,37.4106453576926,127.130214114002,경기도 성남시 분당구 야탑로105번길 9 금정빌딩 1층,031-702-8395
에이프런,NOT_RECORD,37.2938533121895,127.054968216746,경기도 수원시 영통구 센트럴파크로127번길 138 1층,070-7808-8794
화화,NOT_RECORD,37.6660625103382,126.756435827812,경기도 고양시 일산서구 주엽로 80 B동 2층 209호,031-929-5390
팔당반점,NOT_RECORD,37.5533195427102,127.237863428351,경기도 남양주시 와부읍 경강로 950 ,031-577-3552
하품스베이크,NOT_RECORD,37.2941778402883,127.069574239621,경기도 수원시 영통구 법조로149번길 75 1층,031-8001-1347
포크너(신도시점),NOT_RECORD,37.3112892352202,126.830827660184,경기도 안산시 단원구 광덕대로 168 신화타운 101호 ,070-7717-4752
진솥,NOT_RECORD,37.4451276469492,126.804319702239,경기도 시흥시 은계중앙로 236 2층,031-311-2245
",안녕",NOT_RECORD,37.370385443751154,127.12847432563105,경기도 성남시 분당구 수내로 201 삼부아파트 상가 109호,070-7774-4854
에스쿱,NOT_RECORD,37.3024841671484,126.972047816747,경기도 수원시 장안구 덕영대로445번길 37 1층 102호,0507-1480-3239
비스트로온,NOT_RECORD,37.6772775407263,126.812503761924,경기도 고양시 일산동구 위시티2로11번길 16 104호,031-967-0906
하림닭요리,NOT_RECORD,37.4003793746832,127.10208724198,경기도 성남시 분당구 대왕판교로645번길 36 NS별관 지하1층 ,031-606-8514
아가일커피클럽,NOT_RECORD,37.4110391243249,127.256440165731,경기도 광주시 중앙로129번길 11 1층,070-8808-4858
비앙또아,NOT_RECORD,37.3973207561987,127.11356226927,경기도 성남시 분당구 동판교로177번길 25 판교 호반 써밋 플레이스 1층 ,031-707-1088
육블럭,NOT_RECORD,37.3697497006664,127.105596233151,"경기도 성남시 분당구 정자일로213번길 10 101동 105, 106호",031-715-6692
호랑이선생,NOT_RECORD,37.3906208865489,126.953893695784,경기도 안양시 동안구 평촌대로223번길 31 2층 204호,031-385-9997
원천동수제버거 ,NOT_RECORD,37.267195051521,127.060715623857,경기도 수원시 영통구 중부대로448번길 71 1층 원천동수제버거,070-7722-7382
커피와느티나무,NOT_RECORD,37.3156726620216,127.071267962717,경기도 용인시 수지구 성복1로 80  1층 101호,031-265-5135
백관,NOT_RECORD,37.0029666267098,127.11314785212,경기도 평택시 비전9길 12-86 1층 ,070-7799-1207
코이라멘,NOT_RECORD,37.3637209133898,127.106324583275,경기도 성남시 분당구 정자로 13 월드비터 1층 102호,070-4238-0869
제빵집,NOT_RECORD,37.6339388115497,127.206804428445,경기도 남양주시 사릉로 7 1층 제빵집,031-592-1029
로이테,NOT_RECORD,37.5932276255965,127.338386038796,경기도 남양주시 조안면 북한강로 866 ,0507-1445-2000
우브베이커리,NOT_RECORD,37.3708524725944,126.939967610513,경기도 군포시 산본천로 203 ,031-399-9461
열두시테이블,NOT_RECORD,37.666280934672,126.77111551796,경기도 고양시 일산동구 대산로11번길 100 1층 일부호,070-8150-3810
매스버거,NOT_RECORD,37.2500936813202,127.073774250494,경기도 수원시 영통구 청명남로4번길 8 1층 매스버거(massburger),031-206-8862
카페지금 커피로스터스,NOT_RECORD,37.3920848997729,126.978148566676,경기도 안양시 동안구 흥안대로434번길 60 ,031-425-1458
우마이식당,NOT_RECORD,37.3907090094879,126.952759646646,경기도 안양시 동안구 평촌대로223번길 52 원천빌딩 202호 ,0507-1305-8340
일호점미역(하남미사점),NOT_RECORD,37.5758776153526,127.193496456174,경기도 하남시 미사강변한강로 155 1층 144호 ,031-699-8836
일호점미역,NOT_RECORD,37.3491516586711,127.087027385206,경기도 용인시 수지구 고기로 157 ,031-261-2200
라포티,NOT_RECORD,37.3220776942346,127.109452218692,경기도 용인시 기흥구 죽전로15번길 15-14 1층 라포티,031-897-4264
아비오,NOT_RECORD,37.7465730111216,127.096402780207,경기도 의정부시 오목로225번길 79-16 1층,031-853-3445
버드케이지,NOT_RECORD,37.3096712042852,126.82736550173,경기도 안산시 단원구 광덕서로 56 금강프라자 701호,031-487-8180
콩이랑두부랑,NOT_RECORD,37.4617103131809,126.784135484544,경기도 시흥시 하우로 66 1층,031-311-9895
트라토리아마르조,NOT_RECORD,37.2933181010334,127.383537410923,경기도 이천시 신둔면 도자예술로62번길 27-9 1층 ,0507-1336-9945
장충동한양할머니족발,NOT_RECORD,37.6469653471662,126.786536266319,경기도 고양시 일산동구 백석로72번길 5-5 ,031-908-2249
"오,늘카페",NOT_RECORD,37.7600790476439,126.778244362479,"경기도 파주시 마무리길 1 오,늘카페",031-945-0910
사심,NOT_RECORD,37.5700505992522,127.181423025552,경기도 하남시 미사강변북로30번안길 27 1층,010-9544-1933
반야관,NOT_RECORD,37.6692182532115,126.774126479422,경기도 고양시 일산동구 대산로11번길 14-4 1층 ,070-8807-6688
궁안골,NOT_RECORD,37.3651040266648,126.920978754573,경기도 군포시 수리산로 191 ,031-398-4667
프로그,NOT_RECORD,37.2296956283051,127.186232872965,경기도 용인시 처인구 명지로60번길 27 ,010-2685-0083
버터킹빵공장,NOT_RECORD,37.7265713729536,126.699044355864,경기도 파주시 지목로 71 ,0507-9876-5432
그레텔,NOT_RECORD,37.2368926816389,127.191405706603,경기도 용인시 처인구 중부대로1313번길 20-13 1층 ,010-5175-4266
초이스스테이크,NOT_RECORD,37.667913763694,126.782536114972,경기도 고양시 일산동구 일산로 366 1층 ,031-901-9497
설램,NOT_RECORD,37.2067897933696,127.073485484181,경기도 화성시 동탄중심상가2길 36 네오프라자 1층,031-613-8311
커피가이,NOT_RECORD,37.283467772943,127.019892613893,경기도 수원시 팔달구 창룡대로103번길 132 ,070-4897-3440
커피반점,NOT_RECORD,37.2730876685805,127.061262679777,경기도 수원시 영통구 광교호수공원로 80 ,031-8067-5666
포크너(그랑시티자이점),NOT_RECORD,37.282003350733,126.828353595632,경기도 안산시 상록구 해양1로 199 2층,070-7774-4752
태백산,NOT_RECORD,37.6536923263122,126.631278002088,경기도 김포시 양촌읍 양곡3로1번길 26-5 태백산,031-997-9233
오이탈리안,NOT_RECORD,37.2915676707273,127.050470929016,경기도 수원시 영통구 센트럴타운로 85 cb39호 ,031-548-0066
퇴촌갈비밥,NOT_RECORD,37.4776183217459,127.350651977246,경기도 광주시 퇴촌면 정영로 580 ,031-797-2036
그라운드제로,NOT_RECORD,37.292063,127.047766,경기도 수원시 영통구 센트럴타운로 107 광교월드스퀘어 B48호,031-212-8871
너랑나랑한우곱창,NOT_RECORD,37.6388093825183,126.787584963691,경기도 고양시 일산동구 호수로 340-25 동문굿모닝힐II 101호,031-908-5994
거인감자탕 ,NOT_RECORD,37.3963332498728,126.930746701312,경기도 안양시 만안구 태평로60번길 42 2층 205호,031-427-0970
줄을스시유,NOT_RECORD,37.4269477626074,126.995970128953,경기도 과천시 향촌길 5-9 ,02-3418-4077
구르메산장,NOT_RECORD,37.3176823563285,126.838581601634,경기도 안산시 단원구 고잔2길 65 경신씨티프라자,010-9123-7494
업스테어키친(밤리단길점),NOT_RECORD,37.6683373033227,126.774941828188,경기도 고양시 일산동구 대산로11번길 5-25 ,
업스테어키친(파주운정본점),NOT_RECORD,37.7290578711581,126.736129112889,경기도 파주시 청암로17번길 35 라온프라자 403호,031-947-1510
파르코,NOT_RECORD,37.3859033529558,127.111966454068,경기도 성남시 분당구 판교역로10번길 28-4 ,0507-1353-4595
꼿그이,NOT_RECORD,37.7253167093835,126.699725481223,경기도 파주시 지목로 82-1 ,1566-6220
강천장어,NOT_RECORD,37.378783,127.16926,경기도 광주시 오포읍 새말길 262 ,031-718-7662
외할머니집,NOT_RECORD,37.242222441692,127.318977702939,경기도 용인시 처인구 양지면 중부대로 2545-3 ,0507-1329-7270
송도숯불장어(상동점),NOT_RECORD,37.5072416424436,126.750700252373,경기도 부천시 길주로77번길 55-25 대야복합타워,032-221-0505
호수집,NOT_RECORD,37.497523,127.281609,경기도 광주시 남종면 태허정로 607 ,031-762-5929
포뜰오리,NOT_RECORD,37.2651362607792,127.602273145067,경기도 여주시 여주남로 300-16 ,031-884-4636
약수촌,NOT_RECORD,37.731225,127.187315,경기도 남양주시 진접읍 금강로1521번길 70 ,031-571-3491
장수촌,NOT_RECORD,37.349273,126.822346,경기도 안산시 단원구 너비울길 7 ,031-483-2314
광명토성,NOT_RECORD,37.454012,126.853009,경기도 광명시 밤일로 106 ,02-2625-9292
나드리쉼터,NOT_RECORD,38.075221,127.41641,경기도 포천시 이동면 포화로 304 ,031-536-4046
고기리농원,NOT_RECORD,37.355542,127.042203,경기도 용인시 수지구 샘말로131번길 15 ,050-7724-7060
청계냇가집,NOT_RECORD,37.425027,127.066456,경기도 성남시 수정구 옛골로 58 ,031-723-8994
장수촌,NOT_RECORD,37.446358,126.880005,경기도 광명시 오리로 493-8 ,02-806-2645
우목정,NOT_RECORD,38.02419,127.368955,경기도 포천시 이동면 화동로 1974 ,010-7200-7753
만선애꿈(라페스타점),NOT_RECORD,37.6637046899131,126.766434892031,경기도 고양시 일산동구 고봉로 32-30 금산프라자 1층,031-915-5382
을지로골뱅이,NOT_RECORD,37.677718,126.754888,경기도 고양시 일산서구 대산로211번길 9 ,031-911-0038
강가(분당점),NOT_RECORD,37.388335,127.123778,경기도 성남시 분당구 서현로 184 엘지에클라트 1차 2층,031-704-5001
리버,NOT_RECORD,37.575467,127.205216,경기도 하남시 미사동로 102-23 ,031-791-2991
두꺼비부대찌개(산본점),NOT_RECORD,37.36152,126.936507,경기도 군포시 번영로557번길 32 보라빌딩,031-459-4911
순두부마을,NOT_RECORD,37.23107,127.19801,경기도 용인시 처인구 중부대로1392번길 18-7 ,031-321-7752
대흥갈비,NOT_RECORD,37.2285996021639,127.298720151559,경기도 용인시 처인구 양지면 남평로 155 ,031-338-7628
도쿄하나(부천점),NOT_RECORD,37.5096867500485,126.7752918972,경기도 부천시 신흥로 294 ,032-672-7117
도쿄하나(동탄점),NOT_RECORD,37.213090364253,127.053727431352,경기도 화성시 동탄지성로 210 2층,031-225-4455
도쿄하나(일산점),NOT_RECORD,37.6774007256766,126.778434109654,경기도 고양시 일산동구 경의로 573 3층,031-924-8600
화담정,NOT_RECORD,37.195859614237,127.09808740717,경기도 화성시 동탄대로 469-12 앨리스빌 2층 ,031-376-7958
레미니스케이크팩토리,NOT_RECORD,37.6919107497693,126.75697444563,경기도 고양시 일산서구 탄중로 106 ,070-8822-0406
구좌리얼크니손칼국수,NOT_RECORD,37.3627233045556,127.098942756414,경기도 성남시 분당구 쇳골로 25 1층,031-711-5557
크라프트온도,NOT_RECORD,37.6398715132164,126.833898086673,경기도 고양시 덕양구 화중로152번길 6-24 ,010-9995-1328
인덕숯불구이,NOT_RECORD,37.4019366386166,126.974387558474,경기도 안양시 동안구 인덕원로 28 ,031-424-6829
원할머니보쌈(이천점),NOT_RECORD,37.2797743315611,127.444988813933,경기도 이천시 중리천로 63 ,031-632-7449
한섬떡케익,NOT_RECORD,37.3130868135667,126.822473179511,경기도 안산시 단원구 광덕3로 87 ,031-403-2671
소미당,NOT_RECORD,37.3734164390131,127.138036422726,경기도 성남시 분당구 불정로386번길 10 효자춘미래타운 A상가 1088호,031 702 6438
파운커피,NOT_RECORD,37.7155399709846,126.740339774136,경기도 파주시 와석순환로192번길 20 ,010-4169-6256
외양간한우(의정부본점),NOT_RECORD,37.7349074159176,127.108757342098,경기도 의정부시 고산로 177 ,031-841-0400
터치아프리카,NOT_RECORD,37.662957365165,126.7513775829,경기도 고양시 일산동구 태극로 11 127호,031-911-6972
예당어죽,NOT_RECORD,37.4703744383961,126.812606337594,경기도 부천시 양지남로 31 ,032-348-3811
라본테이블,NOT_RECORD,37.203844,127.072166,경기도 화성시 동탄반석로 172 ,031-613-0047
브로테나인,NOT_RECORD,37.390037,127.092029,경기도 성남시 분당구 운중로267번길 7-10 지하1층,031-702-9333
몬테비안코,NOT_RECORD,36.957371,126.84837,경기도 평택시 포승읍 평택항만길 73 15층,031-8053-7777
옛날시골밥상,NOT_RECORD,37.79369159810244,126.6864690333184,경기도 파주시 탄현면 새오리로 110 ,031-945-5957
나고야,NOT_RECORD,37.222646,127.369977,경기도 이천시 마장면 덕평로 713 ,031-637-8042
윤밀원,NOT_RECORD,37.372662879865,127.114985989481,경기도 성남시 분당구 백현로 154 신일종합상가 1층,031-714-8388
손가주방,NOT_RECORD,37.7806849680841,126.71797322512,경기도 파주시 탄현면 가시내길 126-13 ,031-947-4668
흑과백,NOT_RECORD,37.7807569867787,126.954910990003,경기도 양주시 백석읍 기산로 618 ,031-871-8889
디어몬드,NOT_RECORD,37.5200390723498,126.795310522012,경기도 부천시 삼작로 304 ,070-7759-5252
이태리식당,NOT_RECORD,37.736219884883,126.751485045811,경기도 파주시 가람로21번길 51-10 ,0507-1360-8770
쏘렐라파스타,NOT_RECORD,37.366107,127.105352,경기도 성남시 분당구 정자일로 177 인텔리지Ⅱ,031-782-5882
그집,NOT_RECORD,37.378802,127.115295,경기도 성남시 분당구 황새울로258번길 42 해암빌딩,031-718-5115
연경(수내점),NOT_RECORD,37.378043,127.113267,경기도 성남시 분당구 백현로101번길 25 수내프라자,031-719-2387
브라우니70,NOT_RECORD,37.321064,127.111361,경기도 용인시 기흥구 죽전로15번길 8-19 ,031-897-9700
명월집,NOT_RECORD,37.72779850137021,127.41405543047509,경기도 가평군 청평면 호반로 38 ,031-584-4111
김정수할머니메밀옹심이보쌈,NOT_RECORD,37.504666,126.804496,경기도 부천시 길주로560번길 48 ,032-673-1150
두꺼비집부대찌개,NOT_RECORD,37.271141948528836,127.01136934913156,경기도 수원시 팔달구 향교로 100 ,031-242-4267
뮌스터담,NOT_RECORD,37.7267740899755,126.784125289613,경기도 파주시 운정로 113-175 ,031-949-6020
미성각,NOT_RECORD,37.6368298737794,126.67701357845,경기도 김포시 태장로 820 엠프라자 102호,031-983-1116
스시쇼쿠젠,NOT_RECORD,37.2874808899042,127.060178440172,경기도 수원시 영통구 법조로 25 광교 SK VIEW Lake 1층 106호,010-8287-4670
비커밍무드,NOT_RECORD,37.2078744822897,127.111455956223,경기도 화성시 지산1길 21-5 ,070-4888-1101
리츠다이너,NOT_RECORD,37.3630091848763,127.106533316945,경기도 성남시 분당구 정자일로 146 엠코헤리츠 1단지 1층 A111호,031-718-4307
가드너스,NOT_RECORD,37.7896491321523,126.69611350376,경기도 파주시 탄현면 헤이리마을길 59-52 ,031-944-9997
카페인가,NOT_RECORD,37.2237348877316,127.106605726342,경기도 용인시 기흥구 기흥단지로24번길 38 ,010-5518-0413
빠델라디파파,NOT_RECORD,37.2908630029837,127.14054437491,경기도 용인시 기흥구 구성로279번길 10 ,031-283-5890
원썸머나잇,NOT_RECORD,37.2341027622987,127.112571318938,경기도 용인시 기흥구 용구대로 1611 ,010-5594-8969
안안,NOT_RECORD,37.3214486498888,127.112655887536,경기도 용인시 기흥구 죽전로43번길 15-7 ,031-262-4527
이촌옥,NOT_RECORD,37.6394961284511,126.673732077256,경기도 김포시 초당로16번길 102-5 ,031-986-9998
원당식빵,NOT_RECORD,37.6577429834323,126.838793389639,경기도 고양시 덕양구 호국로812번길 15 ,031-813-7727
샘밭막국수(판교점),NOT_RECORD,37.3908461902374,127.099139043262,경기도 성남시 분당구 서판교로44번길 13 ,031-8017-1712
다운데어,NOT_RECORD,37.7887475873361,126.696200638754,경기도 파주시 탄현면 헤이리마을길 55-34 ,070-7767-5588
미라이키,NOT_RECORD,37.6748869732937,126.779960645724,경기도 고양시 일산동구 산두로213번길 14 ,031-994-2019
딤섬점방,NOT_RECORD,37.6603392424096,126.767748529362,경기도 고양시 일산동구 무궁화로 20-38 로데오탑 116호,010-3269-2889
나크타,NOT_RECORD,37.7071198673734,127.038341755583,경기도 의정부시 망월로28번길 137 ,031-872-0495
LX22,NOT_RECORD,37.6584656796268,127.479447395296,경기도 가평군 설악면 유명로 1419 ,010-8787-6807
아보고가,NOT_RECORD,37.703396324029,126.661018160328,경기도 김포시 하성면 월하로 977-19 ,031-996-9780
우드페커,NOT_RECORD,37.3307357974542,127.302508777014,경기도 광주시 도척면 얼음골길 47-37 ,010-7148-2513
대부DBB,NOT_RECORD,37.2716897982299,126.563209091735,경기도 안산시 단원구 구봉길 59 ,032-891-5887
스시스이렌,NOT_RECORD,37.2951019637936,127.058185334001,경기도 수원시 영통구 센트럴파크로128번길 83 ,031-215-1141
평양옥,NOT_RECORD,37.6538207046493,126.844334154671,경기도 고양시 덕양구 고양대로 1445-28 ,031-966-3115
블루메쯔,NOT_RECORD,37.3639411805735,127.127506984099,경기도 성남시 분당구 발이봉남로25번길 2 ,031-717-6658
화류,NOT_RECORD,37.6575839055984,126.77085561273,경기도 고양시 일산동구 중앙로1261번길 55 효산캐슬 115호,031-905-5927
펠트커피(판교점),NOT_RECORD,37.3952969470752,127.110449292622,경기도 성남시 분당구 판교역로 166  판교 아지트 1층 14호,070-5172-5955
레오네,NOT_RECORD,37.6700054375993,126.78636079657,경기도 고양시 일산동구 경의로 461 ,031-902-0907
흙심,NOT_RECORD,37.7086426990873,127.123866341858,경기도 남양주시 별내면 청학로54번길 36 ,031-841-3599
스팀하우스,NOT_RECORD,37.4016340578617,126.973893880652,경기도 안양시 동안구 인덕원로 19-2 ,0507-1339-8961
백제원(부천점),NOT_RECORD,37.5096867500485,126.7752918972,경기도 부천시 신흥로 294 2층,032-672-7007
백제원(일산점),NOT_RECORD,37.6774007256766,126.778434109654,경기도 고양시 일산동구 경의로 573 2층,031-922-9100
송만두,NOT_RECORD,37.7026387086666,126.570698767341,경기도 김포시 월곶면 군하로 14 ,031-985-7876
515더오리지널,NOT_RECORD,37.714445,126.695763,경기도 파주시 돌곶이길 95 ,031-944-0330
말똥도넛디저트타운,NOT_RECORD,37.7303740090292,126.704533350838,경기도 파주시 지목로 137 ,1877-0547
토츠커피뉴욕,NOT_RECORD,37.4670593396147,127.204361140706,경기도 광주시 남한산성면 남한산성로 533 ,031-733-6733
마루심(판교점),NOT_RECORD,37.3973207561987,127.11356226927,경기도 성남시 분당구 동판교로177번길 25 판교 호반 써밋 플레이스,031-781-7998
흠커피,NOT_RECORD,37.5201225877069,127.185148710842,경기도 하남시 서하남로418번길 30 ,031-795-0168
참치집,NOT_RECORD,37.3671302469022,126.727374793218,경기도 시흥시 서울대학로264번길 26-33 로얄팰리스 6차 214호,031-431-6166
스시다다,NOT_RECORD,37.4758566197709,126.869949357449,경기도 광명시 철산로30번길 5 기린빌딩 2층 201호,02-2135-5232
세라제과,NOT_RECORD,37.314278607386,126.828769160875,경기도 안산시 단원구 광덕3로 145-17 신천빌딩 1층,031-410-4860
아보리오,NOT_RECORD,37.6461753129275,126.681626660766,경기도 김포시 김포한강11로140번길 8-6 1층 102호 ,010-6631-0963
베지앙,NOT_RECORD,37.7199582365293,126.714390447605,경기도 파주시 맨드라미길 20 ,070-7699-1826
모어그린,NOT_RECORD,37.7353716743388,126.951449135371,경기도 양주시 장흥면 권율로 246 ,031-878-7752
박가네순대,NOT_RECORD,37.3471154865701,127.110481718964,경기도 성남시 분당구 미금일로86번길 12 ,031-714-1410
터프이너프로스터스,NOT_RECORD,36.9828843479767,126.879859223739,경기도 평택시 포승읍 포승향남로 11 ,031-681-9595
비밥바,NOT_RECORD,37.7403449137734,127.048606301549,경기도 의정부시 평화로542번길 20 2층,010-2280-3317
광이원농가맛집,NOT_RECORD,37.5074389663119,127.605542358903,경기도 양평군 용문면 용문산로 120-11 ,031-771-8800
호접몽,NOT_RECORD,37.36081,127.106525,경기도 성남시 분당구 정자일로 120 ,031-726-0099
빅토리통닭,NOT_RECORD,37.6544727613923,126.623521838836,경기도 김포시 양촌읍 양곡1로 43 ,031-981-2073
죽림소노캄,NOT_RECORD,37.6619258028574,126.750807663885,경기도 고양시 일산동구 태극로 20 이스트 타워 1층,031-927-7666
우렁각시,NOT_RECORD,37.241441,127.171301,경기도 용인시 처인구 금학로 59 ,031-338-0865
구좌리얼크니손칼국수(성남사송직영점),NOT_RECORD,37.4188310217567,127.116756698975,경기도 성남시 수정구 탄천로307번길 3 ,031-759-3331
원조닭탕,NOT_RECORD,37.437625,126.787341,경기도 시흥시 신천로44번안길 23 ,031-311-3701
산뜨락,NOT_RECORD,37.334471,127.064461,경기도 용인시 수지구 신봉2로 180 ,031-266-9972
정가네능이백숙,NOT_RECORD,37.385254,127.129512,경기도 성남시 분당구 서현로247번길 9 1층,031-703-8071
한성칼국수,NOT_RECORD,37.4562946156215,127.009186798781,경기도 과천시 중앙로 525 ,02-502-7577
카페숨,NOT_RECORD,37.787586514539,127.163829851607,경기도 포천시 소흘읍 죽엽산로 502-61 ,031-542-1449
에스프레소플래닛,NOT_RECORD,37.3514020956173,126.74185573009,경기도 시흥시 마유로418번길 10 롯데시네마 시화점 110호,031-432-0998
베이커리공간,NOT_RECORD,37.8170379818173,127.096999736355,경기도 양주시 옥정동로5바길 16 ,070-8983-9750
알렉스더커피,NOT_RECORD,37.144812,127.367214,경기도 용인시 처인구 백암면 삼백로835번길 12 ,070-4148-7714
혼키라멘,NOT_RECORD,37.4003793746832,127.10208724198,경기도 성남시 분당구 대왕판교로645번길 36 NS홈쇼핑 별관 지하 1층,031-606-8521
몬안베띠(정자점),NOT_RECORD,37.3698018839388,127.106485232427,경기도 성남시 분당구 정자일로 220 동양정자파라곤 1층 109호,031-697-8999
벙커힐,NOT_RECORD,37.7789605747622,126.690633276103,경기도 파주시 탄현면 성동로 60 ,031-935-5339
포레엠,NOT_RECORD,37.7774304661431,126.950463382901,경기도 양주시 백석읍 기산로 556 ,031-837-5567
길손집시골밥상,NOT_RECORD,37.35235,126.824359,경기도 안산시 단원구 너비울길 48 ,031-403-1983
원레이,NOT_RECORD,37.2560400190044,127.040052495581,경기도 수원시 영통구 매탄로51번길 8-1 ,010-3405-0678
조대감부대찌개,NOT_RECORD,37.265597,127.034846,경기도 수원시 팔달구 인계로166번길 16-7 ,031-221-8238
봉평메밀막국수,NOT_RECORD,37.449275,126.994446,경기도 과천시 과천대로 628 ,02-504-0002
풍년골,NOT_RECORD,37.2115152867532,127.452443755485,경기도 이천시 진상미로 1829 ,031-632-2755
까까집,NOT_RECORD,37.3796873474197,126.960152483699,경기도 안양시 동안구 갈산로86번길 14 ,0507-1354*-9139
진마오,NOT_RECORD,37.277505,127.032461,경기도 수원시 팔달구 중부대로 150 라마다프라자수원 4층,031-230-0072
올리롤리,NOT_RECORD,37.4028382808729,126.96580038804,경기도 안양시 동안구 관양로 167 ,010-2758-4086
취옹,NOT_RECORD,37.668517,126.762979,경기도 고양시 일산서구 주화로 42 주엽프라자 2층,031-912-1700
길조,NOT_RECORD,37.493788,127.473637,경기도 양평군 강상면 독배길 32-25 ,031-774-7020
베스코,NOT_RECORD,37.659408,126.770371,경기도 고양시 일산동구 중앙로1275번길 38-5 이레21빌딩,031-908-1124
산타루치아,NOT_RECORD,37.392254,126.956535,경기도 안양시 동안구 시민대로 230 평촌아크로타워,031-444-7000
신의돈부리,NOT_RECORD,37.656669,126.773139,경기도 고양시 일산동구 정발산로 38 장항동이스턴시티,031-907-6366
JZ카페,NOT_RECORD,37.369713,127.106064,경기도 성남시 분당구 정자일로 220 동양정자파라곤,031-713-2888
맛내음터,NOT_RECORD,37.225942,127.370344,경기도 이천시 마장면 덕평로748번길 11-9 ,031-638-9442
장충동한양할머니족발,NOT_RECORD,37.646905,126.786539,경기도 고양시 일산동구 백석로72번길 5-5 ,031-908-2249
드시계,NOT_RECORD,37.194985,127.080638,경기도 화성시 노작로3길 5 ,031-8003-3340
이승철24시동태집,NOT_RECORD,37.66337,126.765972,경기도 고양시 일산동구 고봉로 26-32 양우로데오랜드,031-918-5459
명동보리밥,NOT_RECORD,37.263401,127.029977,경기도 수원시 팔달구 효원로249번길 18-5 경일빌딩,031-224-8959
첨,NOT_RECORD,37.265503,127.031733,경기도 수원시 팔달구 인계로138번길 36 ,031-225-7303
원투커피,NOT_RECORD,37.788209,126.702864,경기도 파주시 탄현면 헤이리마을길 82-138 ,070-4232-7431
봉덕칼국수(과천점),NOT_RECORD,37.439858,127.009726,경기도 과천시 궁말로 6 ,02-502-7952
일산교자,NOT_RECORD,37.674009,126.849154,경기도 고양시 덕양구 원당로 289 ,031-968-7388
오두산막국수(문산통일로점),NOT_RECORD,37.846044,126.789156,경기도 파주시 파주읍 통일로 1551 ,031-952-5232
오두산막국수(통일동산직영점),NOT_RECORD,37.779151,126.686711,경기도 파주시 탄현면 성동로 17 통일 프라자 1층,031-941-5237
제일콩집(분당점),NOT_RECORD,37.369559,127.113481,경기도 성남시 분당구 내정로107번길 9-1 ,031-718-2219
유치회관(북문점),NOT_RECORD,37.290294,127.011096,경기도 수원시 장안구 수성로340번길 59 ,031-245-2880
최네집(안중점),NOT_RECORD,36.98561,126.8681,경기도 평택시 포승읍 포승향남로 121 ,031-682-1577
함지박(수지점),NOT_RECORD,37.32755,127.097018,경기도 용인시 수지구 수지로342번길 7 수지외식타운,031-261-0028
두르가(의정부점),NOT_RECORD,37.739093,127.048728,경기도 의정부시 태평로73번길 50 ,031-848-4785
시골홍두깨칼국수,NOT_RECORD,37.314673,126.861072,경기도 안산시 상록구 성호로 118 ,031-406-2210
일동토종순대감자탕,NOT_RECORD,37.309391,126.869472,경기도 안산시 상록구 안산대학로 104 ,031-406-9446
만인식당,NOT_RECORD,37.895835,126.975855,경기도 양주시 남면 개나리12길 21 ,031-863-6115
이천영양돌솥밥,NOT_RECORD,37.282482,126.847046,경기도 안산시 상록구 항가울로 7 ,031-408-2008
양주골초계탕,NOT_RECORD,37.868728,127.009698,경기도 양주시 은현면 화합로 730 ,031-867-2788
뫼골,NOT_RECORD,37.777344,126.936713,경기도 양주시 백석읍 기산로 423-2 ,031-871-7180
도봉산갈비,NOT_RECORD,37.656576,127.274683,경기도 남양주시 화도읍 먹갓로28번길 2 ,031-595-7675
기산약수촌,NOT_RECORD,37.777078,126.945041,경기도 양주시 백석읍 기산로 498-3 ,031-871-8712
정선달가마솥밥,NOT_RECORD,37.335994,126.908386,경기도 군포시 속달로110번길 5 ,031-438-4333
한촌설렁탕,NOT_RECORD,37.386676,126.933668,경기도 안양시 만안구 문예로 57 금용빌딩 1층,031-468-9393
이천돌솥밥,NOT_RECORD,37.311371,127.401073,경기도 이천시 신둔면 경충대로 3194 ,031-632-2300
두메촌,NOT_RECORD,37.38106,127.569754,경기도 여주시 대신면 보통3길 5 ,031-882-0240
천하일미,NOT_RECORD,37.319123,126.829873,경기도 안산시 단원구 광덕대로 251 ,031-485-3200
수인씨의마당,NOT_RECORD,37.682913,127.108937,경기도 남양주시 덕릉로 1115-49 ,031-573-0980
황우촌,NOT_RECORD,37.78496,126.994,경기도 양주시 백석읍 호명로 103-92 ,031-826-6692
우리소,NOT_RECORD,37.229275,127.301132,경기도 용인시 처인구 양지면 남평로 176 ,031-336-6292
산마루,NOT_RECORD,37.23061,127.288227,경기도 용인시 처인구 양지면 남평로 36 ,031-338-5775
팔당강변회관,NOT_RECORD,37.539868,127.255213,경기도 남양주시 와부읍 다산로 56 ,031-576-1919
신촌댁,NOT_RECORD,37.194658,127.326165,경기도 용인시 처인구 원삼면 죽양대로 1774 ,031-339-3737
포곡올갱이해장국,NOT_RECORD,37.290619,127.23552,경기도 용인시 처인구 포곡읍 백옥대로 1840 ,031-339-6501
청진도가니탕,NOT_RECORD,37.823813,126.982244,경기도 양주시 광적면 삼일로29번길 113 ,031-836-4132
수리산두부마을,NOT_RECORD,37.372141,126.935243,"경기도 군포시 고산로 695 산본타운 203,204,205호",031-391-2201
완산정,NOT_RECORD,37.357884,126.93388,경기도 군포시 번영로 508 신산빌딩 107호,031-391-9933
송추부일기사식당,NOT_RECORD,37.785546,127.02396,경기도 양주시 부흥로 1338 ,031-840-4343
송수사,NOT_RECORD,37.35897,126.932602,경기도 군포시 산본로323번길 7 금성프라자 201호,031-393-0116
양주골전통순대국,NOT_RECORD,37.784536,127.029363,경기도 양주시 부흥로 1387 ,031-840-7660
김명자낙지마당,NOT_RECORD,37.297591,126.863403,경기도 안산시 상록구 샘골로 183 백두빌딩 101호 1층,031-437-1522
촛불조방낙지,NOT_RECORD,37.358098,126.948193,경기도 군포시 용호1로 3 은진빌딩 202호,031-393-8882
부산복해물칼국수,NOT_RECORD,37.359153,126.932944,경기도 군포시 산본로323번길 7-1 동아프라자 201호,031-393-9791
빗고개청국장,NOT_RECORD,37.785773,127.463737,경기도 가평군 청평면 경춘로 1529 ,031-582-7631
무교동미락낙지,NOT_RECORD,37.815393,127.501619,경기도 가평군 가평읍 경춘로 2055 ,031-582-7644
이조숯불갈비,NOT_RECORD,37.358528,126.931771,"경기도 군포시 산본로323번길 21 청진빌딩 201,202호",031-395-2575
시골밥상닭갈비,NOT_RECORD,37.799064,127.48234,경기도 가평군 가평읍 경춘로 1793 ,031-582-9809
동방두부마을,NOT_RECORD,37.793364,127.096694,경기도 양주시 만송로 385 ,031-847-7969
초가마을,NOT_RECORD,37.7447,126.951005,경기도 양주시 장흥면 권율로309번길 159 ,031-855-1124
춘하추동,NOT_RECORD,37.365237,126.930003,경기도 군포시 산본로386번길 5-11 삼대빌딩,031-396-0789
신선산장,NOT_RECORD,37.744229,126.950952,경기도 양주시 장흥면 권율로309번길 149 ,031-855-5213
피자성효인방,NOT_RECORD,37.722526,126.946987,경기도 양주시 장흥면 권율로 83-5 ,031-855-5220
아침고요식당,NOT_RECORD,37.742632,127.352573,경기도 가평군 상면 수목원로 455 ,031-585-8233
이명옥시골손두부,NOT_RECORD,37.359335,126.922619,경기도 군포시 고산로 515 GS휘트니스클럽빌딩 101호,031-399-7925
전주시골밥상,NOT_RECORD,37.64605,127.36404,경기도 남양주시 화도읍 북한강로 1538 ,031-591-4917
리틀본수원갈비집,NOT_RECORD,37.290508,127.011538,경기도 수원시 장안구 정조로933번길 20 ,031-241-8434
연포갈비,NOT_RECORD,37.287462,127.016884,경기도 수원시 팔달구 정조로906번길 56-1 ,031-255-1337
큰대문집,NOT_RECORD,37.746977,127.18756,경기도 남양주시 진접읍 광릉수목원로 179-19 ,031-527-7235
이천쌀밥송학(설성점),NOT_RECORD,37.111343,127.549916,경기도 이천시 설성면 서동대로 8207 ,031-641-6005
해든터,NOT_RECORD,37.785959,126.910685,경기도 파주시 광탄면 쇠장이길 254 ,031-948-5544
장수촌,NOT_RECORD,37.114655,127.612999,경기도 이천시 장호원읍 서동대로 8802 ,031-641-7131
고구려삼계탕,NOT_RECORD,37.482536,126.780348,경기도 부천시 경인로224번길 15 ,032-651-7155
바위와소나무,NOT_RECORD,37.66778,127.119928,경기도 남양주시 순화궁로 474 ,031-529-1235
장단콩두부마을,NOT_RECORD,37.910574,126.733535,경기도 파주시 군내면 통일촌길 64 ,031-953-7600
천안문손짜장,NOT_RECORD,37.680523,127.209459,경기도 남양주시 오남읍 진건오남로 525 ,031-529-1881
장단가든,NOT_RECORD,37.886018,126.794277,경기도 파주시 문산읍 임진나루길 133-12 ,031-954-1559
광릉정육식당,NOT_RECORD,37.7328,127.1949,경기도 남양주시 진접읍 금강로 1597 ,031-529-9988
원조마포소금구이,NOT_RECORD,37.496132,126.765601,경기도 부천시 부흥로 205 ,032-662-6900
춘향골할매추어탕,NOT_RECORD,37.294563,127.118752,경기도 용인시 기흥구 구성로 82 ,031-284-0228
남포촌,NOT_RECORD,37.996801,126.987076,경기도 파주시 적성면 어삼로 66 ,031-959-9451
두레박,NOT_RECORD,37.586147,127.1733,경기도 남양주시 강변북로632번길 33 ,031-555-8228
약수터식당,NOT_RECORD,37.060159,127.190306,경기도 안성시 양성면 만세로 667 ,031-672-4728
강마을,NOT_RECORD,37.585757,127.173023,경기도 남양주시 강변북로632번길 26 ,031-555-8828
고향가는길,NOT_RECORD,37.593002,127.173961,경기도 남양주시 강변북로 716 ,031-556-3389
시골집,NOT_RECORD,37.008643,127.436839,경기도 안성시 죽산면 걸미로 6 ,031-672-7444
풀잎속의생명,NOT_RECORD,37.621883,126.722614,경기도 김포시 사우로 3-12 ,031-997-6003
춘향골남원추어탕,NOT_RECORD,37.233746,127.200545,경기도 용인시 처인구 금령로12번길 20-1 ,031-321-3631
빛고을가든,NOT_RECORD,37.035442,127.262529,경기도 안성시 태평무길 7 ,031-674-7799
정성회관,NOT_RECORD,37.013291,127.251732,경기도 안성시 개내교4길 3 ,031-675-1445
방아머리칼국수,NOT_RECORD,37.271,126.572184,경기도 안산시 단원구 대부황금로 1280 ,032-886-4319
조박사아구복,NOT_RECORD,37.51978,126.790026,경기도 부천시 삼작로256번길 9 ,032-677-8341
대왕대구탕,NOT_RECORD,37.50226,126.7713,경기도 부천시 중동로254번길 43 ,032-325-0009
산채시골집,NOT_RECORD,37.489819,126.755302,경기도 부천시 송내대로74번길 22 일번지프라자,032-325-0777
까치울버섯나라,NOT_RECORD,37.50385,126.812864,경기도 부천시 길주로594번길 91-44 ,032-683-7366
물맑은집,NOT_RECORD,37.640851,127.163198,경기도 남양주시 진건읍 진관로311번길 23 ,031-572-1408
화림가든,NOT_RECORD,37.20979,127.664586,경기도 여주시 점동면 청안로 178 ,031-884-5689
신길장어,NOT_RECORD,37.332352,126.758696,경기도 안산시 단원구 능길로 12 ,031-492-0275
만해두꺼비부대찌개,NOT_RECORD,37.326892,126.752788,경기도 안산시 단원구 황새바위길 3 ,031-493-2265
진삼초가원누룽닭,NOT_RECORD,37.333135,126.777665,경기도 안산시 단원구 중앙대로 340 ,031-494-5567
명성회관,NOT_RECORD,37.298308,127.654385,경기도 여주시 신륵사길 6-33 ,031-885-3234
원조게장정식,NOT_RECORD,37.332555,126.793848,경기도 안산시 단원구 부부로3길 23 ,031-494-4550
우산리산장,NOT_RECORD,37.353796,126.809258,경기도 안산시 단원구 우산리1길 49 ,031-498-4455
여주쌀밥집,NOT_RECORD,37.297721,127.639603,경기도 여주시 청심로 175-35 ,031-885-9544
석산정,NOT_RECORD,37.244387,127.014855,경기도 수원시 권선구 정조로388번길 7-7 ,031-232-5589
봉평메밀막국수,NOT_RECORD,37.326972,126.918892,경기도 군포시 대야1로6번길 3 블록 3콧트 1층,031-501-8879
교리여주쌀밥,NOT_RECORD,37.270603,127.637426,경기도 여주시 세종로 310 ,031-884-9997
황금어장,NOT_RECORD,37.6686,127.4839,경기도 가평군 설악면 유명로 1533-10 ,031-584-3439
중화요리산수,NOT_RECORD,37.253378,127.489177,경기도 이천시 부발읍 경충대로2110번길 13 ,031-636-3999
옛집염소탕,NOT_RECORD,37.269055,127.434864,경기도 이천시 부악로76번길 11-8 ,031-637-7771
예랑,NOT_RECORD,37.255537,127.073348,경기도 수원시 영통구 매영로345번길 95 동아프라자 2층,031-234-8195
바순,NOT_RECORD,37.388982,127.122541,경기도 성남시 분당구 서현로 170 풍림아이원 플러스 2층,031-783-5555
쌍령해장국(용인점),NOT_RECORD,37.259812,127.141514,경기도 용인시 기흥구 중부대로 766 ,031-281-8348
지장산막국수(어룡점),NOT_RECORD,37.878624,127.184672,경기도 포천시 호국로 1327 ,031-534-1802
회령손만두국,NOT_RECORD,37.79351,127.0967,경기도 양평군 용문면 용문로 827 ,031-775-2955
만가,NOT_RECORD,37.65092,126.7607,경기도 고양시 일산동구 멱절길 368-108 ,031-907-9255
디딤돌숨두부집,NOT_RECORD,37.552622,127.211378,경기도 하남시 미사대로 616 ,031-791-0062
올터두부고을,NOT_RECORD,37.665009,126.848008,경기도 고양시 덕양구 수역이길 3 ,031-962-6407
메밀꽃,NOT_RECORD,37.474761,127.239304,경기도 광주시 남한산성면 엄미길 19 ,031-761-5468
중동왕족발,NOT_RECORD,37.442391,127.155144,경기도 성남시 중원구 광명로256번길 6 ,031-744-5224
울랄라고릴라,NOT_RECORD,37.659661,126.767813,경기도 고양시 일산동구 호수로 646-24 위너스21빌딩 106호,031-906-0907
향원,NOT_RECORD,37.64884,126.7861,경기도 고양시 일산동구 강송로113번길 12 ,031-932-8284
히카리,NOT_RECORD,37.331931,127.121692,경기도 용인시 수지구 현암로 111 진성프라자 108호,070-7795-7453
연자방아,NOT_RECORD,37.505405,126.749167,경기도 부천시 길주로 64 굿모닝오피스텔 1층,032-324-3805
하인선생,NOT_RECORD,37.344129,127.127817,경기도 성남시 분당구 구미로 191 아산웰빙프라자 4층,031-717-0888
만강장어,NOT_RECORD,37.413038,127.131498,경기도 성남시 분당구 장미로92번길 7-5 ,031-705-8892
가야성,NOT_RECORD,37.37042,126.9411,경기도 군포시 군포로745번길 35 1층,031-397-3663
동해복집,NOT_RECORD,37.218183,127.077874,경기도 화성시 삼성1로 160 디지털스테이션 307호,031-8015-3111
옛나루터,NOT_RECORD,37.51583,127.3014,경기도 남양주시 조안면 다산로747번길 20-12 ,031-576-5233
이남장(정자점),NOT_RECORD,37.369185,127.111467,경기도 성남시 분당구 느티로63번길 7 ,031-718-8668
기라성,NOT_RECORD,37.487696,126.782593,경기도 부천시 부일로469번길 39 ,032-665-1149
장강,NOT_RECORD,37.755747,126.780831,경기도 파주시 금릉이길 1 유앤비빌딩 1층,031-949-4114
영의정,NOT_RECORD,37.737702,127.041587,경기도 의정부시 범골로145번길 40 궁전빌딩 3층,031-875-9922
양평해장국,NOT_RECORD,37.267097,127.030061,경기도 수원시 팔달구 경수대로466번길 51 문영빌딩,031-221-0236
통일동산두부마을(서오능점),NOT_RECORD,37.627899,126.8887,경기도 고양시 덕양구 서오릉로 468 ,02-388-6644
큰집돌솥설렁탕,NOT_RECORD,37.59758,127.1369,경기도 구리시 안골로 51 ,031-552-6633
하회안동찜닭,NOT_RECORD,37.486969,126.782422,경기도 부천시 부천로29번길 17 ,032-664-6404
방유당,NOT_RECORD,37.390231,127.093635,경기도 성남시 분당구 운중로267번길 14-5 ,031-706-0690
우경,NOT_RECORD,37.399839,126.970109,"경기도 안양시 동안구 벌말로 126 평촌오비즈타워 135,136호",031-423-7897
다린,NOT_RECORD,37.324363,127.127045,경기도 용인시 수지구 죽전로168번길 39 ,031-897-1110
북경오리구이,NOT_RECORD,37.300733,127.008377,경기도 수원시 장안구 송원로 63 신성빌딩 102호,031-242-5292
빈체로,NOT_RECORD,37.395043,126.964832,경기도 안양시 동안구 시민대로 312 칼라힐 빌딩 1층,031-424-8815
영통복요리전문점,NOT_RECORD,37.250168,127.080379,경기도 수원시 영통구 청명로59번길 45-23 ,031-204-0003
문경새재,NOT_RECORD,37.148079,127.075453,경기도 오산시 운천로 54-18 대산빌딩,031-372-9392
명인참치,NOT_RECORD,37.50518,126.7524,경기도 부천시 상동로 87 가나베스트타운 1층,032-323-3766
푸른바다볼테기,NOT_RECORD,37.361179,127.113149,경기도 성남시 분당구 불정로77번길 13 ,031-715-2010
봄날에청국장,NOT_RECORD,37.3689,127.106475,경기도 성남시 분당구 정자일로 210 동양파라곤 102동 지하 102호,031-712-0888
백두한우곱창,NOT_RECORD,37.663969,126.765365,경기도 고양시 일산동구 고봉로 26-14 양우로데오랜드A동104호,031-924-1835
평창메밀전,NOT_RECORD,37.438619,127.126138,경기도 성남시 수정구 성남대로1221번길 15 ,031-753-9192
타이엔,NOT_RECORD,37.384063,127.112443,경기도 성남시 분당구 판교역로2번길 7 1층,031-709-5080
윌리엄스버거,NOT_RECORD,37.384952,127.112149,경기도 성남시 분당구 판교역로10번길 14-5 ,
올드스탠드,NOT_RECORD,37.385983,127.111411,경기도 성남시 분당구 판교역로10번길 27 ,031-703-9707
군산아구찜,NOT_RECORD,37.409962,127.130961,경기도 성남시 분당구 야탑로111번길 5-1 ,031-702-5559
털보네떡볶이,NOT_RECORD,37.371703,126.942539,경기도 군포시 산본천로226번길 3 ,031-399-4070
예원한정식,NOT_RECORD,37.461857,126.784433,경기도 시흥시 하우로 66-1 ,031-318-8040
행복치킨,NOT_RECORD,37.369256,127.10757,경기도 성남시 분당구 정자일로232번길 25 두산위브제니스 지하 101호,031-715-9972
남이가든,NOT_RECORD,37.803097,127.525359,경기도 가평군 가평읍 북한강변로 1016 ,031-582-3706
황도바지락손칼국수,NOT_RECORD,37.322181,127.110614,경기도 용인시 기흥구 죽전로15번길 20-10 ,031-889-5236
신정면,NOT_RECORD,37.32544,127.125312,경기도 용인시 수지구 죽전로168번길 7 승은프라자 1층 107호,031-266-3889
손칼국수,NOT_RECORD,37.337795,127.115664,경기도 성남시 분당구 구미로 60 관보쇼핑 지하1층,031-717-4857
세인식당,NOT_RECORD,37.279804,127.232666,경기도 용인시 처인구 포곡읍 두계로 4 ,031-339-8652
카페드코스타,NOT_RECORD,37.330334,127.339162,경기도 광주시 도척면 도척로 271-13 ,031-763-9459
연호정칼국수,NOT_RECORD,37.715041,126.555961,경기도 김포시 월곶면 군하로 242 ,031-987-7132
대왕칼국수,NOT_RECORD,37.282426,127.017562,경기도 수원시 팔달구 창룡대로7번길 11 ,031-252-2820
한소반쭈꾸미,NOT_RECORD,37.433557,127.086756,경기도 성남시 수정구 청계산로 589-1 ,031-751-7500
산성민속집,NOT_RECORD,37.478152,127.18436,경기도 광주시 남한산성면 남한산성로 776 ,031-743-6585
금향,NOT_RECORD,37.343804,127.110231,경기도 성남시 분당구 금곡로11번길 1 ,031-716-9990
횡성생고기,NOT_RECORD,37.332514,126.787378,경기도 안산시 단원구 신길로 13-15 ,031-492-9289
할머니손두부,NOT_RECORD,37.270773,127.71449,경기도 여주시 강천면 강문로 612 ,031-883-5747
솔사랑,NOT_RECORD,37.504454,126.804535,경기도 부천시 길주로560번길 52 ,032-682-1124
남궁,NOT_RECORD,37.68209,126.753532,경기도 고양시 일산서구 일산로 682 ,031-911-3773
레시피나인,NOT_RECORD,37.264567,127.033427,경기도 수원시 팔달구 인계로166번길 48-21 인계샤르망오피스텔 209호,031-221-9545
공리,NOT_RECORD,37.413998,127.263425,경기도 광주시 경안천로 27 두명빌딩,031-798-9997
강마을유황오리주물럭,NOT_RECORD,37.411474,127.259697,경기도 광주시 광주대로55번길 5 ,031-768-7676
제일갈비,NOT_RECORD,37.281425,127.443484,경기도 이천시 영창로 187 ,031-635-4306
명계옥,NOT_RECORD,37.661989,126.769402,경기도 고양시 일산동구 무궁화로 32-21 메탈릭타워,031-903-3318
포천이동정원갈비,NOT_RECORD,38.023656,127.368979,경기도 포천시 이동면 화동로 1970 ,031-533-0616
일품향,NOT_RECORD,37.274264,127.122496,경기도 용인시 기흥구 중부대로 521 ,031-284-1717
시루항아리,NOT_RECORD,37.51061,127.604848,경기도 양평군 용문면 용문산로 143 ,031-771-1944
청계산수타짬뽕,NOT_RECORD,37.390483,127.090022,경기도 성남시 분당구 운중로233번길 8-7 ,031-707-7647
사미가,NOT_RECORD,37.762642,127.393638,경기도 가평군 상면 청군로 456 ,031-584-0940
올갱이와청국장,NOT_RECORD,37.653304,126.700644,경기도 김포시 금포로 1220-8 ,031-998-1259
엄마손칼국수,NOT_RECORD,37.237116,127.201819,경기도 용인시 처인구 금학로 343 ,031-335-7517
쿠커피,NOT_RECORD,37.419715,126.924445,경기도 안양시 만안구 예술공원로 153-46 ,031-471-8084
옛날밥상,NOT_RECORD,37.722766,127.308718,경기도 남양주시 수동면 비룡로 1039 ,031-592-9963
베로키오커피,NOT_RECORD,37.790836,126.685625,경기도 파주시 탄현면 새오리로 74 ,031-945-3071
남원추어탕,NOT_RECORD,37.646795,126.874982,경기도 고양시 덕양구 고양대로 1742 ,031-963-1253
유성통닭,NOT_RECORD,37.40103,126.97556,경기도 안양시 동안구 인덕원로24번길 41-15 ,031-421-8292
영동곱창,NOT_RECORD,37.317596,126.839532,경기도 안산시 단원구 고잔2길 73 삼일빌딩,031-486-4638
자연다슬기해장국,NOT_RECORD,37.876615,127.528778,경기도 가평군 북면 가화로 769 ,031-582-4210
왕푸징양꼬치,NOT_RECORD,37.38581,127.125049,경기도 성남시 분당구 황새울로360번길 26 삼보프라자,031-708-9592
라이크라이크,NOT_RECORD,37.660958,126.766797,경기도 고양시 일산동구 무궁화로 8-19 삼라 마이다스빌,031-907-3885
꽃담,NOT_RECORD,37.333154,127.048632,경기도 용인시 수지구 신봉1로369번길 8 ,031-272-6641
야탑골한방삼계탕,NOT_RECORD,37.4107,127.134482,경기도 성남시 분당구 매화로38번길 6 1층,031-709-8599
춘천황가닭갈비,NOT_RECORD,37.410624,127.131112,경기도 성남시 분당구 야탑로111번길 11 ,031-701-6009
남수원,NOT_RECORD,37.359531,127.044156,경기도 용인시 수지구 이종무로 122 ,031-262-5322
베이커리차차,NOT_RECORD,37.374844,127.118407,경기도 성남시 분당구 내정로173번길 11 양지마을한양아파트 상가 141호,031-712-0735
숲,NOT_RECORD,37.383156,126.965103,경기도 안양시 동안구 관평로69번길 7-11 ,031-381-0463
카리브참치,NOT_RECORD,37.474756,126.86978,경기도 광명시 철산로30번길 20 ,02-2687-3325
삼교리동치미막국수(일산점),NOT_RECORD,37.66951,126.81599,경기도 고양시 일산동구 식사로 38 ,031-969-3951
숲속산장,NOT_RECORD,37.768904,126.938473,경기도 양주시 백석읍 기산로440번길 174 ,031-871-2040
촌골오리,NOT_RECORD,37.418609,126.932526,경기도 안양시 만안구 예술공원로 247 ,031-474-5292
봉평메밀,NOT_RECORD,37.421819,126.910339,경기도 안양시 만안구 삼막로 17-1 ,031-472-2628
장원삼계탕,NOT_RECORD,37.624779,126.695915,경기도 김포시 중봉로25번길 34 ,031-983-3322
산골정육점식당,NOT_RECORD,37.235731,127.201213,경기도 용인시 처인구 금령로39번길 8-5 ,031-335-5976
설봄,NOT_RECORD,37.227253,127.210133,경기도 용인시 처인구 명지로 317 ,031-322-9993
은행나무집,NOT_RECORD,37.443028,127.134468,경기도 성남시 수정구 수정로135번길 13 ,031-758-2798
기장산꼼장어,NOT_RECORD,37.348309,127.111309,경기도 성남시 분당구 미금일로74번길 29-3 ,031-714-2489
락궁,NOT_RECORD,37.749966,127.079252,경기도 의정부시 부용로 206-1 1층,031-853-8688
마포주먹고기,NOT_RECORD,37.477651,126.795257,경기도 부천시 소사로 217 ,032-348-3812
무지개돌솥밥,NOT_RECORD,37.320996,127.112362,경기도 용인시 기흥구 죽전로43번길 11-11 ,031-889-2378
오리촌,NOT_RECORD,37.797684,126.686209,경기도 파주시 탄현면 새오리로161번길 13-24 ,031-943-5295
외양간한우,NOT_RECORD,37.734866,127.108735,경기도 의정부시 고산로 177 ,031-841-0400
행복한집,NOT_RECORD,37.602128,126.814421,경기도 고양시 덕양구 행주산성로 179-1 ,031-973-3434
성화오리,NOT_RECORD,37.600518,126.820863,경기도 고양시 덕양구 행주산성로 100-2 ,031-974-9252
블레도르,NOT_RECORD,37.386413,127.111455,경기도 성남시 분당구 판교역로2번길 40 ,031-704-7228
블랑제리 드 르방,NOT_RECORD,37.392132,127.126939,경기도 성남시 분당구 양현로94번길 29 청구종합상가 114호,031-703-0808
라뜰리에,NOT_RECORD,37.351684,127.105679,경기도 성남시 분당구 정자일로 21 삼라마이다스빌,031-712-2988
듀팜,NOT_RECORD,37.386569,127.122116,경기도 성남시 분당구 황새울로335번길 8 덕산빌딩,031-701-3553
안데르센과자(백궁파라곤점),NOT_RECORD,37.368103,127.107242,경기도 성남시 분당구 느티로 22 백궁동양파라곤,031-782-8080
황촌집,NOT_RECORD,37.630345,126.552402,경기도 김포시 대곶면 약암로 853 ,031-989-7977
퍼스트네팔,NOT_RECORD,37.322671,127.123846,경기도 용인시 수지구 죽전로144번길 12-7 ,031-889-8773
어량,NOT_RECORD,37.269087,127.237931,경기도 용인시 처인구 포곡읍 금어로 216 ,031-333-2133
방자족발,NOT_RECORD,37.277969,127.019505,경기도 수원시 팔달구 팔달문로 19 지동시장,031-244-3377
이모네곱창,NOT_RECORD,37.599732,127.141086,경기도 구리시 안골로103번길 55 ,031-552-9636
모조더라운지,NOT_RECORD,37.413445,127.1255,경기도 성남시 분당구 장미로 42 리더스빌딩 113호,031-704-0120
가평칼국수,NOT_RECORD,37.827939,127.512073,경기도 가평군 가평읍 보납로6번길 37 ,031-581-7008
백마강참숯민물장어,NOT_RECORD,37.381347,127.097924,경기도 성남시 분당구 안양판교로 1192 ,031-703-9252
번창순대타운,NOT_RECORD,37.390516,126.954805,경기도 안양시 동안구 평촌대로217번길 19 백산프라자,031-388-4666
빈어스,NOT_RECORD,37.766483,127.166863,경기도 포천시 소흘읍 광릉수목원로 594 ,010-2535-0408
만미정,NOT_RECORD,37.289058,127.100311,경기도 용인시 기흥구 신정로 210 ,031-896-3442
벽수장,NOT_RECORD,37.474839,127.230475,경기도 광주시 남한산성면 엄미길 98 ,031-761-5208
장수촌,NOT_RECORD,37.765611,127.482236,경기도 가평군 청평면 상지로 315 ,031-585-1868
말무리농장,NOT_RECORD,37.732417,126.606258,경기도 김포시 통진읍 애기봉로571번길 128-70 ,031-989-1414
홍화루,NOT_RECORD,37.28661,127.033462,경기도 수원시 팔달구 월드컵로321번길 5 ,031-241-6001
복래반점,NOT_RECORD,37.432091,127.132362,경기도 성남시 중원구 성남대로1140번길 28 ,031-758-2658
자산어보(판교점),NOT_RECORD,37.394411,127.109192,경기도 성남시 분당구 대왕판교로606번길 10 알파리움 2단지 2층,031-706-9880
완도집,NOT_RECORD,37.434904,127.226516,경기도 광주시 남한산성면 남한산성로 731-22 ,031-746-7127
두메산골,NOT_RECORD,37.453562,127.209951,경기도 광주시 남한산성면 불당길37번길 66-11 ,031-743-3155
황소고집,NOT_RECORD,37.822221158159536,127.33768493675373,경기도 가평군 조종면 청군로 1388 ,031-584-0695
서울종로해장국,NOT_RECORD,37.019119325009264,127.2395160273921,경기도 안성시 대덕면 서동대로 4865 ,031-677-2588
옹기골추어탕,NOT_RECORD,37.003982,127.290252,경기도 안성시 진안로 1323 ,031-676-7688
하루방가든,NOT_RECORD,37.415443,127.204206,경기도 광주시 삼지곡길 54-16 ,031-762-8721
취홍,NOT_RECORD,37.384603,127.134648,경기도 성남시 분당구 안골로 24 서현태평빌딩 4층,031-708-1960
약수오리,NOT_RECORD,38.21388076137681,127.13916475165549,경기도 연천군 신서면 연신로 1616 ,031-834-1952
하누야,NOT_RECORD,37.553854,127.708904,경기도 양평군 청운면 용두민속장터길 5 ,031-773-9029
산정수로생고기집,NOT_RECORD,38.071584,127.290453,경기도 포천시 영북면 산정호수로 155 ,031-532-5548
팔복도가니탕,NOT_RECORD,37.516188,127.146489,경기도 하남시 서하남로 24 ,02-488-1488
타샤의정원,NOT_RECORD,37.728904,126.702177,경기도 파주시 지목로 115 ,031-949-3597
이창노녹두삼계탕메기매운탕,NOT_RECORD,37.25536686647611,127.11333610075971,경기도 용인시 기흥구 사은로 74 ,031-282-8234
카삼,NOT_RECORD,37.268349,126.999957,경기도 수원시 팔달구 덕영대로 897 ,031-252-9771
황토가든,NOT_RECORD,37.865058,127.347848,경기도 가평군 조종면 현등사길 25 ,031-585-3837
미술관옆커피가게,NOT_RECORD,37.662088,126.768039,경기도 고양시 일산동구 무궁화로 32-12 라페스타 E동 301호,031-903-2786
콩리,NOT_RECORD,37.5304551858195,127.46573963535,경기도 양평군 옥천면 신복길 101 ,031-771-7562
수,NOT_RECORD,37.289777,126.999441,경기도 수원시 장안구 장안로75번길 61 삼화빌딩 104호,031-258-3553
코티지가든 온더스테어스,NOT_RECORD,37.386104,127.111406,경기도 성남시 분당구 판교역로10번길 25 1층,031-701-8899
춘천호반막국수(본점),NOT_RECORD,37.48365,126.772797,경기도 부천시 경인로 156 BYC 부천 위더스빌 2층,032-664-7283
막줄래국시,NOT_RECORD,37.769597,127.054326,경기도 양주시 마전로118번길 17 ,031-840-6759
안집,NOT_RECORD,37.383648,127.136471,경기도 성남시 분당구 새마을로51번길 3 ,031-724-1000
호메오,NOT_RECORD,37.788684,126.697725,경기도 파주시 탄현면 헤이리마을길 59 ,031-946-1727
얌이,NOT_RECORD,37.2942651973422,127.052945790851,경기도 수원시 영통구 센트럴파크로127번길 63 ,031-215-1992
소양강가든,NOT_RECORD,37.8026720598594,127.34842462702,경기도 가평군 상면 비룡로 2240-17 ,031-584-5540
나무와베이커리,NOT_RECORD,37.791922,126.69785,경기도 파주시 탄현면 헤이리마을길 93-123 ,070-8824-2102
학마루,NOT_RECORD,37.230872,127.173793,경기도 용인시 처인구 용인대학로 96 ,031-321-1201
커피스톤,NOT_RECORD,37.384186,127.11172,경기도 성남시 분당구 판교역로10번길 8 1층,031-8017-0529
카페드로잉,NOT_RECORD,37.369571,127.106174,경기도 성남시 분당구 정자일로 220 동양파라곤 103동 1층,031-718-4308
북카페눈,NOT_RECORD,37.707447,126.687216,경기도 파주시 회동길 125-11 효형출판,031-955-7620
행간과여백,NOT_RECORD,37.707215,126.687314,경기도 파주시 회동길 77-20 돌베개,031-955-5029
홍남매칼국수,NOT_RECORD,37.294912,127.022755,경기도 수원시 장안구 광교산로 42 ,031-242-9599
청기와추어탕,NOT_RECORD,37.599313,126.874469,경기도 고양시 덕양구 중앙로 122-16 ,02-3158-0509
플랩잭팬트리,NOT_RECORD,37.384057,127.111935,경기도 성남시 분당구 판교역로 6-5 1층,031-709-0168
지오쿠치나,NOT_RECORD,37.377111,127.113849,경기도 성남시 분당구 황새울로200번길 34 코포모빌딩 101호,031-711-9488
클럽에스프레소(가평점),NOT_RECORD,37.677334525201644,127.48382513053349,경기도 가평군 설악면 유명로 1691-14 ,031-584-8719
우일면옥,NOT_RECORD,37.80709680255005,127.08271895304046,경기도 양주시 청담로84번길 231-19 ,031-848-2648
양우정,NOT_RECORD,37.3639860033755,127.106315700721,경기도 성남시 분당구 정자일로156번길 6 뉴본타워,031-713-9252
빠띠쓰리애나스,NOT_RECORD,37.3376957415072,127.110983963924,경기도 성남시 분당구 구미로 16 성우스타우스오피스텔,031-716-3994
피스피스,NOT_RECORD,37.6705821133655,126.783276650795,경기도 고양시 일산동구 일산로380번길 45 ,031-8076-9032
금메달식당(수원점),NOT_RECORD,37.2775261461681,127.05048027003,경기도 수원시 영통구 광교중앙로25번길 108 ,010-2937-8846
장복골,NOT_RECORD,37.2745028855003,127.609947878959,경기도 여주시 여주남로 162 ,070-4100-7895
더티트렁크,NOT_RECORD,37.7283824389851,126.702999446561,경기도 파주시 지목로 114 ,031-947-9283
나인블럭,NOT_RECORD,37.4033014273917,127.223369240608,경기도 광주시 경충대로 1969 ,031-761-1295
몽르베,NOT_RECORD,37.3607500776078,127.034557072631,경기도 용인시 수지구 이종무로203번길 6-5 ,031-261-1252
타임포타이,NOT_RECORD,37.3828326928486,127.151566922942,경기도 성남시 분당구 문정로144번길 5 ,031-702-1123
소담비빔국수,NOT_RECORD,37.1674650511447,126.895690527634,경기도 화성시 팔탄면 푸른들판로 660 정수상가,031-353-9482
만상,NOT_RECORD,37.322092,126.990857,경기도 수원시 장안구 경수대로1220번길 30-47 ,031-246-9779
풍미정,NOT_RECORD,37.333408690471124,127.17209808961809,경기도 용인시 처인구 모현읍 능원로 72 ,031-339-3139
태성추어탕,NOT_RECORD,37.026887,127.122905,경기도 평택시 만세로 1539 ,031-655-0853
삐노꼴레,NOT_RECORD,37.777141,127.12629,경기도 포천시 소흘읍 광릉수목원로 1077 ,031-543-5557
스토브온,NOT_RECORD,37.355302,127.105195,경기도 성남시 분당구 정자일로 55 분당두산위브 상가 106동 1층,070-4130-5775
임진대가,NOT_RECORD,37.887964778318,126.79627483657,경기도 파주시 문산읍 임진나루길 80 ,031-953-5174
장원막국수(파주문발점),NOT_RECORD,37.719136,126.70502,경기도 파주시 안개초길 18-2 ,031-943-9355
로스팅하우스드발롱,NOT_RECORD,37.812303,126.867253,경기도 파주시 광탄면 보광로 1524-11 ,031-942-5455
전주해장국,NOT_RECORD,37.460472,127.166883,경기도 성남시 중원구 산성대로 564 ,031-732-8452
지혜추어탕,NOT_RECORD,37.704891,126.55982,경기도 김포시 월곶면 군하로 123 ,031-987-0986
은행나무식당,NOT_RECORD,37.545444223124875,127.58373091996063,경기도 양평군 용문면 용문산로 638 ,031-773-3131
약산골,NOT_RECORD,37.004927,127.265895,경기도 안성시 인지1길 20 ,031-674-1771
홍이원,NOT_RECORD,37.2777133354599,127.449014561126,경기도 이천시 중리천로 107 ,031-631-2467
청계산손두부집,NOT_RECORD,37.391688,127.060562,경기도 성남시 분당구 하오개로 372 ,031-709-3033
구리타워G레스토랑,NOT_RECORD,37.588691,127.160693,경기도 구리시 왕숙천로 49 ,031-554-0003
오끼참치(분당본점),NOT_RECORD,37.386803,127.125472,경기도 성남시 분당구 서현로210번길 2 성지하이츠텔 2층,031-711-3735
화덕피자와맥주,NOT_RECORD,37.365389,127.106284,경기도 성남시 분당구 성남대로331번길 13 ,031-717-7233
소호정(분당점),NOT_RECORD,37.421451,127.115518,경기도 성남시 수정구 탄천로339번길 10 ,031-721-4914
프로방스,NOT_RECORD,37.7911683080677,126.685598577902,경기도 파주시 탄현면 새오리로 78 ,031-945-0230
털보셀프바베큐,NOT_RECORD,37.4595644375017,127.329764822486,경기도 광주시 퇴촌면 천진암로 578 ,031-765-8395
망향비빔국수,NOT_RECORD,38.02384,127.109229,경기도 연천군 청산면 궁평로 5 ,031-835-3575
온누리장작구이(팔당본점),NOT_RECORD,37.558322,127.235706,경기도 남양주시 와부읍 경강로 890 ,031-576-9293
창고43(일산점),NOT_RECORD,37.656918,126.77119,경기도 고양시 일산동구 정발산로 21 J3타워 3층,031-909-1392
연탄삼겹고추장구이,NOT_RECORD,37.344941,127.101253,경기도 성남시 분당구 대왕판교로 15 ,031-715-9092
미정국수0410(미금역점),NOT_RECORD,37.349621,127.109549,경기도 성남시 분당구 돌마로 68 분당프라자 1층 111호,031-717-4141
을밀대(일산점),NOT_RECORD,37.669509,126.75088,경기도 고양시 일산서구 일산로803번길 82-17 ,031-921-1921
너른마당,NOT_RECORD,37.657574,126.868815,경기도 고양시 덕양구 서삼릉길 233-4 ,031-962-6655
꼬시나,NOT_RECORD,37.740853,127.049156,경기도 의정부시 행복로 23-1 2층,031-848-0890
세꼬시마을,NOT_RECORD,37.321036545355,127.112815703666,경기도 용인시 기흥구 죽전로43번길 11-5 ,031-898-0908
카페프롬나드,NOT_RECORD,37.3563138443314,126.917889814269,경기도 군포시 수리산로 66 ,031-393-9535
고쿠텐,NOT_RECORD,37.36372100411027,127.10632390609481,경기도 성남시 분당구 정자로 13 월드비터 103호,070-8677-2297
클준빛날영,NOT_RECORD,37.402100812018936,127.1104666192067,경기도 성남시 분당구 판교역로 240 삼환하이펙스A동 지하 1층 126호,없음(인스타 공지)
뒤집기한판,NOT_RECORD,37.670799672613114,126.74811306869525,경기도 고양시 일산서구 호수로856번길 8-2 ,031-913-2888
고마니면가,NOT_RECORD,37.639074381614606,126.6731795465624,경기도 김포시 초당로16번길 114-1 ,031-981-1158
브롯,NOT_RECORD,37.727169065329264,126.7369690996821,경기도 파주시 산내로104번길 5-16 ,031-946-4566
민족의부대찌개 ,NOT_RECORD,36.993200649577226,127.08799859148445,경기도 평택시 평택1로12번길 18 ,031-618-7920
동호간장게장,NOT_RECORD,37.273474723160525,127.02782216509014,경기도 수원시 팔달구 장다리로 268 ,031-221-7780
더힐링,NOT_RECORD,37.20290757152488,127.07238557352164,경기도 화성시 메타폴리스로 47-25 지층 b06호,010-3066-2588
문스펍,NOT_RECORD,37.32116076099238,127.10940034511819,경기도 용인시 기흥구 죽전로15번길 7-13 ,031-897-2018
농협안심한우나주곰탕,NOT_RECORD,37.278447405750285,126.85047482281983,경기도 안산시 상록구 선진로 75 ,031-438-3456
둥이상회,NOT_RECORD,37.30895301356848,126.83176137379068,경기도 안산시 단원구 광덕2로 194-8 한무프라자,031-413-8694
생강부엌,NOT_RECORD,37.503569565082,126.782804797352,경기도 부천시 길주로363번길 14 ,010-2439-7566
커먼키친,NOT_RECORD,37.40209529907863,127.10863694633468,경기도 성남시 분당구 판교역로 235 에이치스퀘어 엔동 B107,031-696-7788
광화문국밥(판교점),NOT_RECORD,37.39426202230159,127.11036477013562,경기도 성남시 분당구 판교역로 152 알파돔타워 206호,031-622-7170
메즈클라,NOT_RECORD,37.39017983753411,127.08228577860396,경기도 성남시 분당구 운중로146번길 35-1 ,031-706-7544
더이스트하우스,NOT_RECORD,37.39146447364994,127.0900113444063,경기도 성남시 분당구 운중로225번길 30 ,031-8017-8912
향기나는터,NOT_RECORD,37.4041854916915,127.155909978037,경기도 성남시 분당구 새나리로6번길 7 ,031-8017-1717
베드포드커피,NOT_RECORD,37.2643001257722,127.035308532952,경기도 수원시 팔달구 권광로196번길 38 ,010-2353-5406
더기스스테이크하우스,NOT_RECORD,37.6934760608726,126.753956195613,경기도 고양시 일산서구 하이파크3로 22 A동 2층,031-925-1025
이코브루커피숍,NOT_RECORD,37.624978796861,126.556987539795,경기도 김포시 대곶면 약암로 782 ,031-986-1192
채은스시,NOT_RECORD,37.4528149919544,126.889245010641,경기도 광명시 하안로 168-11 ,070-8992-6181
이춘명숙성회(일산점),NOT_RECORD,37.6401757575893,126.789211482973,"경기도 고양시 일산동구 장백로 19 더루벤스카운티 112, 113호",031-908-2983
하나비원,NOT_RECORD,37.521511,127.146345,경기도 하남시 동남로 528 ,02-478-0011
아그집쭈꾸미(동탄점),NOT_RECORD,37.197633,127.077139,경기도 화성시 노작로4길 25-1 ,031-8003-8500
타마시초밥,NOT_RECORD,37.657549,126.772949,경기도 고양시 일산동구 정발산로 43-7 메리트윈 108호,031-904-0030
옥동이,NOT_RECORD,37.2705028422942,127.026142404305,경기도 수원시 팔달구 장다리로 231 도일빌딩,031-238-4270
즉석감고을김밥,NOT_RECORD,37.3902386744947,126.952756892814,경기도 안양시 동안구 평촌대로223번길 55 대명빌딩,031-388-8985
동천홍,NOT_RECORD,37.3838596641878,126.961341980465,경기도 안양시 동안구 귀인로190번길 39 ,031-385-2888
소리가있는동네,NOT_RECORD,37.6569,126.769944,경기도 고양시 일산동구 중앙로1261번길 79 하이베라스,031-904-5629
소담비빔국수(안양점),NOT_RECORD,37.402269,126.956462,경기도 안양시 동안구 관양로 81 ,031-388-0011
청국장과보리밥,NOT_RECORD,37.349374,127.344384,경기도 광주시 곤지암읍 경충대로 581 ,031-761-3313
청목(일산점),NOT_RECORD,37.65773,126.771376,경기도 고양시 일산동구 정발산로 31-21 ,031-906-7177
버터핑거팬케익스(분당점),NOT_RECORD,37.498831,127.025642,경기도 성남시 분당구 정자일로 239 아이파크 1단지 101동 상가105호,031-785-9994
홍천화로구이,NOT_RECORD,37.3834969160154,127.139035785641,경기도 성남시 분당구 새마을로 77 ,031-726-5592
나주집횡성한우,NOT_RECORD,0.0,0.0,경기도 용인시 기흥구 흥덕4로 25 ,031-282-0301
본수원갈비(병점점),NOT_RECORD,37.213759,127.032975,경기도 화성시 병점중앙로211번길 35 ,031-224-8434
쏘렐라에프라텔로,NOT_RECORD,37.323217,127.109301,경기도 용인시 기흥구 진산로 222 신세계쉐덴오피스텔 2층,031-897-5882
강남면옥(분당점),NOT_RECORD,37.384244,127.131147,경기도 성남시 분당구 새마을로 5 ,031-781-3790
팽오리농장,NOT_RECORD,37.54188,126.788352,경기도 부천시 대장로118번길 7 ,032-678-5196
논골추어탕,NOT_RECORD,37.661851,127.293051,경기도 남양주시 화도읍 묵현로 66-22 ,031-591-5988
안산주물럭,NOT_RECORD,37.3182193953606,126.841868830993,경기도 안산시 단원구 안산천서로 23 중앙하이츠빌,031-481-8774
봉암식당,NOT_RECORD,37.9076410226338,127.006575432632,경기도 양주시 은현면 봉암길 17 ,031-863-5064
산막골식당,NOT_RECORD,37.7748492469007,126.937817592415,경기도 양주시 백석읍 기산로 414-20 ,031-871-7266
태을봉,NOT_RECORD,37.324299,126.88804,경기도 군포시 둔대로 7 ,031-437-4339
옥계촌누룽지백숙,NOT_RECORD,37.335956,127.486976,경기도 이천시 백사면 이여로 494 ,031-634-0607
웅골손두부,NOT_RECORD,37.2562141998578,127.645166011477,경기도 여주시 세종로 488-26 ,031-882-1617
진장어탕구이,NOT_RECORD,37.334831,126.857817,경기도 안산시 상록구 시낭북로3길 1 ,031-483-5482
청기와집뼈감자탕,NOT_RECORD,37.346876,126.943255,경기도 군포시 고산로264번길 1 ,031-391-7111
우렁찬명품한우정육식당,NOT_RECORD,37.594219,127.186344,경기도 남양주시 고산로 180-1 ,031-577-8833
수리산영양돌솥쌈밥,NOT_RECORD,37.374082,126.929494,경기도 군포시 곡란로74번길 1-15 ,031-394-7682
삼정복집,NOT_RECORD,37.3597321221002,126.930478396117,경기도 군포시 산본로323번길 26-30  여명프라자,031-395-5880
유명산종점가든,NOT_RECORD,37.595457,127.49034,경기도 가평군 설악면 유명산길 76 ,031-584-0716
들꽃향기식당,NOT_RECORD,37.741855,127.352686,경기도 가평군 상면 수목원로 465 ,031-584-7282
썬일가든,NOT_RECORD,37.8471629834303,127.355504525143,경기도 가평군 조종면 운악청계로 358 ,031-585-0095
일가가마솥설렁탕,NOT_RECORD,37.8228765970744,127.340066401627,경기도 가평군 조종면 청군로 1364 ,031-585-3302
검단집,NOT_RECORD,37.715642,127.502256,경기도 가평군 청평면 호반로 1226 ,031-585-6977
본향칼국수,NOT_RECORD,37.3593263028997,126.922509345266,경기도 군포시 고산로 515 GS휘트니스클럽빌딩,031-398-9794
산이좋은사람들,NOT_RECORD,37.8661795861439,127.349320312752,경기도 가평군 조종면 와곡길 3-16 ,031-585-8645
설악면옥,NOT_RECORD,37.677418,127.480667,경기도 가평군 설악면 유명로 1710 ,031-585-9292
금남멧돼지,NOT_RECORD,37.6318067354765,127.350963153008,경기도 남양주시 화도읍 북한강로 1332 ,031-591-0921
민속두부마을과돌솥밥,NOT_RECORD,37.643676,127.23103,경기도 남양주시 평내로 13 ,031-559-2698
두미만두,NOT_RECORD,37.519719,126.770446,경기도 부천시 중동로 446-1 ,032-674-8851
26호까치할머니손칼국수,NOT_RECORD,37.2392565993576,126.60583120479,경기도 안산시 단원구 대부황금로 805 힐하우스모텔,032-886-0334
쌍동이네,NOT_RECORD,37.0027670772241,127.317616484034,경기도 안성시 금광면 진안로 1074 ,031-676-1922
삼정숯불갈비,NOT_RECORD,37.703221,127.163305,경기도 남양주시 진접읍 내각1로 53 ,031-571-3694
산골마을,NOT_RECORD,37.503812,126.804623,경기도 부천시 길주로560번길 68 ,032-682-5175
심가면옥,NOT_RECORD,37.522239,126.804492,경기도 부천시 소사로 741 ,032-683-6655
나루께,NOT_RECORD,37.505356,127.439573,경기도 양평군 강하면 강남로 489 ,031-771-0001
장우가든,NOT_RECORD,37.7318376879041,127.194842456027,경기도 남양주시 진접읍 금강로 1586 ,031-572-3493
수사골송어횟집,NOT_RECORD,37.698614,127.214373,경기도 남양주시 오남읍 진건오남로708번길 53 ,031-575-6888
종갓집,NOT_RECORD,37.592485,127.337479,경기도 남양주시 조안면 북한강로 856 ,031-576-1100
본가갈비,NOT_RECORD,37.2817982275741,127.019949796016,경기도 수원시 팔달구 창룡대로 30 ,031-243-8851
사랑방식당,NOT_RECORD,37.7474106150027,127.187985633382,경기도 남양주시 진접읍 광릉수목원로 187-1 ,031-527-7241
닭이봉춘천닭갈비(오남점),NOT_RECORD,37.6874826263311,127.21091768464,경기도 남양주시 오남읍 진건오남로 603 ,031-528-5707
통일촌장단콩마을,NOT_RECORD,37.9106389800343,126.733603103531,경기도 파주시 군내면 통일촌길 64 ,031-954-3443
승잠원,NOT_RECORD,37.85058,126.8879,경기도 파주시 법원읍 초리골길 77 ,031-958-9522
조마루감자탕,NOT_RECORD,37.4981132034292,126.78632933846,경기도 부천시 조마루로 381 덕수빌딩,032-664-7394
황소가든,NOT_RECORD,37.9555368536587,126.918621476496,경기도 파주시 적성면 칠중2길 19 ,031-959-5003
최고집칼국수,NOT_RECORD,37.6066466653893,127.16009468271,경기도 남양주시 경춘로 414-10 ,031-553-7080
안채,NOT_RECORD,37.586331,127.172965,경기도 남양주시 강변북로632번길 31 ,031-557-3848
사랑방손칼국수(부천점),NOT_RECORD,37.4827361568574,126.777766298553,경기도 부천시 심곡로9번길 32 ,032-668-4519
복청,NOT_RECORD,37.3144320175943,126.797268630687,경기도 안산시 단원구 동산로 63 ,031-491-0086
젤코바,NOT_RECORD,37.505356,127.439573,경기도 양평군 강하면 강남로 489 ,031-771-0001
구루몽,NOT_RECORD,37.6058852563104,127.155773257318,경기도 남양주시 경춘로 377 다산 효성해링턴 타워,031-567-9997
옛날서문순대국밥,NOT_RECORD,37.2865287285921,127.00677078598,경기도 수원시 장안구 장안로 14 ,031-246-2071
피피케이키친,NOT_RECORD,37.2657388823651,127.031577113974,경기도 수원시 팔달구 인계로124번길 27-18 신일빌딩,031-309-9839
남부정육점,NOT_RECORD,37.3982086428734,126.976011498662,경기도 안양시 동안구 흥안대로493번길 11 ,031-422-6305
원조원촌칡냉면,NOT_RECORD,37.2910635416226,126.852108005447,경기도 안산시 상록구 감골2로 40 상록수현대2차아파트 주상가동,031-418-7749
이순례손만두,NOT_RECORD,37.7400229905642,127.036958019869,경기도 의정부시 둔야로45번길 48 ,031-877-7224
삼합촌,NOT_RECORD,37.6514029948687,126.779120233334,경기도 고양시 일산동구 강석로 119 ,031-906-1333
중앙식당,NOT_RECORD,37.6851718739014,126.770449023659,경기도 고양시 일산서구 일청로8번길 9 ,031-975-6357
자연샘,NOT_RECORD,37.1470445575554,126.919772494595,경기도 화성시 팔탄면 삼천병마로 355-87 ,031-353-0424
동이,NOT_RECORD,37.83403,127.509654,경기도 가평군 가평읍 석봉로 214 ,031-582-3432
명품족발,NOT_RECORD,37.646661,127.234833,경기도 남양주시 경춘로 1260 하나프라자 1층,031-594-8640
개군할머니토종순대국,NOT_RECORD,37.4257773062508,127.537834125285,경기도 양평군 개군면 하자포길 29 ,031-772-8303
남원순대국,NOT_RECORD,37.741936,127.04742,경기도 의정부시 평화로552번길 9-15 ,031-846-5370
물향기쌈밥정식,NOT_RECORD,37.175004,127.054776,경기도 오산시 수청로 79-8 ,031-377-3839
환상의섬,NOT_RECORD,37.4867685977141,126.813717912591,경기도 부천시 부일로 757 ,032-348-1123
대포항,NOT_RECORD,37.377327,127.139151,경기도 성남시 분당구 효자길 33-1 ,031-781-3136
청미,NOT_RECORD,37.268616,126.569224,경기도 안산시 단원구 대선로 36 ,032-887-1108
까사338,NOT_RECORD,37.801162,127.103732,경기도 양주시 삼숭로58번길 57 ,031-847-7760
웅이네오돌뼈,NOT_RECORD,0.0,0.0,경기도 안산시 상록구 석호로 44-1 ,031-438-2206
경성집,NOT_RECORD,37.489858,126.752836,경기도 부천시 상일로94번길 37 금강플라자,032-321-1250
전주장작불곰탕,NOT_RECORD,37.6823004751203,126.89698212825,경기도 고양시 덕양구 호국로 1453 ,031-962-4910
남수통닭,NOT_RECORD,37.2648893968716,127.026753753594,경기도 수원시 팔달구 효원로219번길 36 ,031-269-9282
대부도 원조 11호 횟집,NOT_RECORD,37.2057216291227,126.644934819053,경기도 안산시 단원구 대부황금로 153 ,032-886-9050
대하회집,NOT_RECORD,0.0,0.0,경기도 화성시 서신면 해안길 236 ,031-357-7626
등대횟집,NOT_RECORD,0.0,0.0,경기도 화성시 서신면 해안길 252 ,031-357-0058
우전옥간장게장,NOT_RECORD,37.3126893506096,126.999315816824,경기도 수원시 장안구 파장천로 94 ,031-269-3001
만강홍,NOT_RECORD,37.413073,127.129732,경기도 성남시 분당구 성남대로926번길 18 ,031-781-1566
한옥마을박씨네추어탕,NOT_RECORD,37.58377,126.9796,경기도 김포시 걸포로192번길 23 ,031-985-8441
중앙횟집,NOT_RECORD,0.0,0.0,경기도 화성시 서신면 해안길 266-1 ,031-357-7528
차이란,NOT_RECORD,37.31986501536,127.109659868853,경기도 용인시 기흥구 죽현로 8-20 아이원프라자,031-265-8286
차이홍,NOT_RECORD,37.6704579481819,126.773535921791,경기도 고양시 일산동구 대산로 28 1층,031-924-7200
조선면옥,NOT_RECORD,37.383804,127.134969,경기도 성남시 분당구 새마을로 37 ,031-704-0086
동기간,NOT_RECORD,37.8552853638991,127.549070466662,경기도 가평군 가평읍 보납로 459-158 ,031-581-5570
희래등,NOT_RECORD,37.5012630856663,126.774675576889,경기도 부천시 중동로248번길 105 조이럭타운,032-217-8282
전곡종합수산시장,NOT_RECORD,37.187,126.653681,경기도 화성시 서신면 전곡항로32번길 1-4 ,031-357-0112
강나루,NOT_RECORD,37.5997,126.8177,경기도 고양시 덕양구 행주산성로 131 ,031-974-1915
임진강한우마을(원풍점),NOT_RECORD,37.956126,126.916756,경기도 파주시 적성면 솥뒤로 25 ,031-959-4278
씨암레스토랑,NOT_RECORD,37.2862322919066,127.208710584815,경기도 용인시 처인구 포곡읍 성산로 629 ,031-323-3235
금촌능이버섯백숙,NOT_RECORD,37.7550661920895,126.774599707575,경기도 파주시 황골로 52-3 ,031-948-2345
털보집,NOT_RECORD,37.5421419100303,127.240200957273,경기도 하남시 검단산로 377 ,031-792-3815
서해수산,NOT_RECORD,37.0142723656379,127.268151887047,경기도 안성시 안성맞춤대로 1139 ,031-671-8392
초원,NOT_RECORD,37.59478,127.1943,경기도 남양주시 삼패동 산328-11 ,031-577-8890
덕담오리,NOT_RECORD,37.2523268448601,127.076726041705,경기도 수원시 영통구 청명남로34번길 21 테라스가든상가 2층,031-273-9922
리버사이드테라스,NOT_RECORD,37.5057070612746,127.438220028667,경기도 양평군 강하면 강남로 489 ,031-771-0001
뚝방집,NOT_RECORD,37.347709,126.692433,경기도 시흥시 오이도로 107 ,031-432-8992
대부,NOT_RECORD,37.51939,126.7699,경기도 부천시 중동로 443 ,032-682-4477
빵공방아키,NOT_RECORD,37.6848917540755,126.775831991538,경기도 고양시 일산서구 원일로 126 ,031-976-3007
오일레스,NOT_RECORD,37.252995,127.362522,경기도 이천시 마장면 덕평로 1066 ,031-632-5993
한우만,NOT_RECORD,37.3751442943993,126.942811124243,경기도 군포시 공단로 350 대맥프라자,031-427-8829
신농한우,NOT_RECORD,37.4530135017078,126.864602782845,경기도 광명시 밤일안로 8 ,02-899-1077
어전일식(소하점),NOT_RECORD,37.4498509243862,126.889047876781,경기도 광명시 소하일로52번길 10 ,02-807-1617
원조회세꼬시,NOT_RECORD,37.2514587479802,127.075935916587,경기도 수원시 영통구 청명남로28번길 20 플러스타운빌딩,031-203-7200
고려약선삼계탕,NOT_RECORD,37.402671,126.94999,경기도 안양시 동안구 평촌대로 358 1층,031-442-0272
프로메사,NOT_RECORD,37.62165,126.8466,경기도 고양시 덕양구 서정마을2로7번길 27-13 ,031-938-6296
옹기꽃게장(구리점),NOT_RECORD,37.61697,127.138289,경기도 구리시 동구릉로 206 ,031-555-0551
명장한우,NOT_RECORD,37.3064422466582,126.848336010907,경기도 안산시 상록구 광덕1로 346 동영센트럴타워,031-415-0068
남해해물,NOT_RECORD,0.0,0.0,경기도 가평군 청평면 청평중앙로26번길 10 ,031-585-5933
큰집쭈꾸미,NOT_RECORD,37.3779304784601,127.102302829056,경기도 성남시 분당구 대왕판교로 384 ,031-8017-1129
농가보쌈족발,NOT_RECORD,37.418274,127.258516,경기도 광주시 광주대로129번길 4 ,031-767-6705
윤씨보쌈,NOT_RECORD,37.4105742693921,127.265631402901,경기도 광주시 청석로 264 ,031-762-8089
붓처스컷(판교점),NOT_RECORD,37.396592,127.113675,경기도 성남시 분당구 동판교로177번길 25 판교호반 써밋플레이스 2층,031-707-7037
청평매운탕,NOT_RECORD,37.453331525576594,126.86425930921743,경기도 광명시 밤일안로14번길 5 ,02-858-5906
청계누룽지백숙,NOT_RECORD,37.3841334693848,127.007004140966,경기도 의왕시 학현로 170-82 ,050-7417-5255
노조미,NOT_RECORD,37.205348,127.074331,경기도 화성시 노작로 195 코스모스타워 3층,031-8003-9740
세시셀라(판교점),NOT_RECORD,37.406283,127.116422,경기도 성남시 분당구 동판교로177번길 25 판교호반 써밋플레이스 1층 125호,031-8016-7101
천명,NOT_RECORD,37.620448,126.714817,경기도 김포시 돌문로 77 ,031-997-3292
오뎅식당별관,NOT_RECORD,37.74405,127.049439,경기도 의정부시 호국로1309번길 7 ,031-842-0423
하꼬야(판교점),NOT_RECORD,37.406283,127.116422,경기도 성남시 분당구 동판교로177번길 25 판교호반 써밋플레이스 2층,031-705-0337
춘천막국수,NOT_RECORD,37.275279971024,127.014707109869,경기도 수원시 팔달구 행궁로84번길 10-5 ,031-242-6667
금강숯불바베큐치킨,NOT_RECORD,37.338348,127.110084,경기도 성남시 분당구 구미로9번길 1 향정프라자,031-726-3401
동키커피,NOT_RECORD,37.341346,126.686487,경기도 시흥시 오이도로 223 ,031-503-3820
홍성원,NOT_RECORD,37.650062,126.793183,경기도 고양시 일산동구 일산로 142 유니테크빌 102호,031-905-5545
장자원가든,NOT_RECORD,37.6873702206942,126.929481221997,경기도 양주시 장흥면 일영로502번길 2-117 ,031-855-2529
태능맥갈비,NOT_RECORD,37.6856832138069,127.134573215138,경기도 남양주시 별내면 송산로 489-1 ,031-527-8800
삼대째손두부진갈비,NOT_RECORD,37.25996,127.065051,경기도 수원시 영통구 매영로 235 ,031-211-9033
스시진,NOT_RECORD,37.598561,127.136547,경기도 구리시 체육관로 156 ,031-563-9565
세컨플로어,NOT_RECORD,37.333648,127.053407,경기도 용인시 수지구 신봉1로330번길 7 ,031-266-6589
제주도토종흑돼지,NOT_RECORD,37.350946,127.110457,경기도 성남시 분당구 성남대로172번길 12 현대아리온오피스텔,031-711-9452
고향생각,NOT_RECORD,37.3615106011754,127.15808356676,경기도 광주시 오포읍 새말길 15 ,031-718-5080
삼해수산,NOT_RECORD,37.4188113618474,127.246928398078,경기도 광주시 이배재로 15 ,031-764-7222
새벽수산,NOT_RECORD,37.679181,126.754247,경기도 고양시 일산서구 대산로226번길 8-5 ,031-924-6689
만바우촌,NOT_RECORD,37.7110854425121,126.788277139035,경기도 고양시 일산동구 고봉로 608 ,031-977-1008
서옹메밀막국수,NOT_RECORD,37.6014558223711,127.123300331007,경기도 구리시 경춘로 73 ,031-565-7006
민락동할매의토종보리밥집,NOT_RECORD,37.7628258880686,127.112018786251,경기도 의정부시 민락로465번길 23-24 ,010-4741-8165
브루하우스더테이블,NOT_RECORD,37.6626500864282,126.804202787854,경기도 고양시 일산동구 백마로 504 ,070-8241-2939
베이비기네스(판교점),NOT_RECORD,37.391163,127.091226,경기도 성남시 분당구 운중로277번길 40-9 ,031-706-3220
강마루,NOT_RECORD,37.684801,127.386229,경기도 가평군 청평면 북한강로 1871 ,031-584-1943
북문족발,NOT_RECORD,37.2921043980789,127.01643024407,경기도 수원시 장안구 팔달로303번길 21-2 ,031-252-7788
루미케이크,NOT_RECORD,37.7362385027312,126.753142001113,경기도 파주시 가람로21번길 62-24 ,031-949-2700
장어집,NOT_RECORD,37.1964,126.981223,경기도 화성시 정남면 세자로 335 ,031-275-3333
기운네김밥,NOT_RECORD,36.9970047316885,127.084427292842,경기도 평택시 통복시장로13번길 19-1 ,031-655-1644
하이드파크,NOT_RECORD,37.269938,127.109831,경기도 용인시 기흥구 백남준로 7 ,031-286-8584
고향메밀촌,NOT_RECORD,37.344561,126.987045,경기도 의왕시 향촌길 17-1 ,031-452-9994
행주가든,NOT_RECORD,37.600221,126.814612,경기도 고양시 덕양구 행주산성로 155 ,031-974-7461
장터설렁탕,NOT_RECORD,37.280908,126.973746,경기도 수원시 권선구 수인로 257 ,031-293-1006
미소복원조양평해장국,NOT_RECORD,37.701214,126.932022,경기도 양주시 장흥면 일영로 648-25 ,031-855-5057
피제리아다문,NOT_RECORD,37.321678,127.109678,경기도 용인시 기흥구 죽전로15번길 11-8 ,031-889-2010
삼교리동치미막국수,NOT_RECORD,37.3531803830129,127.102389099294,경기도 성남시 분당구 대왕판교로 110 ,031-719-0888
카페더치즈케이크,NOT_RECORD,37.358468,126.93097,경기도 군포시 광정로 58 신산본빌딩1층,031-392-7500
청담본갈비,NOT_RECORD,37.4518673116951,126.863886625616,경기도 광명시 밤일로 4 ,02-899-0787
황소고집,NOT_RECORD,37.3329821796855,127.172258363066,경기도 용인시 처인구 모현읍 능원로 74 ,031-339-0661
함흥면옥,NOT_RECORD,37.3976156431246,126.987425524173,경기도 의왕시 성고개로 53 에이스청계타워,031-426-1185
마레도르이은,NOT_RECORD,37.5085787137158,126.808547880068,경기도 부천시 까치로20번길 13-7 ,032-620-3747
행복찹쌀떡,NOT_RECORD,37.432786,126.99306,경기도 과천시 관문로 130 1단지상가,02-504-1281
아미가일식,NOT_RECORD,37.3113,126.830813,경기도 안산시 단원구 광덕대로 168 신화타운 5층,031-483-2331
목우촌웰빙마을(애니골점),NOT_RECORD,37.670849,126.790303,경기도 고양시 일산동구 애니골길43번길 17-1 ,031-903-1592
화평동왕냉면(본오점),NOT_RECORD,37.293291,126.863554,경기도 안산시 상록구 석호로 298 ,031-409-4666
트라토리아식구(수원역점),NOT_RECORD,37.267164,127.001913,경기도 수원시 팔달구 매산로 3-1 ,010-2867-3130
가보삼계탕,NOT_RECORD,37.2528313903591,127.014838571739,경기도 수원시 권선구 세지로 6 1층,031-236-2573
강원도막국수,NOT_RECORD,37.269993,127.003249,경기도 수원시 팔달구 갓매산로 70 ,031-252-6677
소금오리황토진흙구이,NOT_RECORD,37.263159,127.194222,경기도 용인시 처인구 백령로 22 ,031-339-5292
전주솔밭갈비,NOT_RECORD,38.0695599130178,127.405310292681,경기도 포천시 이동면 포화로 178 ,031-535-8886
영통가야밀면,NOT_RECORD,37.252732,127.070889,경기도 수원시 영통구 매영로345번길 7 영통트리플렉스,031-205-3418
태봉산 한터오리골,NOT_RECORD,37.244435,127.279666,경기도 용인시 처인구 양지면 주북로 440 ,031-336-5299
산삼궁,NOT_RECORD,37.1832544378224,127.077515038046,경기도 화성시 금곡로 257 ,031-374-3351
봉평메밀막국수(일산점),NOT_RECORD,37.658106,126.77271,경기도 고양시 일산동구 중앙로1261번길 19 호수광장빌딩 1층 103호,031-906-8898
라이차이,NOT_RECORD,37.4834320518818,126.757451539375,경기도 부천시 경인로 21 ,032-657-1919
마당집촌돼지두루치기,NOT_RECORD,37.0433107297601,127.093334090592,경기도 평택시 방여울로 97 ,031-664-3363
감나무골가든,NOT_RECORD,37.001569,127.33902,경기도 안성시 금광면 삼흥로 137 ,031-672-9843
거목산장,NOT_RECORD,37.077441,127.211585,경기도 안성시 양성면 도곡길 34-15 ,031-673-9981
도깨비족발포차,NOT_RECORD,37.377726,127.132875,경기도 성남시 분당구 돌마로 481 분당우성프라자,031-707-4195
메밀촌,NOT_RECORD,37.5369473571611,127.591590857471,경기도 양평군 용문면 용문산로 514 ,031-773-4247
8호단골횟집,NOT_RECORD,37.2061856213598,126.645280167877,경기도 안산시 단원구 대부황금로 159 ,032-885-9955
테라로사(서종점),NOT_RECORD,37.624729,127.355285,경기도 양평군 서종면 북한강로 992 ,없음
장수누룽지백숙명품장어,NOT_RECORD,37.786504,126.689373,경기도 파주시 탄현면 새오리로 13 비젼스힐,031-947-6782
다모,NOT_RECORD,37.3029674266167,126.970697269185,경기도 수원시 장안구 서부로2181번길 39 ,031-292-9293
조개마을,NOT_RECORD,37.3448907425141,126.68773999138,경기도 시흥시 오이도로 179-1 ,031-431-9288
하이난,NOT_RECORD,37.298287,127.10774,경기도 용인시 기흥구 용구대로 2377 ,031-285-2266
키무스시,NOT_RECORD,37.317466,126.835283,경기도 안산시 단원구 고잔2길 38 중앙상가,031-411-0603
산골가든,NOT_RECORD,37.1839140408479,127.23448567284,경기도 용인시 처인구 이동읍 한덕로7번길 2 ,031-322-2979
금미옥,NOT_RECORD,37.74214841440255,127.02874093135836,경기도 의정부시 호국로1120번길 13-8 ,031-872-2121
고산수,NOT_RECORD,37.412041968860976,127.1272892461136,경기도 성남시 분당구 성남대로925번길 11 ,031-709-5525
배꼽집(일산벨라시타점),NOT_RECORD,37.644069857500874,126.79280116489467,경기도 고양시 일산동구 강송로 33 벨라시타 A동,031-849-6616
전통춘천닭갈비,NOT_RECORD,37.28266890189128,127.1128177216003,경기도 용인시 기흥구 관곡로 64 ,031-286-8338
민바리고추장매운탕,NOT_RECORD,37.723020776587894,126.69638580491139,경기도 파주시 쌀뚜기길 44-42 ,031-949-8266
기욤 판교점  ,NOT_RECORD,37.3973207561987,127.11356226927,경기도 성남시 분당구 동판교로177번길 25 ,031-706-6701
브루다,NOT_RECORD,37.7786894344324,126.956775899574,경기도 양주시 백석읍 권율로 909 ,070-8838-4096
터줏대감회직판장,NOT_RECORD,37.8544272155531,126.786383748121,경기도 파주시 문산읍 문향로 28 ,031-954-6767
쉐누하누,NOT_RECORD,37.3944039022277,127.108352326702,경기도 성남시 분당구 판교역로 145 ,031-703-5530
글렌루나,NOT_RECORD,37.6450383303262,126.625043944901,경기도 김포시 김포한강9로75번길 190 이너매스한강 5층,031-996-2666
모노톤베이크하우스,NOT_RECORD,37.368833323201,127.110948870482,경기도 성남시 분당구 느티로51번길 4-10 1층,010-9080-3189
컴프에비뉴,NOT_RECORD,37.7917373693017,126.697336891381,경기도 파주시 탄현면 얼음실로 197 ,031-949-8291
어로프슬라이스피스,NOT_RECORD,37.2627549696841,127.191007800435,경기도 용인시 처인구 백령로 47 ,031-339-1488
문발리,NOT_RECORD,37.7245294084281,126.693896556541,경기도 파주시 파주로 46 ,031-945-8876
글린공원,NOT_RECORD,37.6499782916684,126.649234187517,경기도 김포시 양촌읍 석모로5번길 34 ,031-996-5177
우테이블,NOT_RECORD,37.3973207561987,127.11356226927,경기도 성남시 분당구 동판교로177번길 25 판교 호반 써밋 플레이스 1층,031-703-4775
오라운트,NOT_RECORD,37.3713528119888,127.246379881262,경기도 광주시 오포읍 양벌로 320-4 ,031-762-3793
필무드,NOT_RECORD,37.7764834274328,126.911969101416,경기도 파주시 광탄면 기산로 129 , 031-944-0323
그래니살룬,NOT_RECORD,37.3618480979877,127.106559783202,경기도 성남시 분당구 정자일로 132 엠코헤리츠 4단지 1층,070-4136-0644
르꾸떼,NOT_RECORD,37.4476452216679,126.884972577884,경기도 광명시 소하로109번길 19 서울프라자 303호,0507-1309-0242
하누마루,NOT_RECORD,37.394244787236,127.112210932491,경기도 성남시 분당구 분당내곡로 117 ,031-622-7500
마카시네에스프레소바,NOT_RECORD,37.2082103699662,127.111672630685,경기도 화성시 지산1길 21-2 ,010-2929-7622
수산공원,NOT_RECORD,37.6428312965761,126.546076105164,경기도 김포시 대곶면 대명항1로 52 ,031-985-6672
금석오리,NOT_RECORD,37.6026026047579,126.891178148989,경기도 고양시 덕양구 꽃내음2길 50-2 ,02-6449-0031
포옥,NOT_RECORD,37.7750159263388,127.165893590439,경기도 포천시 소흘읍 죽엽산로 685-20 ,010-2081-5446
리베르떼,NOT_RECORD,37.6139542126811,127.339974421456,경기도 남양주시 화도읍 북한강로 1109-13 ,031-591-7714
설화한우,NOT_RECORD,37.3843299362055,127.133621666234,경기도 성남시 분당구 안골로 12-4 동양프라자 1층,031-707-0877
송추가마골,NOT_RECORD,37.717548,126.97217,경기도 양주시 장흥면 호국로 525 ,031-826-3311
