name,ribbonType,latitude,longitude,address,phone
부일식당,RIBBON_TWO,34.841192,128.420307,경상남도 통영시 서호시장길 45 ,055-645-0842  
고래명가,RIBBON_TWO,35.502458,129.376894,울산광역시 남구 장생포고래로 207 ,052-269-2361  
언양기와집불고기,RIBBON_TWO,35.565334,129.122291,울산광역시 울주군 언양읍 헌양길 86 ,052-262-4884  
해송일식,RIBBON_TWO,34.8604613433918,128.42676280433318,경상남도 통영시 무전5길 12-10 롯데빌딩,055-642-0363  
천황식당,RIBBON_TWO,35.196068,128.084463,경상남도 진주시 촉석로207번길 3 ,055-741-2646  
병곡식당,RIBBON_ONE,35.5180253713296,127.729095779555,경상남도 함양군 함양읍 중앙시장길 2-29 ,055-964-2236  
쿠버스그릴,RIBBON_ONE,35.2301402963327,128.68151791969,경상남도 창원시 성산구 용지로169번길 5 호텔에비뉴 2층,055-284-0840  
설야멱,RIBBON_ONE,35.3205006360447,128.99781107582,경상남도 양산시 물금읍 백호1길 11 ,010-6555-1888  
밀레다임커피,RIBBON_ONE,35.1963396084977,128.082721979917,경상남도 진주시 진주대로1087번길 3 ,055-747-8377  
삼문당,RIBBON_ONE,34.8465785748135,128.424234774115,경상남도 통영시 중앙로 168 ,055-645-9092  
시그너스커피바,RIBBON_ONE,35.5358801934194,129.328194341734,울산광역시 남구 번영로 119 1층,070-4228-9292  
에디스키친,RIBBON_ONE,35.185530064354,128.788677532075,경상남도 김해시 대청계곡길 46 ,055-338-4212  
첸트로,RIBBON_ONE,35.3273990916233,129.014274700329,경상남도 양산시 물금읍 범구로 25 ,055-389-0889  
지리산약초장어,RIBBON_ONE,35.41854690998507,127.87099111427078,경상남도 산청군 금서면 친환경로2605번길 6-1 ,055-974-2211  
라룬크루아상,RIBBON_ONE,35.22762078536069,128.6791080417862,경상남도 창원시 성산구 용지로133번길 9 마사이워킹센터 1층,055-262-2515  
르뱅스타독일빵집,RIBBON_ONE,34.796148337757934,128.04923535533624,경상남도 남해군 삼동면 동부대로1030번길 77 ,055-864-7588  
풍로옥,RIBBON_ONE,35.5436617004613,129.33103563813228,울산광역시 남구 돋질로239번길 6 1층,052-266-0210  
베이스워터커피,RIBBON_ONE,35.2409257912557,128.587741943938,경상남도 창원시 마산회원구 합성동2길 47 ,0507-1318-7377
마시미로스터스 ,RIBBON_ONE,35.55410683108133,129.2598833189175,울산광역시 울주군 범서읍 굴화길 51-2 ,010-9204-2043  
아니마,RIBBON_ONE,35.539776,129.332509,울산광역시 남구 왕생로66번길 13 ,052-903-0106  
고래향,RIBBON_ONE,35.531851,129.329298,울산광역시 남구 도산로139번길 5 ,052-272-7373  
천수식당,RIBBON_ONE,35.197209,128.083709,경상남도 진주시 향교로8번길 3 ,055-742-7977  
시마다,RIBBON_ONE,35.158415822629586,128.10682235302147,경상남도 진주시 가좌길48번길 15-1 ,055-763-0208  
대추나무,RIBBON_ONE,34.8424105708126,128.423387099505,경상남도 통영시 항남1길 15-7 미성실비,055-641-3877  
명촌식당,RIBBON_ONE,34.840182,128.42189,경상남도 통영시 통영해안로 237 ,055-641-2280  
대청마루,RIBBON_ONE,34.808333,128.034624,경상남도 남해군 삼동면 동부대로 1293 ,055-867-0008  
햇살복집,RIBBON_ONE,34.7923580661195,128.04728411282,경상남도 남해군 삼동면 동부대로 1045-7 ,055-867-1320  
노렌스시,RIBBON_ONE,35.198672,128.573088,경상남도 창원시 마산합포구 해안대로 288 ,055-242-7812  
도선장횟집,RIBBON_ONE,35.093089,128.819129,경상남도 창원시 진해구 용원동로 225 ,055-552-2244  
송화한정식,RIBBON_ONE,35.179113,128.109509,경상남도 진주시 도동천로 82 ,055-753-4443  
설야진주전통비빔밥전문점,RIBBON_ONE,35.16488237454452,128.12728082498666,경상남도 진주시 동부로169번길 12 윙스타워 1층 A109호,055-762-0585  
신생원,RIBBON_ONE,35.151585,128.659711,경상남도 창원시 진해구 중원로 83 ,055-545-1452  
원조나루터재첩식당,RIBBON_ONE,35.00717924203169,127.78699679181844,경상남도 하동군 고전면 재첩길 286 ,055-882-1370  
덕합반점,RIBBON_ONE,35.083507,128.086648,경상남도 사천시 사천읍 읍내1길 81 ,055-852-2165  
대성식당,RIBBON_ONE,35.517018,127.726176,경상남도 함양군 함양읍 용평6길 4 ,055-964-5400  
스위트랩,RIBBON_ONE,35.14116862882947,128.6712476165314,경상남도 창원시 진해구 속천로 73-1 ,055-547-8588  
한려곰장어,RIBBON_ONE,34.843103,128.431527,경상남도 통영시 정동4길 57 ,055-646-7633  
설봉돼지국밥,RIBBON_ONE,35.49556096426278,128.7494525258688,경상남도 밀양시 노상하3길 9 ,055-356-9555  
언양각식당,RIBBON_ONE,35.236114,128.687226,경상남도 창원시 의창구 용지로 253-1 ,055-266-8050  
진해제과,RIBBON_ONE,35.1482353456848,128.659238460867,경상남도 창원시 진해구 중원로 45 ,055-546-3131  
다시식당,RIBBON_ONE,35.31924258099379,128.2603468220629,경상남도 의령군 의령읍 의병로18길 6 ,055-573-2514  
재건냉면집,RIBBON_ONE,35.086619,128.086097,경상남도 사천시 사천읍 동성길 28 ,055-852-2132  
고바우식당,RIBBON_ONE,35.79114,128.087897,경상남도 합천군 가야면 치인1길 13-5 ,055-932-7311  
화성갈비,RIBBON_ONE,35.207767,128.576041,경상남도 창원시 마산합포구 오동서7길 36 ,055-246-9194  
밀양돼지국밥,RIBBON_ONE,35.498468,128.745744,경상남도 밀양시 북성로 28 ,055-354-9599  
원조강변할매재첩식당,RIBBON_ONE,35.007283,127.787028,경상남도 하동군 고전면 재첩길 286-1 ,055-882-1369  
달반늘,RIBBON_ONE,34.83280215127413,127.99196423404888,경상남도 남해군 삼동면 죽방로 99 ,055-867-2970  
굴향토집,RIBBON_ONE,34.860876,128.425707,경상남도 통영시 무전5길 37-41 ,055-645-4808  
수림복국,RIBBON_ONE,35.56309333360177,129.31132563001626,울산광역시 중구 종가6길 26 유성프라자 8층,052-224-0235  
함양집,RIBBON_ONE,35.539935,129.31423,울산광역시 남구 중앙로208번길 12 ,052-275-6947  
백만석,RIBBON_ONE,34.875152,128.626848,경상남도 거제시 계룡로 47 오형빌딩,055-638-3300  
갈비구락부,RIBBON_ONE,35.56057,129.117658,울산광역시 울주군 삼남면 남상평2길 34-12 ,052-264-4747  
도동산방,RIBBON_ONE,35.604137,129.096417,울산광역시 울주군 상북면 송락골길 133 ,052-254-7076  
양지바위횟집,RIBBON_ONE,34.941586,128.718625,경상남도 거제시 장목면 외포5길 28 ,055-635-4327  
수정식당,RIBBON_ONE,34.84062,128.421698,경상남도 통영시 항남5길 12-21 ,055-644-0396  
궁중삼계탕,RIBBON_ONE,35.554684,129.319874,울산광역시 중구 먹자거리 6 ,052-244-1156  
무주골,RIBBON_ONE,35.56297892259319,129.31071362635663,울산광역시 중구 종가6길 32 KL빌딩 6층,052-243-2842  
금강장어,RIBBON_ONE,35.570673,129.349518,울산광역시 중구 산전길 8-1 ,052-297-9205  
안의원조갈비집,RIBBON_ONE,35.6281448626734,127.811410719088,경상남도 함양군 안의면 광풍로 127-2 ,055-962-0666  
제일식당,RIBBON_ONE,35.1951084738721,128.084751615748,경상남도 진주시 중앙시장길 37-8 ,055-741-5591  
본여우&본정,RIBBON_ONE,35.544168,129.329771,울산광역시 남구 왕생로120번길 5 ,052-268-1164  
거제도굴구이,RIBBON_ONE,34.850112,128.585605,경상남도 거제시 거제면 거제남서로 3474 ,055-632-9272  
해사랑전복마을,RIBBON_ONE,34.707315,128.037128,경상남도 남해군 미조면 미송로 193 ,010-3358-3910  
우리식당,RIBBON_ONE,34.831605,128.000753,경상남도 남해군 삼동면 동부대로1876번길 7 ,055-867-0074  
임진각식당,RIBBON_ONE,35.26129939646334,128.6178576033322,경상남도 창원시 의창구 팔용로 515 ,055-256-3535  
터미널회식당,RIBBON_ONE,34.841001,128.421885,경상남도 통영시 동충4길 7 ,055-641-0711  
촌돼지보쌈,RIBBON_ONE,35.149951222604244,128.65647786557295,경상남도 창원시 진해구 충무로 50-2 ,055-542-4257  
한일김밥,RIBBON_ONE,34.843302,128.423317,경상남도 통영시 통영해안로 319 ,055-645-2647  
혜성식당,RIBBON_ONE,35.19237,127.624656,경상남도 하동군 화개면 화개로 48 ,055-883-2140  
고래고기원조할매집,RIBBON_ONE,35.501737,129.369561,울산광역시 남구 장생포고래로 135 ,052-261-7313  
오동동진짜초가집,RIBBON_ONE,35.206683,128.578271,경상남도 창원시 마산합포구 오동남3길 8-2 ,055-246-0427  
공원불고기,RIBBON_ONE,35.565202,129.125484,울산광역시 울주군 언양읍 헌양길 32 ,052-262-0421  
동백식당,RIBBON_ONE,35.1897149322196,127.623007231241,경상남도 하동군 화개면 화개로 13 ,055-883-2439  
문산제일염소불고기,RIBBON_ONE,35.16746,128.163221,경상남도 진주시 문산읍 월아산로 1082 ,055-761-7020  
울산다찌,RIBBON_ONE,34.832972,128.414505,경상남도 통영시 미수해안로 157 ,055-645-1350  
유정장어,RIBBON_ONE,35.190806,128.07976,경상남도 진주시 진주성로 2 ,055-746-9235  
진주육거리곰탕,RIBBON_ONE,35.185784,128.086289,경상남도 진주시 망경로 303 ,055-757-6969  
하연옥,RIBBON_ONE,35.193976,128.060696,경상남도 진주시 진주대로 1317-20 ,055-746-0525  
천화원,RIBBON_ONE,34.867141,128.73031,경상남도 거제시 신부로 2-4 ,055-681-2408  
백제령,RIBBON_ONE,35.2091962077771,128.574366313759,경상남도 창원시 마산합포구 3·15대로 385 ,055-248-8800  
불로식당,RIBBON_ONE,35.205322,128.576538,경상남도 창원시 마산합포구 남성로 137 ,055-246-6260  
이동우커피,RIBBON_ONE,35.174092,128.068647,경상남도 진주시 신평공원길 63-1 ,055-741-3652  
해원장횟집,RIBBON_ONE,35.04161,128.039986,경상남도 사천시 용현면 선진공원길 487 ,055-854-4433  
해원횟집,RIBBON_ONE,34.833589,128.410849,경상남도 통영시 미수해안로 125-5 마이웨이빌딩 2층,055-648-2580  
원조밀물식당,RIBBON_ONE,34.842083,128.423513,경상남도 통영시 중앙시장1길 8-42 ,055-643-2777  
유진횟집,RIBBON_ONE,34.941238,127.874782,경상남도 남해군 설천면 노량로183번길 14 ,055-862-4040  
효정밥상,RIBBON_ONE,35.49245173928852,129.30614419299621,울산광역시 울주군 청량읍 신덕하1길 9 ,052-227-4995  
오동동아구할매집,RIBBON_ONE,35.2060952071556,128.578347605662,경상남도 창원시 마산합포구 아구찜길 13 ,055-246-3075  
삼산이수,RIBBON_ONE,35.73912120370822,127.92479222065566,경상남도 거창군 거창읍 내학길 35-4 ,055-942-1844  
도남식당,RIBBON_ONE,34.827282309311435,128.43259532875427,경상남도 통영시 도남로 272 ,055-643-5888  
만복래숯불구이,RIBBON_ONE,35.709846,129.202463,울산광역시 울주군 두동면 두동로 1789 ,052-262-7255  
기와집숯불고기,RIBBON_ONE,35.712992,129.198184,울산광역시 울주군 두동면 계명1길 27 ,052-262-7288  
안압루,RIBBON_ONE,35.54537511839367,129.32387047709844,울산광역시 남구 월평로 171 ,052-258-0009  
수향,RIBBON_ONE,34.841325,128.422666,경상남도 통영시 항남3길 29 ,055-645-3052  
감로식당,RIBBON_ONE,35.791756,128.088458,경상남도 합천군 가야면 치인1길 8-1 ,055-932-7330  
옛날충무꼬지김밥,RIBBON_ONE,34.84169,128.419575,경상남도 통영시 새터길 53 ,055-641-8266  
동광식당,RIBBON_ONE,34.844898,128.425034,경상남도 통영시 통영해안로 343-1 ,055-644-1112  
가야미학,RIBBON_ONE,35.1705175269381,128.822455530131,경상남도 김해시 율하4로 46 n스퀘어 9층,055-321-9955  
몬스터로스터스,RIBBON_ONE,35.180326,128.563695,경상남도 창원시 마산합포구 월영동9길 14 ,070-8790-8980  
효진수산횟집,RIBBON_ONE,34.939494,128.717674,경상남도 거제시 장목면 외포5길 58 ,055-636-9006  
데미안,NOT,35.5557517017245,129.320649560873,울산광역시 중구 중앙길 130 1층,052-268-7515  
다다물회집,NOT,35.4186120364846,129.063178591978,경상남도 양산시 상북면 상북중앙로 397 ,055-374-3306  
플래닛1020,NOT,35.2094990252079,127.640752845963,경상남도 하동군 화개면 쌍계로 318 ,0507-1423-9545  
차군커피로스터스,NOT,35.4764926352065,128.765103790098,경상남도 밀양시 가곡11길 4 ,010-3378-6759  
그해창원,NOT,35.2230017613157,128.677106503449,경상남도 창원시 성산구 중앙대로83번길 13 삼일종합상가,010-7532-4962  
청학산,NOT,35.4863033240683,127.69508024178,경상남도 함양군 함양읍 함양로 619-6 ,055-962-4183  
통영해물가,NOT,34.8445687704171,128.428497600079,경상남도 통영시 통영해안로 377 ,055-641-4982  
손가,NOT,35.5559182589208,129.321873010743,울산광역시 중구 문화의거리 12 1층,052-244-5046  
224커피,NOT,35.1558052248973,128.609424662506,경상남도 창원시 성산구 삼귀로486번길 49 ,010-2775-0224  
인골산장,NOT,35.606933343616,128.894193262328,경상남도 밀양시 산내면 인곡길 150 ,055-353-6531  
씨맨스카페,NOT,34.9656430273888,128.043010920758,경상남도 사천시 해안관광로 381-5 ,055-832-8285  
단장면커피로스터스,NOT,35.52979429678,128.892736416305,경상남도 밀양시 단장면 표충로 679 ,010-9528-1517  
케빈커피로스터스,NOT,35.522876947902,127.722795317064,경상남도 함양군 함양읍 상림1길 26 ,055-964-0515  
금산골,NOT,35.1750614644809,128.148111482554,경상남도 진주시 충의로 20-22 ,055-753-6200  
성산명가,NOT,35.2191991091321,128.682615836653,경상남도 창원시 성산구 마디미로63번길 7 성산명가 2층,055-263-6618  
가포옛날영도집,NOT,35.1691617993167,128.57278277376,경상남도 창원시 마산합포구 가포해안길 37 ,055-246-9294  
호끼린커피로스터스,NOT,35.0999206658747,128.802180343881,경상남도 창원시 진해구 청안로 251 ,055-715-9532  
만당,NOT,35.5517266785325,129.300062089848,울산광역시 중구 태화강국가정원길 231-9 ,052-244-1337  
곱돌이,NOT,35.149195,128.658803,경상남도 창원시 진해구 중원서로 58 ,055-547-9792  
뱅해이네,NOT,35.1788738276068,128.10421582591,경상남도 진주시 동진로120번길 6-1 ,010-2632-3279  
공주식당,NOT,34.710712,128.047818,경상남도 남해군 미조면 미조로 230 ,055-867-6728  
심가네해물짬뽕,NOT,34.841524317771,128.42054993514,경상남도 통영시 새터길 74-4 ,055-649-8215  
동흥재첩국,NOT,35.064489,127.746793,경상남도 하동군 하동읍 경서대로 94 ,055-883-8333  
양식당오브,NOT,35.171849434882,128.066857513299,경상남도 진주시 신평공원길 33 1층  ,055-747-5394  
당케슈니첼,NOT,34.7971136080592,128.043353462764,경상남도 남해군 삼동면 독일로 27 ,070-8994-6613  
디앤유커피팩토리,NOT,35.5170034088586,129.307816852032,울산광역시 남구 남부순환도로626번길 8  2층,052-293-5565  
플러스33,NOT,35.2407549254859,128.68121965963,경상남도 창원시 성산구 외동반림로 270  ,010-4429-8115  
앵강마켓,NOT,34.771136304703,127.88742823603,경상남도 남해군 남면 남서대로 772 ,055-863-0772  
서호통술,NOT,35.187752,128.561011,경상남도 창원시 마산합포구 문화북1길 32 ,055-247-6673  
다이닝숲,NOT,35.3897993058408,129.046300532215,경상남도 양산시 상북면 충렬로 541 ,055-382-7774  
여여식당,NOT,35.064434,127.746593,경상남도 하동군 하동읍 경서대로 92 ,055-884-0080  
브라바스,NOT,35.2566260149864,128.624998278346,경상남도 창원시 의창구 중동중앙로 47 어반브릭스 스트리트몰 1003호,055-292-1030  
법향다원,NOT,35.1974896365586,127.627693464273,경상남도 하동군 화개면 화개로 113 ,0507-1407-2609  
원조시락국,NOT,34.840743,128.418329,경상남도 통영시 새터길 12-10 ,055-646-5973  
진남식육식당,NOT,35.132283,127.976491,경상남도 사천시 곤명면 완사1길 33-11 ,055-853-2120  
향옥정,NOT,35.2226612016782,128.928527776166,경상남도 김해시 김해대로 2787-19 ,055-336-6283  
죽림산방,NOT,35.391038,129.068101,경상남도 양산시 상북면 대석2길 13 ,055-374-3392  
동굴집,NOT,35.169263,128.572479,경상남도 창원시 마산합포구 가포해안길 35 ,055-221-0668  
가야농원,NOT,35.3519574152186,128.850465535465,경상남도 김해시 생림면 마사로 89 ,055-337-7226  
미미옥(울산점),NOT,35.5846244686024,129.345933620638,울산광역시 중구 동천1길 40 세영이노세븐 C동 160호,052-708-0818  
북경장,NOT,35.191205,128.084106,경상남도 진주시 남강로 661 ,055-741-2757  
늘비식당,NOT,35.492353,127.835069,경상남도 산청군 생초면 산수로 1030-18 ,055-972-1903  
조샌집,NOT,35.519534,127.724693,경상남도 함양군 함양읍 학사루길 36 ,055-963-9860  
하동복집,NOT,35.1940730755118,128.085514331129,경상남도 진주시 진양호로 553 ,055-741-1410  
진주헛제사밥,NOT,35.182884,128.155881,경상남도 진주시 금산면 월아산로 1296-6 ,055-761-7334  
차일품,NOT,35.5385327972547,129.345257892967,울산광역시 남구 삼산로352번길 14 ,052-227-1571  
빠리지엔느,NOT,35.173868,128.068537,경상남도 진주시 신평공원길 61-1 ,055-747-7722  
김해횟집,NOT,35.092426,128.819084,경상남도 창원시 진해구 용원동로 213-1 ,055-552-2123  
제일횟집,NOT,34.941053,127.874328,경상남도 남해군 설천면 노량로183번길 10 ,055-862-2484  
강성횟집,NOT,34.831559,128.714876,경상남도 거제시 일운면 지세포해안로 204 ,055-681-6289  
남일횟집,NOT,35.559721,129.457546,울산광역시 동구 주전해안길 107 ,052-251-6001  
뺑드깜빠뉴,NOT,35.533551153993116,129.2976550418401,울산광역시 남구 문수로 406 1층,052-265-0445  
의령화정소바국수,NOT,35.31890853980689,128.2605747590698,경상남도 의령군 의령읍 의병로18길 9-3 ,055-573-4193  
밀양할매메기탕,NOT,35.507339,128.777009,경상남도 밀양시 용평로 438 ,055-356-6664  
의령망개떡,NOT,35.31934,128.260544,경상남도 의령군 의령읍 의병로18길 3-4 ,055-573-2422  
강변매운탕,NOT,35.232715,128.991269,경상남도 김해시 대동면 동남로1번길 22 ,055-323-0292  
도도플레이트,NOT,35.1765978304649,128.807540189871,경상남도 김해시 율하카페길 13 ,055-311-6062  
스시타로,NOT,35.25437248968075,128.62015462840264,경상남도 창원시 의창구 남산로 109-1 A빌딩 1층,055-255-5567  
한일뒷고기,NOT,35.257320263933,128.867169572905,경상남도 김해시 삼계로1번길 4-18 ,055-331-5432  
삼일뒷고기,NOT,35.2281561473707,128.871557937536,경상남도 김해시 전하로 277 ,055-334-4138  
창원삼거리식당(중동본점),NOT,35.2574559282907,128.623838869746,경상남도 창원시 의창구 평산로171번길 2 ,055-288-8997  
반달집,NOT,35.205233,128.575745,경상남도 창원시 마산합포구 반월남2길 20 ,055-223-5014  
원조대구막창1번지,NOT,35.5693947377572,129.343835317711,울산광역시 중구 곽남1길 35 ,052-297-5856  
울산돼지국밥,NOT,35.536475,129.335203,울산광역시 남구 달삼로 55 ,052-273-1195  
동부식육식당,NOT,35.469525682618865,128.6511188291295,경상남도 밀양시 무안면 무안중앙길 5 ,055-352-0023  
단골집,NOT,35.493528,128.753463,경상남도 밀양시 상설시장3길 18-16 ,055-354-7980  
남도돼지국밥,NOT,35.557645,129.255871,울산광역시 울주군 범서읍 장검길 9-9 ,052-277-3312  
제일식육식당,NOT,35.470271,128.651463,경상남도 밀양시 무안면 동부1길 7-4 ,055-353-2252  
도쿄참치,NOT,35.541161,129.348584,울산광역시 남구 남중로74번길 5 ,052-903-8008  
외도널서리,NOT,34.8067178557759,128.693401363008,경상남도 거제시 일운면 구조라로4길 21 ,055-682-4541  
제1능이버섯삼산점,NOT,35.5437862980272,129.352074277712,울산광역시 남구 남중로108번길 33 ,052-260-1140  
충남식당,NOT,34.8862580868084,128.623654543878,경상남도 거제시 거제중앙로 1883-2 고현종합시장,055-632-1332  
토담실비,NOT,34.859589,128.426527,경상남도 통영시 무전8길 14-12 주영에이스빌 3차 상가 1층,055-646-1617  
양지통술,NOT,35.188981,128.56161,경상남도 창원시 마산합포구 문화북1길 2-1 ,055-222-3707  
대구식당,NOT,35.24208374914679,128.42287909756718,경상남도 함안군 함안면 북촌2길 50-27 ,055-583-4026  
대동할매국수,NOT,35.23688,128.993889,경상남도 김해시 대동면 동남로45번길 8 ,055-335-6439  
라스페란자,NOT,35.2286912789379,128.679710134939,경상남도 창원시 성산구 원이대로589번길 12 ,055-282-4114  
원조집,NOT,35.552405,129.272909,울산광역시 남구 남산로 20 ,052-277-1453  
원조옛날곰탕,NOT,35.563151,129.125921,울산광역시 울주군 언양읍 장터2길 11-5 ,052-262-5752  
고려당,NOT,35.206021,128.575427,경상남도 창원시 마산합포구 동서북10길 68 ,055-243-0011  
거북선꿀빵,NOT,0.0,0.0,경상남도 통영시 통영해안로 351 ,055-649-9490  
더하우스갑을,NOT,35.1846814721252,128.073975848454,경상남도 진주시 남강로 519 ,055-742-9292  
도리원,NOT,35.446173,128.538955,경상남도 창녕군 영산면 온천로 103-25 ,055-521-6116  
베테랑바베큐,NOT,35.349762,129.329171,울산광역시 울주군 서생면 해맞이로 924 ,052-239-5515  
플래닛커피산청점,NOT,35.46419674410944,127.79610360873674,경상남도 산청군 금서면 경호로 27 ,010-2930-0251  
하우요커피,NOT,35.1542340554273,128.610607380089,경상남도 창원시 성산구 삼귀로 524-6 ,055-264-2327  
헤이메르,NOT,35.3683728554488,129.348636093127,울산광역시 울주군 서생면 잿골길 72 ,052-238-0333  
일신식당,NOT,35.49232,127.836079,경상남도 산청군 생초면 산수로 1022-1 ,055-972-2175  
항만식당해물뚝배기,NOT,34.865787,128.730636,경상남도 거제시 장승포로7길 8 ,055-682-4369  
브런치팩토리,NOT,35.222833,128.682596,경상남도 창원시 성산구 마디미서로 26 한독빌딩 103호,070-8868-6233  
런던티,NOT,35.530406074275994,129.2958765959802,울산광역시 남구 대공원로115번길 10 동덕상가 5호,052-268-4542  
산양식당,NOT,34.844079,128.423445,경상남도 통영시 강구안길 29 해피하우스,055-645-2152  
종점숯불구이,NOT,35.715243,129.201104,울산광역시 울주군 두동면 계명로 120 ,052-262-7279  
야소주반,NOT,34.8064207404621,128.399980320749,경상남도 통영시 산양읍 금평길 42-23 ,010-8986-8680  
봉계전통숯불구이,NOT,35.713599,129.199828,울산광역시 울주군 두동면 두동로 1838 ,052-262-9088  
고려갈비,NOT,35.151019,128.660497,경상남도 창원시 진해구 중원로80번길 6 ,055-546-3631  
코아양과,NOT,35.206801,128.576765,경상남도 창원시 마산합포구 불종거리로 28 ,055-243-1331  
종로식당,NOT,35.320228,128.261571,경상남도 의령군 의령읍 충익로 47-6 ,055-573-2785  
수정식당,NOT,35.320287,128.262968,경상남도 의령군 의령읍 의병로23길 6 ,055-573-2465  
동문설렁탕,NOT,35.22024,128.582701,경상남도 창원시 마산합포구 용마로 82 ,055-241-7001  
원조판문점,NOT,35.232592,128.690833,경상남도 창원시 의창구 상남로 240 ,055-287-5514  
유통불고기,NOT,35.713997,129.199117,울산광역시 울주군 두동면 계명로 96 ,052-262-7477  
라쌍떼,NOT,35.2505176390774,128.577845240707,경상남도 창원시 마산회원구 제2금강산길 135 ,055-255-4588  
통영식당,NOT,34.840794,128.419419,경상남도 통영시 통영해안로 213 ,055-647-0188  
나마스까르,NOT,35.553394,129.31883,울산광역시 중구 젊음의거리 40-3 ,070-8832-5585  
할매함흥냉면,NOT,34.867761,128.730194,경상남도 거제시 신부로1길 2-1 ,055-681-2226  
행랑채,NOT,35.512443,128.841384,경상남도 밀양시 산외면 산외로 731 ,055-352-8927  
키친루셀로,NOT,34.8167854776271,128.673273433785,경상남도 거제시 일운면 거제대로 1861 ,055-681-2031  
삼성식당,NOT,35.792063,128.087039,경상남도 합천군 가야면 치인1길 24-3 ,055-932-7276  
호동식당,NOT,34.8416103281049,128.419297170985,경상남도 통영시 새터길 47 ,055-645-3138  
한산섬식당,NOT,34.843239,128.431237,경상남도 통영시 정동4길 58 ,055-642-8330  
미진과자점,NOT,35.151815090165,128.66605694706,경상남도 창원시 진해구 충장로130번길 4 ,055-545-3133  
가남보리밥전문식당,NOT,35.709341,128.015732,경상남도 거창군 가조면 지산로 1485 ,055-942-3103  
백년찻집(창원점),NOT,35.270135,128.646247,경상남도 창원시 의창구 동읍 의창대로491번길 5 ,055-294-8248  
삼천포원조물회,NOT,35.079444,128.093021,경상남도 사천시 사천읍 옥산로 89 ,055-852-2800  
대일함흥냉면,NOT,35.553689,129.291589,울산광역시 중구 명정4길 13 ,052-249-5836  
프랑스베이커리,NOT,35.219156,128.703524,경상남도 창원시 성산구 창이대로 737 사파동성아파트,055-263-5371  
카페은린,NOT,35.5803216893774,129.451197096196,울산광역시 북구 아름1길 11 ,052-911-1020  
풍화김밥,NOT,34.840604926895786,128.42142629603524,경상남도 통영시 통영해안로 231-3 ,055-644-1990  
뚱보할매김밥집,NOT,34.843854,128.423696,경상남도 통영시 통영해안로 325 ,055-645-2619  
남성식당,NOT,35.204972,128.579276,경상남도 창원시 마산합포구 오동동10길 3 ,055-246-1856  
풍년복집,NOT,34.928506,128.069668,경상남도 사천시 수남길 82 ,055-832-8909  
경기식당,NOT,35.49341062256603,129.0814305475648,경상남도 양산시 하북면 신평강변로 86 ,055-382-7772  
나고야일식,NOT,35.502841,129.428816,울산광역시 동구 방어진순환도로 683 ,052-233-6009  
설송,NOT,35.189158,127.622664,경상남도 하동군 화개면 화개로 6-1 ,055-883-1866  
수복빵집,NOT,35.1965938328424,128.083763291625,경상남도 진주시 촉석로201번길 12-1 ,055-741-0520  
푸름각,NOT,35.150033,128.659301,경상남도 창원시 진해구 백구로 58-1 ,055-546-5557  
원해루,NOT,35.14868,128.658841,경상남도 창원시 진해구 중원서로 52 ,055-546-9797  
만성복집,NOT,34.839666,128.420475,경상남도 통영시 새터길 12-13 ,055-645-2140  
남옥식당,NOT,34.841074,128.420491,경상남도 통영시 통영해안로 221 ,055-643-2551  
터미날식당,NOT,35.546913,129.307779,울산광역시 남구 봉월로 164 ,052-275-8808  
수금재,NOT,35.223849,128.685018,경상남도 창원시 성산구 마디미로4번길 5 ,055-286-4008  
삼다도전복죽,NOT,34.9263174233483,128.075154824097,경상남도 사천시 팔포3길 2 ,055-833-1566  
호포옛날할매집,NOT,35.284813,129.014428,경상남도 양산시 동면 호포로 50 ,055-384-3357  
바자라,NOT,35.2515923748461,128.996218551237,경상남도 김해시 대동면 동남로209번길 26 ,010-6466-4046  
제일소바,NOT,35.3195499845436,128.260884366104,경상남도 의령군 의령읍 의병로 222 ,055-572-3863  
의령소바,NOT,35.319184,128.260805,경상남도 의령군 의령읍 의병로18길 3-5 ,055-572-0885  
리묘,NOT,34.8391868224981,128.50716785293565,경상남도 거제시 둔덕면 하둔길 49 ,055-634-1811  
브레드앤버터크로아상,NOT,35.5465114976441,129.311709079169,울산광역시 남구 중앙로284번길 14 ,052-272-7855  
원조손두부,NOT,35.4936508033281,129.069284171526,경상남도 양산시 하북면 평산마을1길 22 ,055-382-8571  
세비로,NOT,35.5370398407719,129.329785430959,울산광역시 남구 왕생로45번길 17 ,052-227-2019  
드베이지,NOT,34.93348339677413,128.05154601190287,경상남도 사천시 사천대로 26 ,055-833-0300  
언양한우불고기,NOT,35.5648156219123,129.121786254894,울산광역시 울주군 언양읍 헌양길 87-3 ,052-262-0376  
울산언양불고기,NOT,35.5463056024436,129.327388782432,울산광역시 남구 월평로 205 ,052-267-2645  
진미불고기,NOT,35.566797,129.125072,울산광역시 울주군 언양읍 동문길 47 ,052-262-5550  
언양불고기,NOT,35.57003,129.120288,울산광역시 울주군 언양읍 읍성로 104 ,052-263-5300  
원조우정식당,NOT,35.492882,127.836507,경상남도 산청군 생초면 생초로 25-6 ,055-972-2259  
달카페,NOT,35.218966,128.924849,경상남도 김해시 식만로 354-41 ,055-324-5514  
항남뚝배기,NOT,34.861691,128.425137,경상남도 통영시 무전3길 32 ,055-643-4988  
해도지랜드,NOT,35.106428,128.789439,경상남도 창원시 진해구 청안로 100 ,055-551-0122  
둥지식당,NOT,35.2394120709179,128.582100746798,경상남도 창원시 마산회원구 합성서1길 53 ,055-297-2962  
한정식아리랑,NOT,35.180134,128.072222,경상남도 진주시 남강로471번길 5 ,055-748-4556  
엄지식육식당,NOT,35.55338281824518,129.33324453039165,울산광역시 중구 옥교3길 119 ,052-297-1351  
신라가든,NOT,35.2954587777356,128.762805026045,경상남도 김해시 진영읍 진영로 464 ,055-342-5354  
오미사꿀빵,NOT,34.842638,128.420318,경상남도 통영시 충렬로 14-18 ,055-645-3230  
오사카멘치,NOT,35.5402361555976,129.333005064926,울산광역시 남구 왕생로72번길 19 ,052-963-4164  
라피콜라이탈리아,ATTENTION,35.5361273272657,129.335466461812,울산광역시 남구 달삼로 58 2층 ,0507-1400-2825  
표식,NEW,35.5384804761965,129.329966124898,울산광역시 남구 삼산로211번길 3 ,0507-1433-1578  
셔셔,NEW,35.543463111897,129.338078334755,울산광역시 남구 삼산중로114번길 22 1층,052-911-3024
묵리459(울산점),NEW,35.6557963627687,129.194130062768,울산광역시 울주군 두동면 인보구미로 324-13 ,
솔방구리삼겹살(증산점),NOT_RECORD,35.3115184349931,129.007045527778,경상남도 양산시 물금읍 야리로 106 MG프라자 1층(새마을금고 건물),055-383-2377
카페솔레아,NOT_RECORD,35.3231764336301,128.994880976878,경상남도 양산시 물금읍 가촌서2길 9 ,055-781-2077
협정,NOT_RECORD,35.5746329465236,129.316762273371,울산광역시 중구 성안6길 8 ,010-2751-8969
조니오븐,NOT_RECORD,35.2291033348957,128.68075381858,경상남도 창원시 성산구 용지로153번길 6 동양빌딩 2층 조니오븐,055-298-5504
압구정한우국밥,NOT_RECORD,35.5362542276123,129.336548154207,울산광역시 남구 달삼로 66 ,052-260-4014
폴앤루이스,NOT_RECORD,35.2170197946599,128.5821250674,경상남도 창원시 마산합포구 산호남로 21 ,055-224-5554
겐쇼심야라멘,NOT_RECORD,35.1584906105941,128.686522947724,경상남도 창원시 진해구 진해대로 648 아이망한의원 1층 ,055-546-6655
서리단,NOT_RECORD,35.3105298169509,128.985922251927,경상남도 양산시 물금읍 화산길 10 서리단,0507-1462-229
야키토리준,NOT_RECORD,35.1684716902803,128.062089991002,경상남도 진주시 새들말로68번길 9-10 왼쪽 회색문,010-7192-2303
마이블루발렌타인,NOT_RECORD,34.8916165828093,128.615398678147,경상남도 거제시 장평1로1길 17 태훈오피스텔 1층,055-636-0703
어방동스시,NOT_RECORD,35.2451891618766,128.90590678436,경상남도 김해시 인제로188번길 18 ,055-339-2008
안민김해,NOT_RECORD,35.2274837823871,128.84487797375,경상남도 김해시 주촌면 천곡로 159 2층,055-321-8486
자란들,NOT_RECORD,34.940122662188,128.298174078267,경상남도 고성군 삼산면 병산3길 81-4 ,010-3125-2658
225토마토스트릿(태화점),NOT_RECORD,35.5499672104827,129.295655437701,울산광역시 중구 신기1길 59 1층,052-244-0225
사이먼스테이크,NOT_RECORD,35.5389231633275,129.338750272732,울산광역시 남구 삼산로 288 롯데백화점 8층,052-269-3883
만푸푸네르,NOT_RECORD,35.1692617565668,128.60006880912,경상남도 창원시 성산구 삼귀로 193-6 만푸푸네르,055-719-0500
도원,NOT_RECORD,35.5021775517303,129.429849271012,울산광역시 동구 고늘로 6 대영빌딩1층,052-201-0005
스시미즈기와(우정혁신도시점),NOT_RECORD,35.5594212470866,129.293716529084,울산광역시 중구 종가2길 48 1층,052-245-1959
목요일오후네시,NOT_RECORD,35.1878769566458,128.090014027778,경상남도 진주시 강남로247번길 6-1 ,010-2709-0221
대섬횟집,NOT_RECORD,35.1150586536928,128.700450576328,경상남도 창원시 진해구 행암로 229 ,055-551-4221
덕클,NOT_RECORD,35.5505318719969,129.29617288569,울산광역시 중구 신기4길 18 1층 ,0507-1348-4794
명성가,NOT_RECORD,35.3087629318716,128.984467366359,경상남도 양산시 물금읍 물금역1길 20 명성가(1층 단층 전층사용),055-785-3131
안민진해,NOT_RECORD,35.1515705834896,128.702150232993,경상남도 창원시 진해구 동진로 64 2층,055-547-4277
베이커스바오밥,NOT_RECORD,35.63927632455,129.288088540347,울산광역시 울주군 범서읍 관문로 656 ,1551-8088
모든식당,NOT_RECORD,35.7106503473415,128.01570151894,경상남도 거창군 가조면 마상3길 7 ,055-942-0014
갈매기대도,NOT_RECORD,35.22785786646,128.88656510452,경상남도 김해시 김해대로2371번길 12-12 갈매기대도,055-336-1218
한우육회비빔밥자연밥상,NOT_RECORD,35.2623529069291,128.87368628209,경상남도 김해시 가야로181번길 17-17 ,055-313-0031
필립,NOT_RECORD,35.2091522294227,128.109999083582,경상남도 진주시 초전북로39번길 5-28 청담채,055-761-0075
가음막창,NOT_RECORD,35.3592085630983,129.042351667839,경상남도 양산시 북정로 17 ,055-785-2626
버터앤컵,NOT_RECORD,34.8951432248789,128.625607944893,경상남도 거제시 중곡1로 38 ,010-8287-8229
미주뚝배기,NOT_RECORD,34.840838,128.421052,경상남도 통영시 통영해안로 227-2 ,055-642-0742
착한 물고기,NOT_RECORD,35.535733228762,129.336650770881,울산광역시 남구 삼산중로 24 ,0507-1313-3839
산들바람,NOT_RECORD,35.4929114985809,129.081216252263,경상남도 양산시 하북면 신평강변로 82 ,055-912-2222
가랑잎새,NOT_RECORD,35.6108365247104,129.077789751138,울산광역시 울주군 상북면 우만길 27-19 ,052-264-3720
우두골,NOT_RECORD,35.1500845489319,128.696046624457,경상남도 창원시 진해구 이동로38번길 11 ,055-545-1363
산야초한방백숙,NOT_RECORD,35.305102296963,128.735904637894,경상남도 김해시 진영읍 여래로19번길 17 ,055-342-5558
왕콩수제두부전문점,NOT_RECORD,35.5737563837892,129.315019152478,울산광역시 중구 성안로 145 ,052-211-6888
위시본삼계탕,NOT_RECORD,35.312728314378,128.986928980012,경상남도 양산시 물금읍 학산1길 16-12 ,055-382-9001
청마루 대구뽈찜,NOT_RECORD,34.8943888242657,128.661325160917,경상남도 거제시 수양1길 151 ,055-632-2886
초정가든 ,NOT_RECORD,34.8789647770607,128.656267405196,경상남도 거제시 수월1길 30-10 ,055-632-4484
호박오리샤브샤브,NOT_RECORD,35.1692810686751,128.131534684315,경상남도 진주시 범골로54번길 7 주신빌딩 3층,055-759-5252
활천삼계탕,NOT_RECORD,35.2344241896084,128.890651329999,경상남도 김해시 분성로 410 ,055-324-0909
동심,NOT_RECORD,35.4928398827749,129.081470803273,경상남도 양산시 하북면 신평강변로 78 ,055-382-2535
도토리친구,NOT_RECORD,34.8924170955268,128.62580701812,경상남도 거제시 중곡로1길 45 ,055-632-7989
전복국수,NOT_RECORD,35.2024062486549,128.565089960396,경상남도 창원시 마산합포구 자산남로 26 ,055-245-3090
우리집가든,NOT_RECORD,35.0984957289333,128.098839877007,경상남도 사천시 축동면 두량로 99-4 ,055-854-4020
화랑갈비,NOT_RECORD,34.8368574943909,127.895216803374,경상남도 남해군 남해읍 화전로38번길 21-1 ,055-864-2360
적사부,NOT_RECORD,35.5671049839985,128.160328779692,경상남도 합천군 합천읍 동서로 74 ,055-931-5033
오월,NOT_RECORD,34.827113495811,128.420035363005,경상남도 통영시 데메3길 64-12 2층, 010-3005-441
성산옥,NOT_RECORD,35.2197352064867,128.680484502685,경상남도 창원시 성산구 마디미로70번길 14 ,055-263-2385
룡소,NOT_RECORD,34.8743211672184,128.689748628979,경상남도 거제시 용소3길 6 ,0507-1315-0974
uuuu,NOT_RECORD,35.6136694479666,129.450618933715,울산광역시 북구 동해안로 1414 uuuu,052-297-0019
달콤비니하우스,NOT_RECORD,35.2122894607674,128.710246047596,경상남도 창원시 성산구 대암로 151 ,055-266-3375
로얄경양식&스테이크,NOT_RECORD,35.3094783092061,128.984788819542,경상남도 양산시 물금읍 물금중앙길 17 ,055-372-2042
라이온식당,NOT_RECORD,35.3100584244077,128.984517377767,경상남도 양산시 물금읍 화산길 23 ,055-363-3040
디저트카페이토,NOT_RECORD,35.3382167853439,129.015174699989,경상남도 양산시 물금읍 신주6길 8 갤러리하우스 1층,010-5097-9089
플레이볼인통영,NOT_RECORD,34.8339634459184,128.40887644564,경상남도 통영시 미수해안로 104 1층,0507-1486-3344
일상다반사갈비집,NOT_RECORD,35.1516657536145,128.660958023235,경상남도 창원시 진해구 중원로86번길 10 ,055-546-2592
윗하우스,NOT_RECORD,35.2420726385959,128.6871149249,경상남도 창원시 의창구 퇴촌로9번길 6-12 1층,010-2804-9247
용호정,NOT_RECORD,35.2378936849077,128.684923377665,경상남도 창원시 성산구 창이대로464번길 11 1층,070-4351-1118
피케,NOT_RECORD,35.2560299920734,128.635788078709,경상남도 창원시 의창구 도계로4번길 46 성문빌딩 102호 일부,010-4762-0930
프레클앤코,NOT_RECORD,35.2380730960841,128.684478256886,경상남도 창원시 성산구 창이대로460번길 11 ,010-5428-2048
박말순레스토랑,NOT_RECORD,35.2631229344939,128.62266831399,경상남도 창원시 의창구 읍성로34번길 17-8 박말순 레스토랑,055-298-5502
미지,NOT_RECORD,35.5453350180899,129.328762993806,울산광역시 남구 왕생로 136-1 동영원룸,010-2439-3106
오우가,NOT_RECORD,35.2637062771407,128.622770489344,경상남도 창원시 의창구 의안로17번길 12 오우가,070-7720-1130
벅수다찌,NOT_RECORD,34.8409040729642,128.423753182503,경상남도 통영시 동충2길 41-5 ,055-641-4684
하츠키,NOT_RECORD,35.22694370239,128.883418031963,"경상남도 김해시 김해대로 2349 부원역그린코아더센텀  1층 131,132호",0507-1341-2930
시로쿠마,NOT_RECORD,35.3287973721611,129.009968198122,경상남도 양산시 물금읍 화합4길 11-5 1층,055-365-0790
파평옥,NOT_RECORD,34.8663479121827,128.689173334165,경상남도 거제시 아주1로 31 루미에르 1층,055-681-3657
원조3대충무할매김밥,NOT_RECORD,34.84398,128.423644,경상남도 통영시 통영해안로 327 ,055-645-9977
본고깃집,NOT_RECORD,35.646607697984,129.35679845926,울산광역시 북구 신기13길 18 본고깃집,052-294-0027
금산산장,NOT_RECORD,34.7515830721386,127.980677714889,경상남도 남해군 상주면 보리암로 691 ,055-862-6060
미드나잇버거,NOT_RECORD,35.1464063497858,128.659944813091,경상남도 창원시 진해구 태평로7번길 3 미래골든빌 1층 미드나잇버거,055-543-9792
명화식당 ,NOT_RECORD,34.8218985993036,128.608464997373,경상남도 거제시 동부면 동부로 13 명화식당,055-633-2985
이태리회관,NOT_RECORD,34.8316632035698,128.002867762932,경상남도 남해군 삼동면 동부대로1876번다길 7 1층 이태리회관,010-4234-2307
옥천식당 ,NOT_RECORD,35.0867278855272,128.262911239664,경상남도 고성군 개천면 연화산1로 544 ,055-672-0081
지산식당,NOT_RECORD,34.710399358127,128.047976055649,경상남도 남해군 미조면 미조로 228 지산식당,055-867-7754
카페유자,NOT_RECORD,34.8193534482731,128.036354840851,경상남도 남해군 삼동면 동부대로 1423 , 055-867-5201
송화관,NOT_RECORD,35.043693,128.065746,경상남도 사천시 용현면 사천대로 1389 ,055-854-8118
복흥반점,NOT_RECORD,35.566808,128.161553,경상남도 합천군 합천읍 동서로 84 ,055-931-2204
오리엔탈무거면옥,NOT_RECORD,35.5385169768322,129.336026888951,울산광역시 남구 삼산로266번길 4-1 ,070-4647-1034
통큰삼겹(증산점),NOT_RECORD,35.3153641971124,128.990406923586,경상남도 양산시 물금읍 가촌로 30-21 1층 통큰삼겹증산점,055-388-1888
통큰삼겹,NOT_RECORD,35.3142032121229,129.024651659459,경상남도 양산시 동면 금오12길 10 1층 통큰삼겹,055-362-9788
송기원진주냉면,NOT_RECORD,35.1819544645506,128.10301972697,경상남도 진주시 모덕로47번길 1-2 송기원 진주냉면 본점,055-758-2210
가마메시야송빈,NOT_RECORD,35.539830774131,129.332795323911,울산광역시 남구 왕생로66번길 15 청와빌딩,010-9798-4164
녹음,NOT_RECORD,35.5796921592416,129.32040712194,울산광역시 중구 성안12길 5 ,010-8713-8233
미몽,NOT_RECORD,35.337860152939,129.014983064663,경상남도 양산시 물금읍 신주3길 15-18 101호,055-913-1770
윤우나기,NOT_RECORD,35.5304859680361,129.30647036557,울산광역시 남구 대공원로 231-3 ,070-4647-0674
도야지마을,NOT_RECORD,34.8328959320185,128.41249772858,경상남도 통영시 운하1길 46 대영유토피아 상가109호,055-649-2026
펄디스트릭,NOT_RECORD,35.1886150838797,128.114887333522,경상남도 진주시 선학산길 105 ,055-752-7078
끌레르,NOT_RECORD,35.539543710466,129.333120489565,울산광역시 남구 왕생로66번길 20 ,010-9557-8935
뜨라또리아다젠나,NOT_RECORD,35.2369516576458,128.581863251171,경상남도 창원시 마산회원구 3·15대로 728 마산요리학원 1층,055-256-5545
도도플레이트(김해점),NOT_RECORD,35.2266595270154,128.876086987752,경상남도 김해시 봉황대길 8 ,055-724-4400
바당돌담,NOT_RECORD,35.0915146073541,128.578749179519,경상남도 창원시 마산합포구 구산면 해양관광로 1363 ,055-242-0208
온리육,NOT_RECORD,35.5373679010438,129.335610805246,울산광역시 남구 삼산중로 43 ,052-260-0526
바다로움,NOT_RECORD,35.0940072130407,128.450817864742,경상남도 창원시 마산합포구 진전면 회진로 1593 ,010-8966-8878
진영도원갈비,NOT_RECORD,35.3085852082965,128.735411767472,경상남도 김해시 진영읍 장등로 26 ,055-345-9278
남포통닭,NOT_RECORD,35.2329283221103,128.850709238746,경상남도 김해시 평전로 2 ,055-337-4226
창동복희집,NOT_RECORD,35.2059799762239,128.57557049158,경상남도 창원시 마산합포구 동서북14길 21-1 ,055-244-1157
보다,NOT_RECORD,35.2586851194388,128.636005155675,경상남도 창원시 의창구 원이대로55번길 21-7 형제시티빌라 1층,010-9342-0966
마망구떼,NOT_RECORD,35.1832960418093,128.095464011603,경상남도 진주시 강남로 169 1층,055-748-0001
초원돼지갈비,NOT_RECORD,35.5535189236161,129.319439559442,울산광역시 중구 젊음의1거리 15 1층,052-243-5419
갈매기대도(남산점),NOT_RECORD,35.2299046066211,128.888375401942,경상남도 김해시 호계로438번길 31-1 ,010-3166-0195
미지인,NOT_RECORD,35.2066952528693,128.075706078028,경상남도 진주시 진주성로178번길 8-24 ,055-745-7760
영빈관,NOT_RECORD,34.8270632104261,128.432517973776,경상남도 통영시 도남로 274 ,055-646-8028
명동갈비탕,NOT_RECORD,35.2565473491513,128.60730897919,경상남도 창원시 의창구 의창대로62번길 2 동영오피스 2층,055-256-2822
지저트,NOT_RECORD,34.8250809094299,128.415623137618,경상남도 통영시 봉수로 69-1 광우맨션 103호,010-3287-2689
이츠카츠,NOT_RECORD,35.2379113352801,128.583809611684,경상남도 창원시 마산회원구 합성남로 12 2층,010-7671-0166
바래온,NOT_RECORD,34.8215252471671,127.889000699507,경상남도 남해군 남해읍 스포츠로 173-9 ,055-864-4664
토리이에,NOT_RECORD,35.1427920745114,128.707665589725,경상남도 창원시 진해구 진해대로975번길 5-1 ,0507-1336-4936
모도(본점),NOT_RECORD,35.2075181611476,128.580738086427,경상남도 창원시 마산합포구 합포로 97-1 모도,010-4998-7215
겉바속촉압력솥통닭,NOT_RECORD,35.1556967961111,128.704665730862,경상남도 창원시 진해구 석동로 55 1층,010-2771-0778
겉바속촉압력솥통닭(신촌점),NOT_RECORD,35.2027407382353,128.628104978748,경상남도 창원시 성산구 신촌로 78 ,0507-1345-4590
겉바속촉압력솥통닭(평거점),NOT_RECORD,35.1738634691526,128.060177677554,경상남도 진주시 진양호로 221 진주평거우방아이유쉘스카이팰리스 1층 112호,0507-1420-7840
겉바속촉압력솥통닭(마산회원점),NOT_RECORD,35.2210522086887,128.571088461879,경상남도 창원시 마산회원구 북성로 156 코렉스자전거 1층,055-243-2021
겉바속촉압력솥통닭,NOT_RECORD,35.1757253601221,128.092323292991,경상남도 진주시 진주대로 841 ,0504-2015-5440
밋앤베지,NOT_RECORD,35.330113779007,129.00860183447,경상남도 양산시 물금읍 화합3길 10-7 ,055-372-5723
은교,NOT_RECORD,35.2285032259617,128.876321973794,경상남도 김해시 김해대로2283번길 28 ,010-2926-3569
호호하우스,NOT_RECORD,35.2584865517854,128.634747272343,경상남도 창원시 의창구 도계로8번길 9-22 호호하우스,070-4833-1670
삼대부대찌개,NOT_RECORD,35.2334628811405,128.903023554574,경상남도 김해시 김해대로2529번길 56 ,055-321-7988
센라멘,NOT_RECORD,35.1784842727639,128.137849572254,경상남도 진주시 에나로77번길 14 이노드림시티 1층 106호,010-8888-8177
브레드웜(창원점),NOT_RECORD,35.2363861889432,128.685507979376,경상남도 창원시 성산구 용지로245번길 16-1 ,055-262-7957
브레드웜(진영점),NOT_RECORD,35.3125136428044,128.733092387776,경상남도 김해시 진영읍 장등로 90 ,055-343-7957
박만석돼지곰탕,NOT_RECORD,35.3305778698348,129.000223766199,경상남도 양산시 물금읍 목화4길 1 ,010-4134-1732
노아,NOT_RECORD,35.5420476579539,129.337905597097,울산광역시 남구 삼산중로100번길 22 삼산스컹크웍스 4층,010-9196-2038
프리고,NOT_RECORD,35.2377905880778,128.584021686775,경상남도 창원시 마산회원구 합성남로 14 ,055-299-8147
멜유,NOT_RECORD,34.9672043783605,128.704712634239,경상남도 거제시 장목면 복항길 18 ,010-2403-0852
우기네,NOT_RECORD,35.5522416534438,129.295027542907,울산광역시 중구 태화로 176 ,010-6653-5312
아이니(거제본점),NOT_RECORD,34.8946475594655,128.694427984913,경상남도 거제시 옥포로20길 34 아이니,055-681-5512
나인유,NOT_RECORD,35.6093246483208,129.455518384773,울산광역시 북구 동해안로 1321 ,052-233-4980
카페두루고,NOT_RECORD,35.275482048649,128.402491865011,경상남도 함안군 가야읍 가야1길 28 카페두루고,055-585-1491
심돈,NOT_RECORD,35.5633156546155,129.310647538756,울산광역시 중구 종가6길 8-18 럭키빌딩 1층 심돈,052-707-6262
이중생업,NOT_RECORD,35.5385371821553,129.336365142047,울산광역시 남구 삼산로266번길 5-1 1층 이중생업,052-258-8267
우직베이커리,NOT_RECORD,35.5392148765063,129.322293049947,울산광역시 남구 신정로78번길 13-1 인하우스,010-8551-2982
샤브테이,NOT_RECORD,35.2189600447893,128.682963755032,경상남도 창원시 성산구 마디미로73번길 20 ,055-262-4900
육회의전당,NOT_RECORD,35.6284521469011,129.353464155834,울산광역시 북구 동대15길 18 ,052-285-1303
로바타요지 ,NOT_RECORD,35.554990103257,129.319040575075,울산광역시 중구 학성로 73 ,052-244-9939
우연가,NOT_RECORD,35.3188683344118,128.998184430895,경상남도 양산시 물금읍 백호2길 23-11 1층,070-4012-6571
가얏골감자탕,NOT_RECORD,35.2330097656282,128.903218470215,경상남도 김해시 인제로39번길 12-23 ,055-322-8834
엘리,NOT_RECORD,35.2171017283125,128.586695715581,경상남도 창원시 마산합포구 산호북2길 8 ,010-2122-1433
갈매기타운(거제점),NOT_RECORD,34.8676032174099,128.635802895177,경상남도 거제시 상동5길 23 ,0507-1369-9935
석이네꼬막짬뽕,NOT_RECORD,35.1471396465415,128.707859570163,경상남도 창원시 진해구 진해대로921번길 8 1층,055-551-3266
레릭커피브루어스,NOT_RECORD,35.1569914276608,128.704145377982,경상남도 창원시 진해구 석동로67번길 9 ,010-3366-1216
산그늘,NOT_RECORD,35.5035038109951,128.802325299381,경상남도 밀양시 산외면 산외로 309-8 ,055-355-7797
우적(율하점),NOT_RECORD,35.1735723665939,128.826377387132,경상남도 김해시 율하7로 26-4 ,055-338-9192
과일의숲,NOT_RECORD,35.1753785558561,128.801682767999,경상남도 김해시 덕정로204번길 18 ,055-724-3002
가야왕족본점,NOT_RECORD,35.231711764724,128.853120254208,경상남도 김해시 분성로 54 ,055-331-7882
오블리비아테,NOT_RECORD,35.5345852764145,129.323650923206,울산광역시 남구 삼산로144번길 14-3 오블리비아테 2층,0507-1351-4222
두리원,NOT_RECORD,34.8890419418867,128.596708805174,경상남도 거제시 거제대로 4943-8 ,055-632-5000
셰프혁,NOT_RECORD,35.2549042841246,128.621709769456,경상남도 창원시 의창구 남산로115번길 13-1 ,010-5451-3742
영선,NOT_RECORD,35.2232045727679,128.685873612955,경상남도 창원시 성산구 마디미로9번길 3 상남리더스빌 2층,010-2210-4713
원투원,NOT_RECORD,35.1771686784346,128.813403243237,경상남도 김해시 관동로 92 봉수빌,055-325-1211
새콩커피,NOT_RECORD,35.1592115000331,128.696100793788,경상남도 창원시 진해구 진해대로 738  ,055-603-0261
롤링브루잉컴퍼니,NOT_RECORD,35.392436586163,129.055690438304,경상남도 양산시 상북면 민등대길 48 ,010-9312-5222
엘더프랑 ,NOT_RECORD,35.1996302065622,128.114004489697,경상남도 진주시 초전남로 36 ,010-2293-1206
낭기뒷고기(양산본점),NOT_RECORD,35.3286109446205,129.01063874887,경상남도 양산시 물금읍 화합4길 15-12 ,010-4924-9181
보리,NOT_RECORD,35.1821548757565,128.073302037258,경상남도 진주시 남강로 491 남도레포츠타운 1층 ,055-748-7766
르망로스터스,NOT_RECORD,35.1679291641216,128.059942914915,경상남도 진주시 새들말로 54 ,055-920-9933
갓포이찌,NOT_RECORD,35.5358172901256,129.334870238703,울산광역시 남구 왕생로20번길 19 ,052-256-5567
아피츄스레스토랑,NOT_RECORD,35.5733491226875,129.315904408608,울산광역시 중구 백양로 88-1 아피츄스코리아 2층,052-245-1498
카페오픈하우스,NOT_RECORD,35.2051178935207,128.11486963741,경상남도 진주시 초장로14번길 16-14 1층 ,055-759-8899
성원낙지,NOT_RECORD,35.2193735399891,128.691592809094,경상남도 창원시 성산구 동산로 124 성원그랜드쇼핑 4층,055-289-9911
다인스그랜파,NOT_RECORD,35.1780213104314,128.089905044613,경상남도 진주시 진주대로879번길 19 현대성우트리팰리스 1층 ,055-763-7758
어센드커피,NOT_RECORD,35.1898064162437,128.557292617019,경상남도 창원시 마산합포구 문화서15길 24 ,010-2222-9984
초가산장,NOT_RECORD,35.3288399165026,128.229340921969,경상남도 의령군 가례면 홍의로 273 초가산장,055-573-4200
이태리식당,NOT_RECORD,35.1767994994123,128.812063857584,경상남도 김해시 율하카페길 71-11 ,055-321-2330
메르시메르시,NOT_RECORD,35.2169496308696,128.682430261332,경상남도 창원시 성산구 토월로 60 ,055-264-0779
더무그,NOT_RECORD,35.6846339164762,127.910900203818,경상남도 거창군 거창읍 강변로 127 한성CITY타워 103호,055-943-1995
고기가가장맛있는온도250도(평거점),NOT_RECORD,35.1716678672686,128.060509646553,경상남도 진주시 남강로309번길 42-13 위드플러스빌딩 1층 ,070-8833-2879
고기가가장맛있는온도250도,NOT_RECORD,35.1933357616303,128.122258798495,경상남도 진주시 하대로 95 성림빌딩 1층 ,070-8861-2879
삼천포한옥집,NOT_RECORD,34.9302092046607,128.072189223093,경상남도 사천시 선구2길 12 ,055-833-1333
남촌횟집,NOT_RECORD,34.9660067151317,127.976576620112,경상남도 사천시 서포면 거북길 468-91 ,0507-1370-1966
로담,NOT_RECORD,35.287903490462,128.99496424137,경상남도 김해시 대동면 동남로 636  ,010-7293-9437
다랭이맛집,NOT_RECORD,34.7268388386472,127.893459622034,경상남도 남해군 남면 남면로679번길 31-10 ,055-863-3338
돈미가옥,NOT_RECORD,35.1488316626299,128.70278544114,경상남도 창원시 진해구 동진로 94 ,070-8853-4440
미미작업실,NOT_RECORD,35.3261866205377,129.017288049877,경상남도 양산시 물금읍 범어로 102 라온센트럴상가 ,010-2033-7177
크래프츠맨십,NOT_RECORD,35.5250521514583,129.241678635505,울산광역시 울주군 청량읍 율리영해2길 24-4 1층,052-266-5696
어글리라이스,NOT_RECORD,34.7130372187776,128.047578598014,경상남도 남해군 미조면 미조로 24 ,010-5554-8947
엘라토,NOT_RECORD,35.541023682508,129.336028836675,울산광역시 남구 삼산중로84번길 3 리더스빌딩 B동 201호,070-7755-9021
코모레비 ,NOT_RECORD,35.4914865412848,129.429824529693,울산광역시 동구 해수욕장9길 36 ,052-517-939
코니파티세리,NOT_RECORD,35.5416855148712,129.332678842472,울산광역시 남구 돋질로250번길 13 ,010-6395-4499
그남자고깃집(김해점),NOT_RECORD,35.2630116413114,128.870561515927,경상남도 김해시 해반천로144번길 29-40 ,055-328-0702
그남자고깃집(증산점),NOT_RECORD,35.3105255727651,129.008573861977,"경상남도 양산시 물금읍 야리2길 43 골든프라자 1층 109, 110호",055-386-9592
돈담,NOT_RECORD,35.2551786589583,128.61949991377,경상남도 창원시 의창구 평산로159번길 42  2층,055-298-3392
삼천포맛집정서방,NOT_RECORD,34.9806291539857,128.062349590629,경상남도 사천시 진삼로 269  1층, 055-835-5349
삼정한우축산,NOT_RECORD,35.6494781076792,129.359302398767,울산광역시 북구 매곡로 204 ,052-291-8000
노브커피,NOT_RECORD,35.5393289993576,129.331969848479,울산광역시 남구 왕생로66번길 8 1층 ,010-8730-3799
파티세리오브,NOT_RECORD,35.5416106558647,129.333217865841,울산광역시 남구 삼산로241번길 34 현우골든맨션 107호,010-2925-6207
브라운하우스 ,NOT_RECORD,35.1791874324657,128.062733141318,경상남도 진주시 진양호로293번길 16-18 1~3층,055-747-3739
가미닭갈비913,NOT_RECORD,35.5532845272506,129.319792255863,울산광역시 중구 젊음의2거리 29 웰컴시티 9층,052-245-3007
숙성도마,NOT_RECORD,35.5362535765657,129.333893506393,울산광역시 남구 달삼로 43-1 ,052-256-9284
우리로스터스,NOT_RECORD,35.2158748616954,128.709199498938,경상남도 창원시 성산구 대암로105번길 8-19 1층 ,010-8607-1887
하오방구산점,NOT_RECORD,35.2455261998395,128.87231766226,경상남도 김해시 구산로42번길 34-1 1층 ,055-339-8285
달달한윤미씨,NOT_RECORD,35.3296671495095,129.008386138939,경상남도 양산시 물금읍 화합3길 7 ,010-4057-0820
일평수산,NOT_RECORD,34.931679732748,128.055484277999,경상남도 사천시 각산로 175 ,070-4799-5721
목구멍,NOT_RECORD,34.8668590931857,128.688876189171,경상남도 거제시 아주1로2길 29 ,055-681-0592
현대장어,NOT_RECORD,35.1790988682899,128.108903012438,경상남도 진주시 도동천로 75 ,055-755-7071
육동면,NOT_RECORD,35.3268002893287,129.011151832235,"경상남도 양산시 물금읍 범구로 14 유림노르웨이숲아파트 D동 4,5호",055-367-6050
솔밭오리마을,NOT_RECORD,35.217239,128.687502,경상남도 창원시 성산구 단정로76번길 2 ,055-266-4888
용화찜,NOT_RECORD,34.824682,128.415284,경상남도 통영시 봉수로 76 ,055-643-0149
읍내빵집,NOT_RECORD,35.3136206992708,128.737410232455,경상남도 김해시 진영읍 장등1로32번길 4-20 ,0507-1324-2160
옵스(롯데울산점),NOT_RECORD,0.0,0.0,울산광역시 남구 삼산로 282 ,052-960-4780
유타우동,NOT_RECORD,35.1726499080991,128.815396896981,경상남도 김해시 율하3로 56 태경프라자,070-4100-1956
천성산가는길,NOT_RECORD,35.4459493526086,129.076075882572,경상남도 양산시 하북면 내원로 30 ,055-374-6522
석청,NOT_RECORD,35.148773,128.697809,경상남도 창원시 진해구 이동로40번길 24 ,055-551-9696
김덕규베이커리,NOT_RECORD,35.2303608818843,128.894020019824,경상남도 김해시 활천로 32 호성상가 1층,055-333-3874
브라운핸즈마산점,NOT_RECORD,35.1736693841696,128.575069661583,경상남도 창원시 마산합포구 가포순환로 109 ,055-243-0050
미륵미륵,NOT_RECORD,34.8430711227039,128.42998059427,경상남도 통영시 해송정4길 37 미륵미륵빌딩 1층,010-7397-1047
하이든파크,NOT_RECORD,35.1705175269381,128.822455530131,경상남도 김해시 율하4로 46  n스퀘어 9층,055-338-1234
페즈키친,NOT_RECORD,35.5407116453574,129.332953798365,울산광역시 남구 삼산로241번길 21-1 ,070-4045-5201
구천식당,NOT_RECORD,34.8854161024961,128.626035382188,경상남도 거제시 거제중앙로16길 15-1 천국중고,055-636-2122
우화한식당 생림본점,NOT_RECORD,35.3723025409824,128.824494462169,경상남도 김해시 생림면 마사로 443 ,010-5656-6940
보령청국장,NOT_RECORD,34.863157921602,128.723065908188,경상남도 거제시 장승로 99 ,055-681-8886
퀸즈라운지,NOT_RECORD,35.257039144463945,128.6336297998432,경상남도 창원시 의창구 원이대로56번길 2-1 창원시보훈회관,055-238-6611
더로드101귀산,NOT_RECORD,35.1544143524543,128.610115590143,경상남도 창원시 성산구 삼귀로486번길 61-8 ,070-4123-0101
대룡중식당,NOT_RECORD,35.1726510696047,128.05925668107,경상남도 진주시 순환로553번길 7 한보하이타운 1층 157호,070-4833-3382
카페데코로,NOT_RECORD,35.315638963335,128.738793262442,경상남도 김해시 진영읍 본산로125번길 33 ,0507-1464-525
120메리스트릿,NOT_RECORD,34.8898507060524,128.690854244357,경상남도 거제시 거제대로 3730-1 1층,070-4124-9545
라오,NOT_RECORD,35.600667700408,129.361832668018,울산광역시 북구 송정15길 10 ,052-707-8885
그남자고깃집,NOT_RECORD,35.3297241123668,129.009442649875,경상남도 양산시 물금읍 화합길 15 ,055-382-9592
해송돌판닭찜,NOT_RECORD,35.1628870263607,128.115515534335,경상남도 진주시 호탄길13번길 10 ,055-761-55578
쉬어가기좋은날식당,NOT_RECORD,35.2301571899844,127.644351870784,경상남도 하동군 화개면 쌍계사길 6 ,010-9522-4375
송원왕갈비,NOT_RECORD,35.100192,128.822007,경상남도 창원시 진해구 용원동로 310 ,055-552-1381
왕우렁쌈밥약닭약오리탕,NOT_RECORD,35.6829766769536,127.921856003055,경상남도 거창군 거창읍 거함대로5길 71 ,055-945-3042
순할머니손칼국수,NOT_RECORD,35.5703290129379,128.162028436841,경상남도 합천군 합천읍 충효로 113 ,055-933-7004
동원횟집,NOT_RECORD,35.0938082843877,128.819647778903,경상남도 창원시 진해구 용원동로 238-6 해성빌라,055-552-1947
농도,NOT_RECORD,35.5587130790602,129.083313851217,울산광역시 울주군 상북면 명촌길천로 23 ,052-264-1700
강변실비,NOT_RECORD,34.84209138899284,128.42348961351627,경상남도 통영시 항남1길 19 ,055-641-3225
브라운필드,NOT_RECORD,34.8932481897335,128.689740220799,경상남도 거제시 옥포대첩로 20 ,010-7671-1153
라루나,NOT_RECORD,35.2279434541836,128.585803740235,경상남도 창원시 마산회원구 양덕남7길 9 ,055-256-8183
항남우짜,NOT_RECORD,34.841122,128.422274,경상남도 통영시 동충4길 15 ,055-646-6547
밤나무집,NOT_RECORD,35.517339,129.306036,울산광역시 남구 남부순환도로 610 ,052-269-6187
초원복국(장유점),NOT_RECORD,35.19405,128.801538,경상남도 김해시 번화1로68번길 15 ,055-312-9224
가야당,NOT_RECORD,35.221843,128.677174,경상남도 창원시 성산구 중앙대로 69 호텔인터내셔널 본관 2층,055-279-5350
페닌슐라(롯데울산),NOT_RECORD,35.538372,129.338244,울산광역시 남구 삼산로 282 롯데호텔울산 1층,052-960-4260
미락정복집,NOT_RECORD,35.097512,128.820036,경상남도 창원시 진해구 용원로102번길 9-1 ,055-552-9090
만지횟집,NOT_RECORD,35.086687,127.72158,경상남도 하동군 하동읍 섬진강대로 2485 ,055-883-2020
본토비빔밥,NOT_RECORD,35.185578,128.093002,경상남도 진주시 강남로201번길 7 ,055-752-4488
청하식당,NOT_RECORD,35.109561,127.809828,경상남도 하동군 횡천면 횡천강변길 1 ,055-883-9658
재첩잡는선장집,NOT_RECORD,35.086532,127.721935,경상남도 하동군 하동읍 섬진강대로 2481 ,055-884-0684
청옥산장,NOT_RECORD,35.086765,127.722244,경상남도 하동군 청암면 삼신봉로 62-14 ,055-884-4898
남가람청국장마을,NOT_RECORD,35.18728,128.090734,경상남도 진주시 강남로227번길 12 ,055-755-2507
영빈가든,NOT_RECORD,35.187582,128.091108,경상남도 진주시 강남로 233 ,055-759-0808
이가숯불갈비,NOT_RECORD,35.13997,128.703,경상남도 창원시 진해구 풍호로 15 여명상가빌라 102호,055-547-2606
백우숯불갈비,NOT_RECORD,35.148555,128.660876,경상남도 창원시 진해구 백구로 38-1 ,055-545-3475
자연촌,NOT_RECORD,35.418164,127.876313,경상남도 산청군 산청읍 친환경로2653번길 12 ,055-973-8700
성화식당,NOT_RECORD,35.29541,127.9588,경상남도 산청군 단성면 목화로 942 ,010-3552-1034
암소참나무숯불갈비,NOT_RECORD,35.301456,127.970089,경상남도 산청군 신안면 원지강변로63번길 9 ,055-973-2878
이화가든,NOT_RECORD,35.08754,127.719701,경상남도 하동군 하동읍 섬진강대로 2507 ,055-884-0075
한우마을식육식당,NOT_RECORD,35.141554,128.710502,경상남도 창원시 진해구 진해대로979번길 27 ,055-552-2888
백조횟집,NOT_RECORD,35.301389,127.968807,경상남도 산청군 신안면 원지강변로 43 ,055-972-8724
청해횟집,NOT_RECORD,35.09399,128.820069,경상남도 창원시 진해구 용원동로 238-9 ,055-552-8478
금오횟집,NOT_RECORD,34.948504,127.860039,경상남도 하동군 금남면 노량해안길 9-1 ,055-882-0017
용궁횟집,NOT_RECORD,34.94104,127.876283,경상남도 남해군 설천면 노량로183번길 33-2 ,055-863-4747
곰바우횟집,NOT_RECORD,34.940769,127.873779,경상남도 남해군 설천면 노량로 187 ,055-862-1414
경주골가든,NOT_RECORD,35.112935,128.835114,경상남도 창원시 진해구 가주로 99 ,055-551-2100
백어횟집,NOT_RECORD,35.145969,128.658774,경상남도 창원시 진해구 중원로 19-1 ,055-546-9537
새풍화식당,NOT_RECORD,34.857694,128.423374,경상남도 통영시 원문로 47-1 ,055-645-9214
신생원,NOT_RECORD,35.228152,128.677955,경상남도 창원시 성산구 용지로121번길 24 ,055-283-6775
금옥정,NOT_RECORD,35.237934,128.584965,경상남도 창원시 마산회원구 합성남7길 8 ,055-293-8557
야간열차,NOT_RECORD,34.857481,128.430416,경상남도 통영시 안개로 19 ,055-645-9808
삼수갑산,NOT_RECORD,34.857481,128.430416,경상남도 통영시 안개로 19 ,055-644-4339
반달집,NOT_RECORD,35.22976,128.680135,경상남도 창원시 의창구 용지로169번길 13 라이크빌-1,055-285-0009
공원숯불갈비,NOT_RECORD,35.439769,128.586805,경상남도 창녕군 부곡면 온천1길 19 ,055-536-6555
널마루,NOT_RECORD,35.104163,128.814664,경상남도 창원시 진해구 용원북로11번길 12 ,055-544-3512
장성,NOT_RECORD,35.191926,128.081842,경상남도 진주시 비봉로 14 ,055-742-3334
정미식당,NOT_RECORD,35.137517,128.702326,경상남도 창원시 진해구 충장로575번길 8 ,055-545-5743
우정식당,NOT_RECORD,35.420253,129.063644,경상남도 양산시 상북면 삼계2길 33 ,055-375-6738
우천정,NOT_RECORD,35.284718,127.763488,경상남도 산청군 시천면 지리산대로 656 ,010-3838-4426
할매추어탕,NOT_RECORD,35.218333,128.921797,경상남도 김해시 식만로348번길 44-1 ,055-323-7139
중앙집,NOT_RECORD,35.191687,128.085638,경상남도 진주시 남강로673번길 6 ,055-741-5496
할매국밥,NOT_RECORD,35.418451,129.276911,울산광역시 울주군 온양읍 남창장터길 24 남창옹기종기시장,052-238-6480
대화식당,NOT_RECORD,35.184923,128.12807,경상남도 진주시 상대로 145 ,055-758-5592
장터국밥,NOT_RECORD,35.41664,129.2823,울산광역시 울주군 온양읍 남창장터길 25 ,052-238-3470
허내윤과자점,NOT_RECORD,35.150735,126.896256,경상남도 창원시 마산회원구 양덕서로 47 메트로스퀘어5,055-252-0023
그린하우스,NOT_RECORD,35.255832,128.636913,경상남도 창원시 의창구 원이대로81번길 10 ,055-277-5240
화덕,NOT_RECORD,35.568183,129.2418,울산광역시 울주군 범서읍 구영앞길 46 ,052-248-0092
참숯닭발닭날개,NOT_RECORD,35.232018,128.852334,경상남도 김해시 분성로48번길 2 ,055-325-6065
장독수제비,NOT_RECORD,35.233427,128.855434,경상남도 김해시 금관대로1204번길 11-1 ,055-326-5562
함양집(달동점),NOT_RECORD,35.536475,129.332841,울산광역시 남구 삼산로228번길 19 ,052-260-9060
성지원,NOT_RECORD,35.150981,128.053895,경상남도 진주시 내동면 칠봉산길 170 ,055-758-5539
고성할매곰탕,NOT_RECORD,34.977165,128.322456,경상남도 고성군 고성읍 중앙로15번길 62 한솔메르빌,055-673-0062
하늘담,NOT_RECORD,35.241646,128.866126,경상남도 김해시 우암로 139 ,055-338-7888
허준,NOT_RECORD,35.553971,129.312695,울산광역시 중구 당산1길 15 ,052-244-8399
옛날할매순대,NOT_RECORD,35.626252,127.814352,경상남도 함양군 안의면 석천길 11-16 ,055-962-4306
초우,NOT_RECORD,35.393191,128.480811,경상남도 창녕군 남지읍 동포로 45 ,055-526-3733
봉계황가숯불고기,NOT_RECORD,35.713868,129.198809,울산광역시 울주군 두동면 계명로 94 ,052-263-5599
테이블9,NOT_RECORD,35.192085,128.07973,경상남도 진주시 비봉로23번길 17 1층,055-746-7014
별장횟집,NOT_RECORD,35.554681,129.457572,울산광역시 동구 주전해안길 224 ,052-252-5715
영실한우프라자,NOT_RECORD,35.292554,127.958958,경상남도 산청군 단성면 목화로 912 ,055-974-3118
서소문,NOT_RECORD,35.220877,128.682477,경상남도 창원시 성산구 마디미로44번길 7 상남빌딩,055-261-8295
금산삼계탕,NOT_RECORD,35.258831,128.619837,경상남도 창원시 의창구 평산로195번길 10 ,055-294-0099
해금강횟집,NOT_RECORD,35.235446,128.5856,경상남도 창원시 마산회원구 양덕북4길 80 ,055-297-1050
산골버섯,NOT_RECORD,35.223191,128.872486,경상남도 김해시 전하로222번길 13 ,055-336-4597
통영비빔밥,NOT_RECORD,34.8417232362922,128.423687048889,경상남도 통영시 동충4길 45 항남동복합빌딩,055-642-1467
여원,NOT_RECORD,34.829313,128.001629,경상남도 남해군 삼동면 동부대로 1839 ,055-867-4118
홍어마을,NOT_RECORD,35.532947459802024,129.31882913528185,울산광역시 남구 삼산로94번길 21 1층,052-271-1470
본가굴국밥,NOT_RECORD,35.5525873401449,129.285613941309,울산광역시 중구 오산2길 28-9 ,052-277-8880
일류숯불고기,NOT_RECORD,35.712207,129.198041,울산광역시 울주군 두동면 계명1길 20 ,052-254-1412
대가복집,NOT_RECORD,35.550847,129.298137,울산광역시 중구 신기5길 9 ,052-245-2666
대전식당,NOT_RECORD,35.73845373424064,127.92439539771699,경상남도 거창군 거창읍 주곡로 504-20 ,055-942-1818
웅촌식육식당,NOT_RECORD,35.466167418078165,129.20976220796265,울산광역시 울주군 웅촌면 곡천동문길 33 ,052-225-0149
시루봉가든,NOT_RECORD,35.152243,128.710832,경상남도 창원시 진해구 자은로88번길 5 ,055-545-5388
송원횟집,NOT_RECORD,35.094069,128.82019,경상남도 창원시 진해구 청안로 150 ,055-552-2900
용궁성횟집,NOT_RECORD,34.94745994741267,127.87386098293811,경상남도 하동군 금남면 노량해안길 171 ,055-882-2954
청산가든,NOT_RECORD,35.3916596071839,127.903518823349,경상남도 산청군 산청읍 자신길 16 만남의광장휴게소,055-973-5936
초심,NOT_RECORD,35.137339,128.705275,경상남도 창원시 진해구 충장로575번길 36 ,055-547-2248
두레박식당,NOT_RECORD,35.1535951201913,128.699086657037,경상남도 창원시 진해구 동진로 25 동아자원,055-543-3143
민속촌,NOT_RECORD,34.84292,128.420898,경상남도 통영시 충렬안길 18 ,055-641-7626
무교동낙지,NOT_RECORD,35.099851,128.822125,경상남도 창원시 진해구 만금로 19 그린피아,055-552-6800
동심,NOT_RECORD,35.149374,128.697111,경상남도 창원시 진해구 충장로442번길 6 ,055-546-0900
정동근과자점,NOT_RECORD,35.179681,128.114981,경상남도 진주시 동진로 218 ,055-755-2947
홍제원,NOT_RECORD,35.169157,128.12015,경상남도 진주시 남강로 1171 ,055-762-1092
전주가든식당,NOT_RECORD,35.79224577174461,128.08854611938668,경상남도 합천군 가야면 가야산로 1808 해인사시외버스터미널,055-931-2323
남광식당,NOT_RECORD,35.2350874816562,128.880564678851,경상남도 김해시 분성로317번길 18 ,055-336-7605
금화불고기,NOT_RECORD,35.57068,129.117969,울산광역시 울주군 언양읍 성리길 1 ,052-262-0767
만복초밥,NOT_RECORD,34.83728,127.895084,경상남도 남해군 남해읍 화전로38번길 25-1 ,055-864-6801
정원암소숯불구이,NOT_RECORD,35.71376,129.199713,울산광역시 울주군 두동면 두동로 1840 ,052-262-7404
알베또,NOT_RECORD,35.237071,128.683412,경상남도 창원시 의창구 용지로239번길 36 ,055-263-2729
희락회맛집,NOT_RECORD,34.8387938430439,128.416264668993,경상남도 통영시 도천상가안길 60 영생상가아파트2차,055-642-2224
 원조밀물식당,NOT_RECORD,34.844834,128.424765,경상남도 통영시 중앙시장1길 8-42 ,055-646-1551
소문난 3대할매김밥 1호점,NOT_RECORD,34.840731,128.421188,경상남도 통영시 통영해안로 229 ,055-649-2336
완벽한인생,NOT_RECORD,34.797264545002626,128.04353696787325,경상남도 남해군 삼동면 독일로 30 , 055-867-0108
부자왕돼지국밥,NOT_RECORD,35.32358645554809,128.99452621956544,경상남도 양산시 물금읍 가촌서2길 14 ,055-383-8898
오딘레스토랑,NOT_RECORD,35.3182570478619,129.00161230910112,경상남도 양산시 물금읍 백호로 64 센텀시티프라자 2층,070-7622-7779
한마당한우촌,NOT_RECORD,35.56854572640441,129.11020357450923,울산광역시 울주군 언양읍 웃방천5길 10 ,052-262-2047
회운정,NOT_RECORD,34.84079332617382,128.42381271306738,경상남도 통영시 동충2길 39 ,055-649-3302
앰버그리스커피,NOT_RECORD,35.2569384530326,128.635685915728,경상남도 창원시 의창구 원이대로69번길 3 ,055-288-1062
클래식그라운드,NOT_RECORD,35.2279819129618,128.585413477633,경상남도 창원시 마산회원구 산호천동길 36 ,055-253-9635
스시쇼우진,NOT_RECORD,35.2281112158485,128.585690470569,경상남도 창원시 마산회원구 양덕남7길 10 ,055-255-5561
가고파커피로스터스,NOT_RECORD,35.2277903838408,128.58574496535,경상남도 창원시 마산회원구 산호천동길 28 ,070-8615-1985
페즈,NOT_RECORD,35.5400522718564,129.333027187473,울산광역시 남구 왕생로72번길 20 ,010-0121-2212
하연옥(하대동점),NOT_RECORD,35.194791,128.116154,경상남도 진주시 대신로 383 ,055-758-9077
오미사꿀빵(도남점),NOT_RECORD,34.8309304122605,128.416491579543,경상남도 통영시 도남로 110 ,055-646-3230
블루핀,NOT_RECORD,35.239122,128.654941,경상남도 창원시 의창구 원이대로 332 시티세븐풀만앰버서더 로비층,055-600-0803
가야숯불가든,NOT_RECORD,35.170952,128.11883,경상남도 진주시 대신로116번길 7 ,055-759-1888
풍국민물장어,NOT_RECORD,35.188328,128.074368,경상남도 진주시 서장대로393번길 16 ,055-748-0083
건계정식당,NOT_RECORD,35.6926297706317,127.878980472386,경상남도 거창군 거창읍 거안로 1173-21 ,055-944-7833
점터전통찻집,NOT_RECORD,35.81431,127.770726,경상남도 거창군 북상면 산수병곡길 625 ,055-942-7921
모정식당,NOT_RECORD,35.0717896831116,127.756906887369,경상남도 하동군 하동읍 경서대로 225 ,055-884-4675
태봉식당,NOT_RECORD,35.1891485863631,127.622137509594,경상남도 하동군 화개면 화개로 1 ,055-883-2466
해동옥,NOT_RECORD,35.0703279217614,127.749162668245,경상남도 하동군 하동읍 중앙로 29-4 ,055-882-2181
장수숯불갈비,NOT_RECORD,35.0291482800388,127.902615951142,경상남도 하동군 진교면 민다리길 84 ,055-883-1230
초원한방식육가든,NOT_RECORD,35.4934426776808,127.835518294651,경상남도 산청군 생초면 생초로38번길 4 ,055-972-2412
현영식육식당,NOT_RECORD,34.9871787634491,127.836768214353,경상남도 하동군 금남면 주교로 8 ,055-884-0574
용원꼬리곰탕,NOT_RECORD,35.0987653629084,128.803769934161,경상남도 창원시 진해구 안골로277번길 11 ,055-551-2827
섬진강식당,NOT_RECORD,35.00287,127.786518,경상남도 하동군 고전면 재첩길 237 ,055-883-0247
외양간구시,NOT_RECORD,35.688473421591,127.90769940181,경상남도 거창군 거창읍 상동2길 70 ,055-944-4900
대구횟집,NOT_RECORD,34.941559,127.875081,경상남도 남해군 설천면 노량로183번길 20 ,055-862-3747
보물선횟집,NOT_RECORD,34.918001,128.031009,경상남도 남해군 창선면 동부대로2964번길 53 ,055-867-0646
트레비브로이,NOT_RECORD,35.537715,129.336153,울산광역시 남구 삼산중로 46 ,052-258-0101
물방골가든,NOT_RECORD,35.001959,127.789412,경상남도 하동군 고전면 재첩길 204-3 ,055-884-1119
오륙도회센터,NOT_RECORD,34.71331,128.044817,경상남도 남해군 미조면 미송로 38 ,055-867-5699
섬진강횟집,NOT_RECORD,35.089034518122,127.71619867811,경상남도 하동군 하동읍 섬진강대로 2539-8 ,055-883-5527
충무횟집,NOT_RECORD,35.0945697388962,128.819958674148,경상남도 창원시 진해구 용원동로 242-5 ,055-552-2205
늘푸른숯불갈비,NOT_RECORD,35.0558425721153,128.369129130932,경상남도 고성군 회화면 회진로 29 ,055-673-5764
신라해장국,NOT_RECORD,35.5185072399652,129.303597835876,울산광역시 남구 남부순환도로 583 ,052-272-4010
펀자브,NOT_RECORD,35.2224402263631,128.676637085354,경상남도 창원시 성산구 용지로 74 전원상가,055-286-1947
더안,NOT_RECORD,35.5574106726233,129.357225248316,울산광역시 북구 명촌로 33 ,052-287-8885
덕성복집,NOT_RECORD,35.2050438279253,128.579812023496,경상남도 창원시 마산합포구 오동동10길 12 ,055-243-9933
광포복집,NOT_RECORD,35.2049326434827,128.579602670234,경상남도 창원시 마산합포구 오동동10길 8 ,055-242-3308
황태촌,NOT_RECORD,35.4405947519814,128.145591935735,경상남도 합천군 쌍백면 청정로 4 ,055-931-0676
간월산장,NOT_RECORD,35.5572689409738,129.066198768079,울산광역시 울주군 상북면 알프스온천5길 110-1 ,052-262-3141
장방식당,NOT_RECORD,34.832554,128.421895,경상남도 통영시 서송정3길 4 ,055-641-4753
다향오리농원,NOT_RECORD,35.5583648084689,129.356022065502,울산광역시 북구 명촌20길 8 ,052-287-5224
약산가든,NOT_RECORD,35.531482,128.943977,경상남도 밀양시 단장면 시전2길 9-5 ,055-352-7786
언양향토불고기,NOT_RECORD,35.5611586732723,129.122544906957,울산광역시 울주군 삼남읍 울산역로 356 ,052-262-0051
유정호선장집,NOT_RECORD,35.6153441214611,129.449346480171,울산광역시 북구 정자1길 19 ,052-295-6620
백정한우,NOT_RECORD,35.2615905625052,128.872949490457,경상남도 김해시 가야로181번길 9-3 ,055-311-1422
금강산면옥,NOT_RECORD,35.1522713413809,128.662196140913,경상남도 창원시 진해구 충장로 92 ,055-542-4896
어촌싱싱회해물탕,NOT_RECORD,34.837268,128.414271,경상남도 통영시 도천상가안길 18 동원나폴리빌상가 116호,055-646-1982
삼일식육식당,NOT_RECORD,35.6289641312359,127.81274424202,경상남도 함양군 안의면 광풍로 141 ,055-962-4492
석천,NOT_RECORD,35.3308919601116,129.004018165795,경상남도 양산시 물금읍 동중5길 21 ,055-372-5454
거북당꿀빵,NOT_RECORD,34.8441335194249,128.427485168134,경상남도 통영시 통영해안로 368 남현빌딩,055-645-5950
멍게가,NOT_RECORD,34.841364,128.422769,경상남도 통영시 동충4길 25 ,055-644-7774
청해삼소리정,NOT_RECORD,34.8111081818843,128.036195308201,경상남도 남해군 삼동면 동부대로 1329 ,055-867-6007
한다사섬진강재첩,NOT_RECORD,35.0701228144578,127.750147934939,경상남도 하동군 하동읍 중앙로 21 ,055-884-4530
대중분식당,NOT_RECORD,35.541157,128.491538,경상남도 창녕군 창녕읍 창녕대로 27 ,055-533-3455
강림통술,NOT_RECORD,35.2083995719404,128.578521013839,경상남도 창원시 마산합포구 아구찜길 64 ,055-245-2710
동경일식,NOT_RECORD,35.1729119075557,128.06610861473,경상남도 진주시 신평공원길39번길 16 ,055-747-0067
명촌순두부보쌈,NOT_RECORD,35.559965100276,129.357697714481,울산광역시 북구 명촌로 7 ,052-283-1300
부강숯불갈비·쌈밥,NOT_RECORD,35.540786,129.42609,울산광역시 동구 옥류로 21 ,052-252-0500
신생원(별관),NOT_RECORD,35.152906,128.660869,경상남도 창원시 진해구 충장로 79 금화골든파크,055-544-1451
원조할매갈비식당,NOT_RECORD,35.62887369696,127.812629624048,경상남도 함양군 안의면 광풍로 139 ,055-962-0065
남해한방삼계탕,NOT_RECORD,34.836013,127.893592,경상남도 남해군 남해읍 화전로 51-12 ,055-864-3890
맷돌순두부,NOT_RECORD,34.8670476626298,128.689477643446,경상남도 거제시 아주1로2길 25 ,055-681-4544
평화횟집,NOT_RECORD,34.9208891805709,128.524022046155,경상남도 거제시 사등면 성포로3길 12 ,055-632-5124
소월당언양점,NOT_RECORD,35.5652108640634,129.122731652895,울산광역시 울주군 언양읍 남문길 30 ,010-9313-7013
심플델리,NOT_RECORD,35.2531034457618,128.604753124173,경상남도 창원시 의창구 소계로 7 반계엘에이치아파트 상가 105호,055-604-2069
