name,ribbonType,latitude,longitude,address,phone
원조진남매운탕,RIBBON_TWO,36.658422,128.12788,경상북도 문경시 마성면 진남1길 210 ,054-552-7777  
요석궁1779,RIBBON_TWO,35.830282,129.216803,경상북도 경주시 교촌안길 19-4 ,054-772-3347  
서부냉면,RIBBON_TWO,36.87285234473955,128.5257645695902,경상북도 영주시 풍기읍 인삼로3번길 26 ,054-636-2457  
커피플레이스,RIBBON_TWO,35.841439,129.211818,경상북도 경주시 중앙로 18 ,010-2352-2573  
옥야식당,RIBBON_TWO,36.563714,128.724094,경상북도 안동시 중앙시장길 7 ,054-853-6953  
맛50년헛제사밥,RIBBON_ONE,36.577524,128.758064,경상북도 안동시 석주로 201 ,054-821-2944  
최영화빵,RIBBON_ONE,35.8415722858687,129.215349506473,경상북도 경주시 북정로 6-1 ,054-749-5599  
커피명가본,RIBBON_ONE,35.8559516434581,128.750312103976,경상북도 경산시 압량읍 임당로 230 ,053-815-0892  
월영당,RIBBON_ONE,36.5788511386475,128.764588904743,경상북도 안동시 민속촌길 26 개목나루,070-8813-8613  
주스트윤,RIBBON_ONE,35.8455256165351,129.212925095775,경상북도 경주시 화랑로107번길 10-5 1층,010-7650-0984  
타베르나,RIBBON_ONE,35.8348227209437,129.211291682957,경상북도 경주시 첨성로81번길 18 타베르나,010-6321-4247  
풍전브런치카페,RIBBON_ONE,36.5798270699703,128.573884407335,경상북도 안동시 풍산읍 안교1길 9 ,054-858-4036  
어향원,RIBBON_ONE,35.8444374659612,129.209149020438,경상북도 경주시 화랑로 76-1 ,054-772-2821  
시즈닝,RIBBON_ONE,35.8354640121509,129.212435831564,경상북도 경주시 첨성로99번길 25-2 ,054-774-7477  
예미정,RIBBON_ONE,36.552089283506376,128.74157845557022,경상북도 안동시 옹정골길 111 ,054-822-0500  
일레븐체스터필드웨이,RIBBON_ONE,35.847431,129.205046,경상북도 경주시 화랑로37번길 30-1 1층,054-624-7045  
논실커피로스터스,RIBBON_ONE,36.022958,129.334266,경상북도 포항시 남구 희망대로514번길 46 ,054-274-4258  
안동소머리곰탕,RIBBON_ONE,36.017404,129.360159,경상북도 포항시 남구 상공로 107 ,054-277-4840  
동심식당,RIBBON_ONE,36.679929802055796,129.46444013638737,경상북도 울진군 후포면 후포로 244-2 ,054-788-2557  
외바우,RIBBON_ONE,36.001118,129.195583,경상북도 경주시 안강읍 구부랑3길 12 ,054-763-7733  
40년전통할매손칼국수,RIBBON_ONE,35.965777,129.417899,경상북도 포항시 남구 오천읍 장기로1690번길 16-1 ,054-292-0254  
반도불갈비식당,RIBBON_ONE,35.842308,129.212952,경상북도 경주시 화랑로 83 ,054-772-5340  
뉴서울갈비,RIBBON_ONE,36.563545,128.731933,경상북도 안동시 음식의길 10 대림상가,054-843-1400  
랑콩뜨레,RIBBON_ONE,35.86628,129.213992,경상북도 경주시 황성로27번길 10 신안상가 1층 102호,054-743-8017  
수석정,RIBBON_ONE,35.8256980608763,129.237305556377,경상북도 경주시 내리길 41 ,054-748-0835  
태보회대게,RIBBON_ONE,36.399273,129.419327,경상북도 영덕군 영덕읍 영덕대게로 664 ,054-732-8010  
겐지,RIBBON_ONE,35.840037,129.28588,경상북도 경주시 보문로 484-7 경주힐튼호텔 로비층,054-740-1333  
용강국밥,RIBBON_ONE,35.877436,129.231063,경상북도 경주시 승삼3길 16 금화골든파크 2층,054-771-8290  
삼육식당,RIBBON_ONE,35.958491,129.40343,경상북도 포항시 남구 오천읍 문덕로43번길 6-4 ,054-292-3999  
현대밀면,RIBBON_ONE,35.844842,129.20755,경상북도 경주시 화랑로 61 ,054-771-6787  
포항할매집,RIBBON_ONE,35.964175,128.938509,경상북도 영천시 시장4길 52 영천공설시장 제2지구,054-334-4531  
백년찻집,RIBBON_ONE,36.00734854888814,128.59138083882385,경상북도 칠곡군 동명면 한티로 573 ,054-975-2464  
연화바루,RIBBON_ONE,35.823041,129.186373,경상북도 경주시 대경로 4827 ,054-774-5378  
죽변우성식당,RIBBON_ONE,37.05824220611173,129.4213048230894,경상북도 울진군 죽변면 죽변항길 63 ,054-783-8849  
우리복어식당,RIBBON_ONE,36.826838,128.624528,경상북도 영주시 번영로 177 ,054-631-0011  
거창갈비,RIBBON_ONE,36.563534,128.731965,경상북도 안동시 음식의길 10 대림상가,054-857-8122  
단골식당,RIBBON_ONE,36.607026994906185,128.27757959704786,경상북도 예천군 용궁면 용궁시장길 30 ,054-653-6126  
용궁단골식당(상주점),RIBBON_ONE,36.395914,128.154733,경상북도 상주시 상산로 35 ,054-531-1114  
풍기삼계탕,RIBBON_ONE,36.826771,128.626493,경상북도 영주시 중앙로 130 ,054-631-4900  
맷돌순두부,RIBBON_ONE,35.851561,129.262836,경상북도 경주시 북군길 7 ,054-745-2791  
용두식당,RIBBON_ONE,36.912151,128.790136,경상북도 봉화군 봉성면 다덕로 526-4 ,054-673-3144  
진일대게회,RIBBON_ONE,36.415716,129.430341,경상북도 영덕군 영덕읍 영덕대게로 894 ,054-734-1205  
싱글벙글복어,RIBBON_ONE,36.129573,128.331686,경상북도 구미시 역전로 10 ,054-456-4515  
백년찻집(경주점),RIBBON_ONE,35.812147,129.361972,경상북도 경주시 양북면 추령재길 72 ,054-773-3450  
국시집,RIBBON_ONE,35.850248,129.2059,경상북도 경주시 북문로 31 ,054-773-3050  
화산숯불,RIBBON_ONE,35.927073,129.289235,경상북도 경주시 천북면 천강로 460 ,054-774-0768  
슈만과클라라,RIBBON_ONE,35.85361098059707,129.20317069628425,경상북도 경주시 한빛길36번길 36-1 ,054-749-9449  
고향숯불갈비,RIBBON_ONE,35.926404,129.289098,경상북도 경주시 천북면 화산안길 11-15 ,054-774-0962  
평양냉면집,RIBBON_ONE,35.842265,129.21303,경상북도 경주시 원효로 109-2 ,054-772-2448  
연일물회,RIBBON_ONE,35.996986,129.3451,경상북도 포항시 남구 연일읍 연일로159번길 9-1 ,054-285-5281  
옛날경주숯불,RIBBON_ONE,35.926377,129.287883,경상북도 경주시 천북면 천강로 447 ,054-776-8301 
초곡관,RIBBON_ONE,36.656245,128.129027,경상북도 문경시 마성면 진남1길 179 ,010-9597-2020  
종점식당,RIBBON_ONE,36.995272,128.681968,경상북도 영주시 부석면 부석사로 319 ,054-633-3606  
서부불고기,RIBBON_ONE,36.8727053579291,128.525423186212,경상북도 영주시 풍기읍 동성로 102-20 ,054-636-2649  
풍기인삼갈비,RIBBON_ONE,36.869783085852255,128.53600717307626,경상북도 영주시 풍기읍 소백로 1933 ,054-635-2382  
까치구멍집,RIBBON_ONE,36.577677,128.758144,경상북도 안동시 석주로 203 ,054-821-1056  
대구갈비,RIBBON_ONE,35.841428,129.215133,경상북도 경주시 북정로 5 ,054-772-1384  
석하한정식,RIBBON_ONE,35.840676,129.195747,경상북도 경주시 흥무로 51-14 ,054-774-2050  
수향회식당,RIBBON_ONE,36.0349826664718,129.369045878316,경상북도 포항시 북구 죽도시장14길 3 ,054-241-1589  
옥동손국수,RIBBON_ONE,36.559228937163674,128.71974057473122,경상북도 안동시 강변마을1길 91 ,054-855-2308  
이조한정식,RIBBON_ONE,35.841563,129.250897,경상북도 경주시 숲머리길 136 ,054-775-3260  
시장식육식당,RIBBON_ONE,36.197043,129.34051,경상북도 포항시 북구 청하면 청하로200번길 10-1 ,054-232-2670  
황남빵,RIBBON_ONE,35.840808,129.213724,경상북도 경주시 태종로 783 ,054-749-7000  
안압정,RIBBON_ONE,35.6732244986268,128.690590483022,경상북도 청도군 화양읍 연지안길 33-11 ,053-742-3369  
장영선지례원조삼거리불고기,RIBBON_ONE,35.987783,128.029593,경상북도 김천시 지례면 장터길 64 ,054-435-0067  
오시오숯불식육식당,RIBBON_ONE,36.786991,128.893808,경상북도 봉화군 명호면 광석길 46-37 ,054-673-9012  
동광알탕,RIBBON_ONE,36.109924,128.378428,경상북도 구미시 1공단로7길 86-9 ,054-463-3001  
다락방,RIBBON_ONE,36.022687,129.356196,경상북도 포항시 북구 양학천로 39 ,054-283-1915  
장기식당,RIBBON_ONE,36.0358763261738,129.36555361589745,경상북도 포항시 북구 죽도시장3길 9-12 ,054-247-0764  
남산식육식당,RIBBON_ONE,35.793616,128.836229,경상북도 경산시 남산면 산양1길 6 ,053-852-5124  
삼릉고향칼국수,RIBBON_ONE,35.794693,129.205589,경상북도 경주시 삼릉3길 2 ,054-745-1038  
맘모스제과,RIBBON_ONE,36.56465961710473,128.7309948726289,경상북도 안동시 문화광장길 34 ,054-857-6000  
경주원조콩국,RIBBON_ONE,35.83343,129.214757,경상북도 경주시 첨성로 113 ,054-743-9644  
숙영식당,RIBBON_ONE,35.839676,129.213856,경상북도 경주시 계림로 60 ,054-772-3369  
죽령주막,RIBBON_ONE,36.898342,128.437114,경상북도 영주시 풍기읍 죽령로 2136 ,054-638-6151  
산동관,RIBBON_ONE,35.693185,128.889978,경상북도 청도군 금천면 금천로 55 ,054-372-3215  
놋전국수,RIBBON_ONE,35.833598,129.20846,경상북도 경주시 첨성로 55-8 ,054-749-2162  
99식당,RIBBON_ONE,37.483426,130.906659,경상북도 울릉군 울릉읍 도동길 89 ,054-791-2287  
아라비카커피숍,RIBBON_ONE,36.03782,129.366538,경상북도 포항시 북구 칠성로47번길 11 ,054-248-0148  
구서울갈비,RIBBON_ONE,36.563722,128.731971,경상북도 안동시 음식의길 14 대림상가,054-857-5981  
문화갈비,RIBBON_ONE,36.5647096883379,128.732447818784,경상북도 안동시 음식의길 32-9 ,054-857-6565  
만포갈비,RIBBON_ONE,36.027175,129.362453,경상북도 포항시 남구 양학천로 160 ,054-272-9366  
솔밭식당,NOT,36.5493133197784,128.526641070429,경상북도 안동시 풍천면 전서로 214-6 ,054-853-0660  
외할머니가,NOT,36.109170691938,128.421427074412,경상북도 구미시 인동중앙로7길 17 ,054-476-8882  
달빛레스토랑,NOT,36.3842938807273,128.43575778255,경상북도 의성군 안계면 소보안계로 2070 ,054-862-2292  
안압정,NOT,36.4162974483761,128.164824021671,경상북도 상주시 동문1길 8 ,054-531-9290  
올바릇식당,NOT,35.8472388275632,129.280212090982,경상북도 경주시 보문로 368-5 1층,054-777-7793  
아천교횟집 ,NOT,36.6731800145969,128.265614412809,경상북도 문경시 산북면 운달로 55 ,054-553-8584  
지천통나무집,NOT,36.3606148997181,128.152282614824,경상북도 상주시 지천1길 43 ,054-533-3313  
왜관식당,NOT,35.9467401534161,128.31673754784,경상북도 성주군 월항면 주산로 382 ,054-932-9554  
보경식당,NOT,36.245492,129.319442,경상북도 포항시 북구 송라면 보경로 463 ,054-262-3664  
형제통닭,NOT,36.0281431977222,129.360006122844,경상북도 포항시 북구 죽파로 36 ,054-241-2257  
부성식당,NOT,35.7937610371893,129.206134281118,경상북도 경주시 포석로 588-5 ,054-772-2256  
동궁회관,NOT,36.937352,128.914339,경상북도 봉화군 춘양면 의양로2길 13-1 ,054-672-2702  
황남맥주,NOT,35.8359793704024,129.210078709672,경상북도 경주시 포석로 1064-6 ,010-2513-5077  
새재할매집,NOT,36.760886,128.077029,경상북도 문경시 문경읍 새재로 922 ,054-571-5600  
정직한바다횟집,NOT,36.600447,129.414314,경상북도 영덕군 병곡면 병곡1길 88 ,054-733-2037  
까꾸네모리국수,NOT,35.99108,129.55621,경상북도 포항시 남구 구룡포읍 호미로 239-13 ,054-276-2298  
골목횟집,NOT,35.66695129291447,129.46362583415498,경상북도 경주시 양남면 양남로 233 ,054-744-0553  
홍성식육식당,NOT,36.414162,128.160088,경상북도 상주시 남성4길 10 ,054-535-6608  
신애분식,NOT,37.540583,130.873635,경상북도 울릉군 북면 천부1길 2 ,054-791-0095  
목련가든,NOT,36.761267,128.077138,경상북도 문경시 문경읍 새재2길 31 ,054-572-1940  
농우마실,NOT,36.07962,128.353551,경상북도 구미시 금오대로 401 ,054-464-1282  
토함,NOT,35.843029,129.253003,경상북도 경주시 숲머리길 159 ,054-748-6969  
별채반교동쌈밥,NOT,35.833256,129.210745,경상북도 경주시 첨성로 77 ,054-773-3322  
신촌식당,NOT,36.506708,129.120725,경상북도 청송군 진보면 신촌약수길 18 ,054-872-2050  
죽도산,NOT,36.359042,129.385064,경상북도 영덕군 강구면 강구대게길 47-1 ,054-733-4148  
폴모스트,NOT,36.5032242277783,128.676127730076,경상북도 안동시 남후면 암산1길 15 ,070-4128-1980  
설월,NOT,35.8350780216531,129.21254251317,경상북도 경주시 첨성로81번길 22-13 ,010-3292-6011  
안심식당,NOT,35.982587,128.579513,경상북도 칠곡군 동명면 송림길 101 ,054-976-6464  
해구식당,NOT,36.036509,129.363965,경상북도 포항시 북구 중앙상가2길 18 ,054-247-5801  
교리김밥,NOT,35.8216931681819,129.210789672094,경상북도 경주시 탑리3길 2 ,054-772-5130  
할매김밥,NOT,35.642478384075446,128.7467726441706,경상북도 청도군 청도읍 고수동4길 15-3 ,054-371-5857  
향화정,NOT,35.8380366087077,129.209183921076,경상북도 경주시 사정로57번길 17 ,010-8460-0048  
철규분식,NOT,35.9898060126325,129.553016862057,경상북도 포항시 남구 구룡포읍 구룡포길 62-2 ,054-276-3215  
서울만두,NOT,36.595736,128.202057,경상북도 문경시 신흥로 161-8 ,054-555-3838  
삼송꾼만두,NOT,35.972617157443075,128.93462083759647,경상북도 영천시 중앙동1길 12 ,054-333-8806  
성암골가마솥국밥,NOT,35.825976,128.712663,경상북도 경산시 삼성현로 42 ,053-815-0130  
이풍녀구로쌈밥,NOT,35.835893,129.217951,경상북도 경주시 첨성로 155 ,054-749-0060  
대한곱창,NOT,36.241482,128.301701,경상북도 구미시 선산읍 남문로 44 ,054-481-2970  
이조곰탕,NOT,36.124779,128.343077,경상북도 구미시 구미중앙로31길 12 ,054-456-6188  
모모식당,NOT,35.991661,129.556934,경상북도 포항시 남구 구룡포읍 호미로 245-31 ,054-276-2727  
고래사냥,NOT,36.026786,129.338865,경상북도 포항시 남구 대이로127번길 18-6 ,054-275-5293  
중앙식육식당,NOT,36.8253,128.625526,경상북도 영주시 중앙로 113-1 ,054-631-3649  
할매식당,NOT,36.038487,129.356611,경상북도 포항시 북구 새마을로 29 ,054-247-9521  
수라간,NOT,36.414315,128.158133,경상북도 상주시 상서문3길 119 ,054-535-8890  
한스드림베이커리,NOT,36.0587734932269,129.374622662076,경상북도 포항시 북구 새천년대로1020번길 39 ,054-272-8896  
다사랑,NOT,35.717989,128.557736,경상북도 청도군 각북면 헐티로 1342 ,054-373-9080  
396커피컴퍼니,NOT,36.5600469121104,128.699927931198,경상북도 안동시 옥동길 32 ,054-855-0396  
시민제과,NOT,36.0383112291928,129.364682762578,경상북도 포항시 북구 불종로 48 ,054-243-2330  
하회민속식당,NOT,36.549312122986095,128.5266430570897,경상북도 안동시 풍천면 전서로 214-6 ,054-853-0521  
안동매일찜닭,NOT,36.565416,128.727817,경상북도 안동시 번영1길 47 ,054-854-4128  
유진찜닭,NOT,36.565433295852,128.72784886971306,경상북도 안동시 번영1길 47 ,054-854-6019  
중앙찜닭,NOT,36.5656182491623,128.727925370228,경상북도 안동시 번영1길 51 ,054-855-7270  
일직식당,NOT,36.562936,128.731948,경상북도 안동시 경동로 676 매일신문사,054-859-6012  
고도커피,NOT,35.8379151577705,129.210427438113,경상북도 경주시 손효자길 22 ,054-777-7776  
시월애단팥빵,NOT,36.5494443156281,128.528175641088,경상북도 안동시 풍천면 전서로 196 ,054-855-5531  
목석원가든,NOT,36.55184822229163,128.53067772853205,경상북도 안동시 풍천면 전서로 159 ,054-853-5332  
흥부네토종한방순대,NOT,36.60779874624225,128.27955492538453,경상북도 예천군 용궁면 용궁로 131 ,054-653-6210  
도솔마을,NOT,35.83705,129.211252,경상북도 경주시 손효자길 8-13 ,054-748-9232  
골목안손국수,NOT,36.563478,128.729493,경상북도 안동시 남문로 2 ,054-857-8887  
송학할매손두부,NOT,36.042812,129.297576,경상북도 포항시 남구 연일읍 새마을로 626 ,054-278-6491  
한촌설렁탕,NOT,36.126021,128.339133,경상북도 구미시 금오시장로1길 14 ,054-456-6114  
산해,NOT,35.841224,129.250768,경상북도 경주시 숲머리길 130-5 ,054-743-7791  
부흥식육식당,NOT,36.466064,128.167324,경상북도 상주시 남적로 6-75 ,054-532-6966  
오거리곰탕,NOT,36.033224,129.366621,경상북도 포항시 북구 중앙로 222-8 ,054-248-1182  
대구막창,NOT,35.85037619816443,129.22399865006273,경상북도 경주시 양정로 197 ,054-741-4663  
봉화본가,NOT,36.888564,128.738139,경상북도 봉화군 봉화읍 내성천1길 60 ,054-673-3600  
부석사식당,NOT,36.99515,128.681734,경상북도 영주시 부석면 부석사로 317 ,054-633-3317  
나리촌식당,NOT,37.519741,130.872959,경상북도 울릉군 북면 나리1길 31-115 ,054-791-6082  
산마을식당,NOT,37.520927,130.869023,경상북도 울릉군 북면 나리길 588 ,054-791-4643  
서울식당,NOT,36.114352,128.01653,경상북도 김천시 대항면 황학동길 10 ,054-436-6121  
버버리찰떡,NOT,36.56386823284641,128.7211837759666,경상북도 안동시 제비원로 128 ,054-843-0106  
박용자경주명동쫄면,NOT,35.830618,129.216385,경상북도 경주시 계림로93번길 3 ,054-743-5310  
탈빙고,NOT,36.5489628322659,128.527490403276,경상북도 안동시 풍천면 전서로 206 하회세계탈박물관 내,010-8582-2938  
명승원만두,NOT,36.036943,129.364442,경상북도 포항시 북구 중앙상가3길 20 ,054-232-5658  
진미식당,NOT,35.828823,129.209183,경상북도 경주시 포석로 985 ,054-746-5656  
최권수셰프의카페쿠미,NOT,36.13817281954757,128.42083606415892,경상북도 구미시 산호대로29길 20-7 ,054-471-0123  
박달식당,NOT,36.607707,128.273593,경상북도 예천군 용궁면 용궁로 77 ,054-652-0522  
환여횟집,NOT,36.064354,129.384066,경상북도 포항시 북구 해안로 189-1 ,054-251-8847  
밀면식당,NOT,35.841708,129.214455,경상북도 경주시 태종로791번길 9 ,054-749-8768  
선미횟집,NOT,36.445903,129.434328,경상북도 영덕군 영덕읍 노물길 17 ,054-733-7539  
로타리냉면,NOT,36.0402918226238,129.367113279223,경상북도 포항시 북구 서동로 84 ,054-247-2651  
달기약수촌,NOT,36.43886,129.087092,경상북도 청송군 청송읍 약수길 54-5 ,054-873-2662  
줄리스,NOT,35.8377469517356,129.210509635476,경상북도 경주시 손효자길 20 ,054-705-5705  
브래드몬스터,NOT,35.8679589861561,129.214273020484,경상북도 경주시 용담로92번길 53 ,054-777-1710  
태극당,NOT,36.824941,128.625081,경상북도 영주시 번영로 154 ,054-633-8800  
소문난식당,NOT,36.756744,128.078527,경상북도 문경시 문경읍 새재로 876 ,054-572-2255  
의성식당,NOT,35.6408324349272,128.746045302232,경상북도 청도군 청도읍 청화로 204 ,054-371-2349  
고령모듬추어탕,NOT,35.718893,128.272138,경상북도 고령군 대가야읍 장기터길 10-7 ,054-954-3757  
원조청도추어탕고디탕,NOT,35.640393,128.746924,경상북도 청도군 청도읍 청화로 211 ,054-371-5510  
소나무식당,NOT,35.717774,128.56066,경상북도 청도군 각북면 오산4길 29 ,054-373-7566  
문경새재오는길,NOT,36.740199,128.06876,경상북도 문경시 문경읍 각서윗길 7 ,054-572-3392  
은정횟집,NOT,35.8044682137075,129.502892080347,경상북도 경주시 감포읍 감포로2길 113-3 ,054-744-8600  
온정가,NOT,36.0890038263757,129.390226799571,경상북도 포항시 북구 장량주택로18번길 1 ,054-256-1560  
위생찜닭,NOT,36.565411,128.72784,경상북도 안동시 번영1길 47 ,054-852-7411  
화림산가든,NOT,36.421854,129.357932,경상북도 영덕군 영덕읍 강변길 366 ,054-734-0945  
중국만두,NOT,36.1192501757211,128.1276432342931,경상북도 김천시 용머리5길 5 ,054-434-2581  
만리궁,NOT,36.003151553915444,128.41185273462673,경상북도 칠곡군 왜관읍 석전로12길 7 ,054-974-1121  
진해식당,NOT,37.058947,129.4218,경상북도 울진군 죽변면 죽변중앙로 160-25 ,054-783-7203  
단석명가찰보리빵,NOT,35.838741,129.206861,경상북도 경주시 금성로 237 ,054-741-7520  
서라벌찰보리빵,NOT,35.84275312778289,129.21757969902583,경상북도 경주시 원화로 250 ,054-777-0070  
영흥반점,NOT,36.59513,128.19838,경상북도 문경시 상신로 6-1 ,054-555-2670  
동성반점,NOT,36.637827091610916,128.1700981400651,경상북도 문경시 신기3길 11-2 ,054-553-6170  
부천성,NOT,35.8346337436194,128.731012615388,경상북도 경산시 대학로 73-2 ,053-814-5042  
천안문,NOT,36.14608,128.311197,경상북도 구미시 봉곡로10길 10 ,054-444-1008  
일월식당,NOT,36.977249,128.65252,경상북도 영주시 부석면 부석로 27 ,054-633-3162  
죽도회대게타운,NOT,36.035326,129.368662,경상북도 포항시 북구 죽도시장길 29 ,054-246-1188  
순흥전통묵집,NOT,36.47686,127.71512,경상북도 영주시 순흥면 순흥로39번길 21 ,054-634-4614  
역전추어탕,NOT,35.640902,128.746035,경상북도 청도군 청도읍 청화로 204 ,054-371-2367  
명가정통민물장어,NOT,36.171669,129.37325,경상북도 포항시 북구 청하면 용산길 235 ,054-231-3646  
아차가,NOT,36.564904263131844,128.7312728723915,경상북도 안동시 문화광장길 40-5 ,054-854-7430  
효령매운탕,NOT,36.1505268437613,128.594770597958,경상북도 군위군 효령면 치산효령로 2267-8 ,054-383-9088  
석송가든,NOT,36.600173,128.710815,경상북도 안동시 제비원로 539-23 ,054-841-7000  
백수식당,NOT,36.651026,128.455242,경상북도 예천군 예천읍 충효로 284 ,054-652-7777  
화평대군,NOT,35.962982,128.924393,경상북도 영천시 최무선로 212 ,054-334-2514  
하연지,NOT,35.823969,129.210983,경상북도 경주시 포석로 932-4 ,054-777-5432  
시골집,NOT,35.641877,128.748152,경상북도 청도군 청도읍 고수동5길 18 ,054-373-0303  
로칸다오라,NOT,36.1161081456388,128.344477760611,경상북도 구미시 송정대로6길 20 ,054-456-1238  
구름에오프,NOT,36.569722248893,128.769177895588,경상북도 안동시 민속촌길 190 ,054-823-9001  
1894사랑채,NOT,35.8361881565132,129.211918606674,경상북도 경주시 포석로1068번길 23 ,054-776-4086  
추풍령할매갈비,NOT,36.206301,128.003489,경상북도 김천시 봉산면 봉산로 15 ,054-439-0150  
향우촌,NOT,37.485328,130.902399,경상북도 울릉군 울릉읍 도동길 186 ,054-791-8383  
월영교달빵,NOT,36.5774114603257,128.757951484028,경상북도 안동시 석주로 199 ,054-852-1128  
료미,NOT,35.8356369904009,129.209754509291,경상북도 경주시 포석로 1058-1 ,054-624-5060  
다애식당,NOT,37.48289,130.907674,경상북도 울릉군 울릉읍 도동길 63 ,054-791-8862  
팔우정해장국,NOT,35.84082,129.216473,경상북도 경주시 태종로 810-1 ,054-742-6515  
수가성,NOT,36.0178757290828,129.351241378607,경상북도 포항시 북구 상대로 31 ,054-273-8533  
강성면옥,NOT,36.1266999135301,128.10493822324818,경상북도 김천시 구농고2길 3 ,054-432-4582  
수리뫼,NOT,35.7523353006341,129.208118394717,경상북도 경주시 내남면 포석로 110-32 ,054-748-2507  
동부갈비,NOT,36.563668,128.732317,경상북도 안동시 경동로 677-10 ,054-857-2707  
깊은산속화로구이,NOT,36.755715,128.078457,경상북도 문경시 문경읍 새재로 863 ,054-571-7978  
영양숯불갈비,NOT,35.846602061352854,129.2099710381196,경상북도 경주시 봉황로 79 ,054-771-2627  
산너머남촌,NOT,36.031255,128.636705,경상북도 군위군 부계면 한티로 1667 ,054-383-5445  
월성과자점,NOT,35.8364476840361,129.211941637759,경상북도 경주시 포석로1068번길 17-7 ,054-624-7010  
리루하,NOT,35.665823584332756,129.40769121349632,경상북도 경주시 양남면 신대로 66-9 ,010-2836-7719  
새대구숯불구이,NOT,36.65482699078136,128.45124799954613,경상북도 예천군 예천읍 시장로 61 ,054-654-1547  
이스트1779,ATTENTION,35.829995383936,129.216898226204,경상북도 경주시 교촌안길 21 ,054-777-4500  
칼국수공장,NEW,36.1543758093815,128.431162684473,경상북도 구미시 산동읍 신당1로3길 3 해송빌딩 2층 201호,054-472-1948
양월댁,NEW,35.8356615654026,129.210314104992,경상북도 경주시 포석로 1058-7 ,010-7710-4081
엘라토경주,NEW,35.8342780894155,129.209320343355,경상북도 경주시 포석로 1045 ,070-7799-9018
경주콩나물국밥,NOT_RECORD,35.8416165098695,129.214431797187,경상북도 경주시 태종로791번길 7-1 ,054-742-0358
안동또또찜닭,NOT_RECORD,36.5655602750813,128.728151718326,경상북도 안동시 번영길 19 ,054-854-4800
무주,NOT_RECORD,36.0769659334986,129.391129721397,경상북도 포항시 북구 법원로8번길 39-15 시티하우스 건물 카페 무주,010-2480-9262
우인정,NOT_RECORD,35.9813668129256,128.556820069835,경상북도 칠곡군 동명면 한티로 7 ,010-4976-5388
음식디미방,NOT_RECORD,36.5585627673662,129.12685828614738,경상북도 영양군 석보면 두들마을길 66 ,054-682-7764
보문갈비,NOT_RECORD,35.8369910774607,129.285349346667,경상북도 경주시 보문로 529 ,054-771-9399
텀즈,NOT_RECORD,35.6968487534699,129.434844009953,경상북도 경주시 양남면 외남로 348-5 ,010-8841-9888
고향밀면(본점),NOT_RECORD,35.8415469264312,129.214442809677,경상북도 경주시 태종로791번길 7 ,054-741-7169
라멘묘조,NOT_RECORD,36.0815392723019,129.395541310826,경상북도 포항시 북구 장량로 140 ,070-7766-2734
복길,NOT_RECORD,35.8331848184481,129.210002943018,경상북도 경주시 첨성로 71 ,054-748-3555
인브리즈(장량점),NOT_RECORD,36.0815392723019,129.395541310826,"경상북도 포항시 북구 장량로 140 1, 2층",070-7725-0925
탐복 미나리가든,NOT_RECORD,35.591894,128.730842,경상북도 청도군 청도읍 한재로 382 ,054-371-7755
천생산오리사냥,NOT_RECORD,36.0956297021854,128.451626337527,경상북도 구미시 천생산길 38 ,0507-1388-5292
산마을곤드레산채밥,NOT_RECORD,36.0047408142857,128.592960022859,경상북도 칠곡군 동명면 한티로 549 ,054-975-5688
문경상황버섯삼계탕,NOT_RECORD,36.5980226793391,128.199305417587,경상북도 문경시 점촌1길 35 ,054-552-5982
세정,NOT_RECORD,36.1175845650611,128.339983138371,경상북도 구미시 백산로2길 46 ,054-452-4017
쑥부쟁이,NOT_RECORD,35.7973301400342,129.312654843917,경상북도 경주시 보불로 147-5 ,054-748-3903
청풍오리,NOT_RECORD,36.1060797983362,128.351541433125,경상북도 구미시 새마을로 132 ,0507-1498-3355
남광흑염소,NOT_RECORD,35.8179562989093,128.826497806577,경상북도 경산시 자인면 동부길 14-5 ,053-854-9010
진주식당,NOT_RECORD,36.2451705265128,129.319754377118,경상북도 포항시 북구 송라면 보경로 457-1 , 054-262-1632
해가담 본점,NOT_RECORD,35.8409229777396,129.211800682255,경상북도 경주시 중앙로 12 ,054-741-3002
청송닭백숙 ,NOT_RECORD,36.4385713931346,129.083519432611,경상북도 청송군 청송읍 약수길 14 ,054-873-1565
두부마을택지2호점,NOT_RECORD,36.8148467849677,128.605940675179,경상북도 영주시 대동로34번길 2 2층,054-636-4374
뷔네커피바,NOT_RECORD,36.8095814698202,128.609784364058,경상북도 영주시 대학로 142 한솔빌딩 1층,0507-1449-664
시골밥상,NOT_RECORD,36.047998,128.642068,경상북도 군위군 부계면 한티로 1903 ,054-382-2776
500베이커리엔카페,NOT_RECORD,35.6708212630995,129.372621094857,경상북도 경주시 양남면 동남로 845 ,070-4201-6660
원조소풍,NOT_RECORD,35.6822761517179,128.228480273625,경상북도 고령군 쌍림면 영서로 3379-3 ,054-956-1007
녹림,NOT_RECORD,35.8135514214692,128.754355647888,경상북도 경산시 백양로 113 ,053-719-0330
릭버거,NOT_RECORD,35.8339513729891,129.209329981623,경상북도 경주시 포석로 1039-1 ,010-9520-9999
온당,NOT_RECORD,35.8814323209175,129.226099010887,경상북도 경주시 용황로8길 20 ,010-5506-9656
어림지(상도점),NOT_RECORD,36.011925,129.349748,경상북도 포항시 남구 중흥로 74 ,054-275-0900
화목정(남구점),NOT_RECORD,36.0173362705457,129.340991276658,경상북도 포항시 남구 대이로29번길 17 ,054-282-8932
화목정,NOT_RECORD,36.0897221335138,129.388363686022,경상북도 포항시 북구 장량중앙로 62 ,054-255-8932
설머리횟집,NOT_RECORD,36.0632992990447,129.389455395717,경상북도 포항시 북구 해안로 243-2 ,054-251-9319
쉼소,NOT_RECORD,36.1073786789203,128.706826582886,경상북도 군위군 산성면 만석길 15-7 ,0507-1318-3055
대잠맨션,NOT_RECORD,36.0148539753793,129.342870691911,경상북도 포항시 남구 대이로1번길 20 동부오피스텔 101호,010-3887-8470
오늘참예쁘다,NOT_RECORD,36.1384948030215,128.09439488921,경상북도 김천시 구읍길 80 ,010-9781-6016
고려의숲 품격한우 한정식,NOT_RECORD,36.0364672773472,129.333619241123,경상북도 포항시 남구 이동로7번길 58 ,054-278-7030
엘로우,NOT_RECORD,35.8451050176228,129.27183356899,경상북도 경주시 경감로 375-16 엘로우,010-9498-3011
리반점,NOT_RECORD,36.5859731513744,128.182642983577,경상북도 문경시 매봉2길 7-19 ,054-554-9215
퍼블릭 커피 로스터즈,NOT_RECORD,36.1405206031271,128.441937909219,경상북도 구미시 산동읍 첨단기업1로 42 ,054-471-1036
가정초밥,NOT_RECORD,36.0080964116588,129.330458752437,경상북도 포항시 남구 효자동길2번길 3 효자역전종합상가,054-241-8383
버터풀앤크리멀러스(포항영일대점),NOT_RECORD,36.064752178267,129.38575954056,경상북도 포항시 북구 해안로 205 ,054-255-8204
동양백반 ,NOT_RECORD,35.8352997198826,129.210053765294,경상북도 경주시 포석로 1056-5 ,010-5882-7220
카페라밀,NOT_RECORD,36.5928942914673,128.20989955802,경상북도 문경시 영신로 101 1.2층,054-553-1232
쉼터민물매운탕,NOT_RECORD,36.7873589773594,128.89370502304,경상북도 봉화군 명호면 광석길 28-1 1층,054-672-8985
뜨거운형제동태탕찜,NOT_RECORD,35.8257862594915,128.712809264265,경상북도 경산시 삼성현로 42 ,053-795-3344
고향갈비,NOT_RECORD,36.5622178868405,128.70288656839,경상북도 안동시 경북대로 361 고향갈비,010-3375-1925
한결청국장,NOT_RECORD,36.8733790801522,128.524444525711,경상북도 영주시 풍기읍 인삼로 1-1 ,054-636-3224
노룰즈커피,NOT_RECORD,36.5597496668865,128.700704474046,경상북도 안동시 옥동2길 30 ,010-5434-3661
명궁약수가든,NOT_RECORD,36.5062549422206,129.119620961174,경상북도 청송군 진보면 경동로 5156  ,054-874-0033
장룡민물장어나라,NOT_RECORD,36.013224087573,129.371620940254,경상북도 포항시 남구 희망대로 911 장룡민물장어나라,054-273-8088
오스테리아밀즈,NOT_RECORD,35.8364582732606,129.211669941415,경상북도 경주시 포석로1068번길 17-3 ,070-7311-9007
이쁜여우핫도그,NOT_RECORD,35.8711424769591,129.219245091527,경상북도 경주시 갓뒤동녘길 27 ,054-746-0797
소향몽,NOT_RECORD,35.8378369662636,129.209368492299,경상북도 경주시 사정로57번길 16 ,054-701-0010
황남두꺼비식당,NOT_RECORD,35.8344918316348,129.210916126673,경상북도 경주시 포석로1050번길 16 ,054-742-8026
낙지마실,NOT_RECORD,35.8515798984946,129.262977206576,경상북도 경주시 북군길 9 ,054-749-0048
기와메밀막국수,NOT_RECORD,35.8405681021727,129.232032319765,경상북도 경주시 분황로 91 ,054-742-4477
러빙줄리아,NOT_RECORD,36.1256348615021,128.334772854999,경상북도 구미시 금오산로10길 8 러빙줄리아,010-4552-7859
스틸룸,NOT_RECORD,35.8421877960572,129.210404495561,경상북도 경주시 원효로 87 ,010-4487-1004
꽃돼지식당,NOT_RECORD,36.1073011858641,128.419566731527,경상북도 구미시 인동중앙로1길 12  ,054-471-2243
한뚝배기,NOT_RECORD,36.5551254714423,128.754818517738,경상북도 안동시 중평4길 3 한뚝배기,054-821-8900
곱곱,NOT_RECORD,36.1390772796424,128.415517512858,경상북도 구미시 산호대로23길 27  ,010-6616-8365
청온채,NOT_RECORD,35.8376215586167,129.208798388106,경상북도 경주시 포석로1079번길 8-5 청온채,0507-1324-3904
부산본가돼지국밥,NOT_RECORD,35.9706049024036,129.409279179232,경상북도 포항시 남구 오천읍 남원로 3 ,054-292-9899
부부당,NOT_RECORD,35.9674167033537,129.404895673531,경상북도 포항시 남구 오천읍 냉천로302번길 41 ,054-292-0820
경주여행밀면본점여행라멘,NOT_RECORD,35.88393457899,129.230682163622,경상북도 경주시 용황로11길 6-23 ,054-741-1888
커피명가(안동점),NOT_RECORD,36.5690502743514,128.780341012658,경상북도 안동시 관광단지로 346-52 ,054-821-7182
제비원삼겹,NOT_RECORD,36.5937745892918,128.713037334494,경상북도 안동시 제비원로 493-10  ,054-842-8484
396커피스토어,NOT_RECORD,36.5669631035058,128.728989225175,경상북도 안동시 퇴계로 99 , 054-901-1987
쿠킹빌리지양식당(양덕점),NOT_RECORD,36.0820103122282,129.395923776767,경상북도 포항시 북구 장량로 141 ,054-247-0502
스트로베리문 ,NOT_RECORD,35.8329846232308,128.723481857307,경상북도 경산시 경산로 280 중산 하늘채 더퍼스트 상가 B동37호 ,070-7799-6408
마타아시타,NOT_RECORD,36.1406056763446,128.115260461911,경상북도 김천시 시청1길 27 ,010-4157-0870
달달한오븐 ,NOT_RECORD,36.1558642007045,128.431742659311,경상북도 구미시 산동읍 신당2로 29 대호프라자107호 ,054-473-0409
마당숯불갈비,NOT_RECORD,36.8263960630723,128.624193760503,경상북도 영주시 번영로173번길 7 ,054-631-5044
명당폭포식당,NOT_RECORD,35.9708285989703,128.785609898127,경상북도 경산시 와촌면 갓바위로 153-11 ,053-851-7733
풍산대구식육식당,NOT_RECORD,36.577853,128.577573,경상북도 안동시 풍산읍 풍산태사로 1099 ,054-858-4212
옛날한계령조개구이,NOT_RECORD,36.059685,129.379185,경상북도 포항시 북구 해안로 123 ,054-244-8401
황남주택,NOT_RECORD,35.8348087925437,129.214840375848,경상북도 경주시 포석로1050번길 45-8 ,054-748-5354
자미가,NOT_RECORD,36.995039,128.681045,경상북도 영주시 부석면 부석사로 311 ,054-632-3454
무궁무진,NOT_RECORD,35.8356186533889,129.209301425449,경상북도 경주시 포석로 1057-6 ,070-4833-2244
부산찐빵,NOT_RECORD,35.842047,129.217518,경상북도 경주시 원화로 240 ,054-742-4206
최권수베이커리 ,NOT_RECORD,36.1235910491375,128.323822140937,경상북도 구미시 금오산로 192 ,054-451-9927
하얀집,NOT_RECORD,35.673451,128.957484,경상북도 청도군 운문면 운문사길 121 ,054-372-5599
맘포식당숯불갈비,NOT_RECORD,36.66424326333898,129.11504646752724,경상북도 영양군 영양읍 시장3길 15 ,054-683-2339
해운대회식당,NOT_RECORD,35.804931,129.502588,경상북도 경주시 감포읍 감포항구길 7 ,054-744-3322
황가정,NOT_RECORD,35.8822470034941,129.221055885975,경상북도 경주시 용황로 26 ,054-771-0819
빛꾸리,NOT_RECORD,35.8375182780452,129.210675470482,경상북도 경주시 손효자길 16-1 ,054-777-4421
청송식당,NOT_RECORD,36.359206,129.384169,경상북도 영덕군 강구면 강구대게4길 9-7 ,054-733-4155
피자옥,NOT_RECORD,35.8364240244567,129.21081384745,경상북도 경주시 손효자길 1 ,054-773-7828
부둑골식당,NOT_RECORD,35.8613398204943,129.227963537752,경상북도 경주시 용강상리1길 10-1 ,054-773-0038
후생식당,NOT_RECORD,35.8381522034722,129.20901295246,경상북도 경주시 사정로57번길 17-4 ,0507-1406-2111
한미식당,NOT_RECORD,36.003647,128.413468,경상북도 칠곡군 왜관읍 석전로 159 ,054-974-0390
하봉석회대게타운,NOT_RECORD,36.0697647324058,129.401045625438,경상북도 포항시 북구 삼호로468번길 16-1 ,054-252-1110
미남장어문덕점,NOT_RECORD,35.9691926167106,129.409955567742,경상북도 포항시 남구 오천읍 냉천로 286 ,054-615-8892
편대장영화식당,NOT_RECORD,35.960365810841516,128.92814620007087,경상북도 영천시 강변로 50-15 ,054-334-2655
남산식육식당,NOT_RECORD,35.992416,128.398113,경상북도 칠곡군 왜관읍 중앙로6길 10 ,054-973-6885
아사카와,NOT_RECORD,35.844664,129.285081,경상북도 경주시 보문로 422 코모도호텔경주 1층,054-740-8293
아리랑,NOT_RECORD,35.844664,129.285081,경상북도 경주시 보문로 422 코모도호텔경주 1층,054-740-8392
계림,NOT_RECORD,35.787592,129.321733,경상북도 경주시 불국로 289-17 코오롱호텔 2층,054-740-5225
레이크사이드,NOT_RECORD,35.840503,129.285494,경상북도 경주시 보문로 484-7 경주힐튼호텔 로비층,054-740-1777
실크로드,NOT_RECORD,35.840503,129.285494,경상북도 경주시 보문로 484-7 경주힐튼호텔 로비층,054-740-1666
남일가든,NOT_RECORD,36.40453,129.375251,경상북도 영덕군 영덕읍 강영로 510-1 ,054-733-1789
등대회식당,NOT_RECORD,36.50722,129.448011,경상북도 영덕군 축산면 축산항길 50-2 ,054-732-4023
일출회타운,NOT_RECORD,36.508317,129.449633,경상북도 영덕군 축산면 축산항길 72 ,054-733-8800
안동한우갈비,NOT_RECORD,36.563668,128.732317,경상북도 안동시 경동로 677-10 ,054-857-6337
수석분식,NOT_RECORD,36.41032,129.367745,경상북도 영덕군 영덕읍 남석2길 9 ,054-733-8822
울산아지매집,NOT_RECORD,35.672938,128.957192,경상북도 청도군 운문면 운문사길 127 ,054-373-0568
대림매운탕,NOT_RECORD,35.970594,128.943522,경상북도 영천시 보목1길 43-6 ,054-337-9666
대한식육식당,NOT_RECORD,35.965368,128.918567,경상북도 영천시 장수로 51 ,054-334-4295
제주회초밥,NOT_RECORD,35.971667,128.937634,경상북도 영천시 삼산길 10-5 ,054-333-0709
초원숯불가든,NOT_RECORD,35.9718,128.938766,경상북도 영천시 시청남1길 17 ,054-333-3837
홍진한정식,NOT_RECORD,35.986193,129.098659,경상북도 영천시 고경면 청정길 17 ,054-335-6333
대풍회,NOT_RECORD,36.351672,128.697667,경상북도 의성군 의성읍 후죽5길 12-1 ,054-832-6900
무량수,NOT_RECORD,36.99446,128.682818,경상북도 영주시 부석면 부석사로 338-11 ,054-634-6770
장독대,NOT_RECORD,35.972588,128.435634,경상북도 칠곡군 왜관읍 칠곡대로 1917 ,054-974-0222
마라도회식당,NOT_RECORD,36.06477,129.387188,경상북도 포항시 북구 해안로 217-1 ,054-251-3850
제일식당,NOT_RECORD,36.423944,128.767323,경상북도 의성군 점곡면 점곡길 70 ,054-833-4018
무릉도원,NOT_RECORD,36.025692,128.554285,경상북도 칠곡군 동명면 학명2길 25 ,054-977-9772
산성숯불갈비,NOT_RECORD,35.844968,129.258055,경상북도 경주시 숲머리길 211 ,054-749-5008
선유정장작구이,NOT_RECORD,36.165585,128.013802,경상북도 김천시 봉산면 봉산로 492 ,054-433-0150
신라식당,NOT_RECORD,36.247137,129.320124,경상북도 포항시 북구 송라면 보경로 517 ,054-262-0565
할매소머리곰탕,NOT_RECORD,36.036755,129.367959,경상북도 포항시 북구 칠성로 56 ,054-247-8660
신선식당,NOT_RECORD,36.566048,128.723117,경상북도 안동시 광석3길 20 ,054-853-7790
만리궁,NOT_RECORD,36.115039,128.350117,경상북도 구미시 신시로10길 105 대성하이츠빌6차,054-455-5570
사계절대게직판장,NOT_RECORD,36.359117,129.38559,경상북도 영덕군 강구면 강구대게길 52 ,054-734-2777
조가네떡갈비쌈밥,NOT_RECORD,35.836301,129.28483,경상북도 경주시 보문로 539 ,054-745-4838
이진우참한우,NOT_RECORD,35.918583,128.295769,경상북도 성주군 성주읍 삼산1길 3-4 ,054-933-0760
대보식육식당,NOT_RECORD,35.820297,128.737813,경상북도 경산시 경안로 143 ,053-815-5888
축산사랑,NOT_RECORD,35.729622,128.270614,경상북도 고령군 대가야읍 중앙로 25 ,054-954-2592
계곡폭포가든,NOT_RECORD,35.734098,129.334728,경상북도 경주시 외동읍 연안개곡1길 134-20 ,054-775-8846
금산할매삼계탕,NOT_RECORD,36.12026,128.359184,경상북도 구미시 구미중앙로45길 7 ,054-461-2992
새지천식당,NOT_RECORD,36.365834,128.152661,경상북도 상주시 문필로 38 ,054-534-6401
동치골허브야생화마을,NOT_RECORD,37.043581,129.404606,경상북도 울진군 죽변면 봉화길 78 ,054-781-8800
진미고래,NOT_RECORD,36.037098,129.369313,경상북도 포항시 북구 칠성로 70 ,054-248-9668
신선찜닭,NOT_RECORD,36.565574,128.72736,경상북도 안동시 번영길 6 ,054-842-9989
대도식당,NOT_RECORD,36.119855,128.120146,경상북도 김천시 김천로 178-1 ,054-434-3597
포항통닭,NOT_RECORD,35.820259,128.738354,경상북도 경산시 경안로30길 1 ,053-814-4712
평양왕순대국밥,NOT_RECORD,35.944376,128.83621,경상북도 경산시 와촌면 덕촌길 19-2 ,053-853-0677
옛집칼국수,NOT_RECORD,35.797785,129.205471,경상북도 경주시 삼릉2길 10 ,054-745-1129
청봉숯불구이전문점,NOT_RECORD,36.8832324958426,128.816237451588,경상북도 봉화군 봉성면 봉명로 565-1 ,054-672-1116
초원암소숯불,NOT_RECORD,35.687648,129.340672,경상북도 경주시 외동읍 모화북1길 129 ,054-777-2289
삼강주막,NOT_RECORD,36.5633516273504,128.298133286977,경상북도 예천군 풍양면 삼강리길 27 ,054-655-3132
일미식육식당,NOT_RECORD,35.875416,128.812668,경상북도 경산시 진량읍 낙산길 9 ,053-852-3548
동악골금재가든,NOT_RECORD,36.596695,128.784145,경상북도 안동시 와룡면 동악골길 166 ,054-855-9380
배신식당,NOT_RECORD,36.190928,128.230659,경상북도 김천시 감문면 배시내길 46 ,054-430-5834
삼영복식당,NOT_RECORD,35.8455591700372,129.210001630401,경상북도 경주시 봉황로 67 ,054-771-3030
아르떼,NOT_RECORD,35.8353398511229,129.212489480037,경상북도 경주시 첨성로99번길 23-2 ,010-3936-2762
이이로 커피,NOT_RECORD,35.8351582288586,129.212708065492,경상북도 경주시 첨성로99번길 22 ,010-6619-8788
용산회식당,NOT_RECORD,35.751601477633,129.205934011338,경상북도 경주시 내남면 포석로 112 ,054-748-2119
대구해장국,NOT_RECORD,35.840792,129.216504,경상북도 경주시 태종로 810-1 ,054-749-1577
정도너츠,NOT_RECORD,36.875086,128.539898,경상북도 영주시 풍기읍 소백로 2000 ,054-636-0067
자인식육식당,NOT_RECORD,35.8183857543959,128.821993599595,경상북도 경산시 자인면 일연로 56 ,053-856-2158
금성식당,NOT_RECORD,37.0586435465493,129.424997898173,경상북도 울진군 죽변면 죽변중앙로 194 ,054-781-5737
초원통닭삼계탕,NOT_RECORD,36.039792,129.365869,경상북도 포항시 북구 중앙상가길 60 ,054-247-3313
함양집(경주점),NOT_RECORD,35.852048,129.262218,경상북도 경주시 북군1길 10-1 ,054-777-6947
고향밀면,NOT_RECORD,35.841545929710975,129.21444311395862,경상북도 경주시 태종로791번길 7 ,054-741-7169
안동소문난국밥,NOT_RECORD,36.074945606109104,129.38921819008218,경상북도 포항시 북구 환호로 77 ,054-243-3579
다과와,NOT_RECORD,35.8402526316959,129.229524885426,경상북도 경주시 임해로96번길 5 2층,010-5772-5251
고릴라커피,NOT_RECORD,36.8250809381002,128.624584000395,경상북도 영주시 번영로 157-1 ,054-637-3066
맘모스제과(송현동점),NOT_RECORD,36.571691,128.698058,경상북도 안동시 경동로 338 ,054-856-2000
문경약돌한우타운,NOT_RECORD,36.742119,128.082531,경상북도 문경시 문경읍 문경대로 2426 2층,054-572-2655
고궁,NOT_RECORD,35.978559,128.427382,경상북도 칠곡군 왜관읍 칠곡대로 1815-2 ,054-974-0055
귀빈대게회타운,NOT_RECORD,36.367292,129.394414,경상북도 영덕군 강구면 영덕대게로 207 ,054-734-4024
서원한정식,NOT_RECORD,36.3504915847435,128.697112833777,경상북도 의성군 의성읍 동서2길 28-1 ,054-834-0054
도남식당,NOT_RECORD,36.240181,128.56803,경상북도 군위군 군위읍 중앙길 133-1 ,054-382-0701
황남맷돌순두부,NOT_RECORD,35.8330118268138,129.213379287372,경상북도 경주시 놋전2길 3 ,054-771-7171
삼장매운탕,NOT_RECORD,36.1487320009923,128.59779353389,경상북도 군위군 효령면 치산효령로 2242 ,054-382-6571
프로방스,NOT_RECORD,35.6841011584163,128.718184478287,경상북도 청도군 화양읍 이슬미로 272-23 ,054-371-9998
별미회식당,NOT_RECORD,36.627311419176,129.413839035833,경상북도 영덕군 병곡면 흰돌로 255 ,054-732-1140
랑꽁뜨레(금장점),NOT_RECORD,35.870439954623,129.203617656555,경상북도 경주시 현곡면 금장5길 34 신한토탈아파트,054-741-8017
토함산식당,NOT_RECORD,35.798516,129.31271,경상북도 경주시 새골길 197 ,054-745-1752
오대양물회,NOT_RECORD,36.046661,129.368095,경상북도 포항시 북구 대신로 28-1 ,054-244-7164
비룡,NOT_RECORD,35.7727070788959,129.307197891587,경상북도 경주시 구매3길 28 ,054-745-5051
여담,NOT_RECORD,36.0768683678018,128.321761430162,경상북도 칠곡군 북삼읍 숭산로 268 ,054-975-2552
초원식당,NOT_RECORD,36.001058,129.255203,경상북도 경주시 강동면 양동마을길 148 ,054-762-4436
채가네들깨국수,NOT_RECORD,36.732382,128.111561,경상북도 문경시 문경읍 온천3길 10-16 ,054-571-8881
선산고을,NOT_RECORD,36.1168667623011,128.348010315285,경상북도 구미시 신시로16길 83 ,054-456-1400
소백산풍기인삼순대,NOT_RECORD,36.8790409435241,128.501341163605,경상북도 영주시 풍기읍 죽령로 1166 ,054-636-6631
부촌가든,NOT_RECORD,36.0138727440644,128.604676665935,경상북도 칠곡군 동명면 한티로 790-8 ,054-975-4838
용궁순대,NOT_RECORD,36.6074765865114,128.282490692463,경상북도 예천군 용궁면 용궁로 158 ,054-655-4554
카페737,NOT_RECORD,35.837534,129.218603,경상북도 경주시 원화로 189 ,054-741-0235
성주가나안농장,NOT_RECORD,35.908907,128.198201,경상북도 성주군 금수면 명천로3길 98 ,054-931-6583
전원숯불가든,NOT_RECORD,35.941165,128.898293,경상북도 영천시 금호읍 원제1길 4 ,054-335-7829
화산운수대통한우,NOT_RECORD,35.853831,129.269348,경상북도 경주시 보문로 132-5 ,054-763-6767
백설분식,NOT_RECORD,35.990776,129.554465,경상북도 포항시 남구 구룡포읍 구룡포길 77-3 ,054-276-2219
양포삼거리생아구탕,NOT_RECORD,35.8778626500593,129.516613980366,경상북도 포항시 남구 장기면 동해안로 3259 ,054-276-0229
서울식육식당,NOT_RECORD,35.9964978286788,128.398917422247,경상북도 칠곡군 왜관읍 중앙로 241 ,054-973-9118
개미분식,NOT_RECORD,35.916738,128.821232,경상북도 경산시 하양읍 조산천동길 46 ,053-851-4835
개미산곰장어,NOT_RECORD,36.033588,129.365215,경상북도 포항시 북구 죽도로 39-2 ,054-249-3359
솔베이지,NOT_RECORD,36.595978,128.200096,경상북도 문경시 중앙로 126 ,054-555-9434
어림지해장국,NOT_RECORD,35.853458,129.224652,경상북도 경주시 양정로 232 ,0504-2015-0017
영빈원,NOT_RECORD,35.6411812523794,128.746369725737,경상북도 청도군 청도읍 청화로 201 ,054-371-2006
품안,NOT_RECORD,35.798355,129.312172,경상북도 경주시 새골길 191 ,054-777-1047
와인터널,NOT_RECORD,35.713344,128.720333,경상북도 청도군 화양읍 송금길 85 ,054-371-1904
청풍정횟집펜션,NOT_RECORD,36.164718,129.399066,경상북도 포항시 북구 흥해읍 해안로1774번길 43 ,054-262-7377
란나타이(포항점),NOT_RECORD,36.019807,129.341097,경상북도 포항시 남구 대이로 51 ,054-282-2020
마라도회식당,NOT_RECORD,36.06477,129.387188,경상북도 포항시 북구 해안로 217-1 ,054-251-3850
고향칼국수,NOT_RECORD,35.81664,128.822136,경상북도 경산시 자인면 자인로 207 ,053-857-9907
당신을위한밥,NOT_RECORD,35.8646758635426,129.21960744200814,경상북도 경주시 원지길12번길 44-6 ,054-777-7005
순수보리밥,NOT_RECORD,36.15332013594371,128.3163543874042,경상북도 구미시 봉곡남로25길 21 1층,054-443-1120
강남반점,NOT_RECORD,35.6908624588602,128.892846560752,경상북도 청도군 금천면 선암로 618 ,054-373-1569
가봉반과,NOT_RECORD,35.8336012629424,129.20880861952,경상북도 경주시 첨성로 61-7 ,054-744-6648
