name,ribbonType,latitude,longitude,address,phone
대광식당,RIBBON_TWO,35.1440360460934,126.839136628554,광주광역시 서구 상무대로695번길 15 ,062-226-3939  
김가원,RIBBON_ONE,35.1428617238044,126.921112360948,광주광역시 동구 백서로 145-1 2층,062-382-8700  
라비올레따,RIBBON_ONE,35.105316059605,126.869922783393,광주광역시 남구 효천로92번길 40 2층,062-652-1369  
화이트셔츠커피,RIBBON_ONE,35.1525421939005,126.871959311877,광주광역시 서구 월드컵4강로182번길 21 지하 1층,010-6496-0606  
광주옥1947 ,RIBBON_ONE,35.1524902757948,126.88366875296,광주광역시 서구 상무대로 1104-20 ,062-362-1616  
카페304,RIBBON_ONE,35.1443297071938,126.840088340695,광주광역시 서구 상무누리로 15 ,062-385-0304  
까사델커피,RIBBON_ONE,35.1437086514286,126.910364828774,광주광역시 남구 중앙로110번길 31 ,0507-1397-3114  
로니끄,RIBBON_ONE,35.149776916800185,126.92500564356207,광주광역시 동구 동계천로 137-13 ,062-454-4501  
알랭,RIBBON_ONE,35.150735,126.925645,광주광역시 동구 동명로20번길 17-6 ,062-228-2345  
막동이회관,RIBBON_ONE,35.125626,126.931824,광주광역시 동구 남문로 614 ,062-222-0840  
가족회관,RIBBON_ONE,35.15121,126.925987,광주광역시 동구 동명로 50 ,062-222-3845  
가매일식,RIBBON_ONE,35.152499,126.883834,광주광역시 서구 상무대로 1104-26 ,062-352-7711  
미미원,RIBBON_ONE,35.1470414225913,126.926553400152,광주광역시 동구 백서로 218 ,062-228-3101  
연화,RIBBON_ONE,35.147845,126.853111,광주광역시 서구 마륵복개로 147 ,062-384-1142  
신락원,RIBBON_ONE,35.1505617573345,126.913291884113,광주광역시 동구 충장로 45-5 ,062-223-6849  
커피볶는집마루,RIBBON_ONE,35.148334,126.924833,광주광역시 동구 장동로 23-10 ,062-233-5006  
로이스커피,RIBBON_ONE,35.138779,126.915632,광주광역시 남구 백서로 70 ,062-672-7935  
송정떡갈비,RIBBON_ONE,35.138939,126.794842,광주광역시 광산구 광산로29번길 1 ,062-944-1439  
영광오리탕,RIBBON_ONE,35.162062,126.906179,광주광역시 북구 경양로119번길 18 ,062-524-0443  
광양숯불구이,RIBBON_ONE,35.150417,126.930509,광주광역시 동구 필문대로 229 ,062-226-9090  
석암돌솥밥,RIBBON_ONE,35.187168,126.920503,광주광역시 북구 대천로139번길 8-1 ,062-262-2222  
영발원,RIBBON_ONE,35.16005,126.900384,광주광역시 북구 서림로 141 ,062-525-7436  
나정상회,RIBBON_ONE,35.151073,126.836814,광주광역시 서구 상무자유로 24 ,062-944-1489  
예향식당,RIBBON_ONE,35.147418,126.912695,광주광역시 동구 중앙로 150-4 ,062-234-7731  
영미오리탕,RIBBON_ONE,35.161374,126.905559,광주광역시 북구 경양로 126 ,062-527-0248  
홍아네,RIBBON_ONE,35.146626,126.852622,광주광역시 서구 마륵복개로150번길 7 ,062-384-9400  
궁전제과,RIBBON_ONE,35.147698,126.917662,광주광역시 동구 충장로 93-6 ,062-222-3477  
라롱드꺄레,RIBBON_ONE,35.1320139793883,126.945467761557,광주광역시 동구 의재로136번길 35 ,062-232-3375  
배리스키친,RIBBON_ONE,35.188632,126.823815,광주광역시 광산구 임방울대로 324 1층,062-953-3367  
동경화로,RIBBON_ONE,35.154608216345835,126.85388761204993,광주광역시 서구 시청로60번길 21-9 콜럼버스시네마,062-383-7567  
동성떡갈비,NOT,35.1399908531024,126.794226294194,광주광역시 광산구 광산로29번길 16 동성빌딩 1층,062-944-8686  
유향,NOT,35.179148802848,126.806924599572,광주광역시 광산구 용아로400번길 33 ,062-954-9530  
반가사유,NOT,35.1435667885526,126.921977820545,광주광역시 동구 백서로153번길 6 ,010-9234-2586  
맥문동,NOT,35.1426350442913,126.835233299661,광주광역시 서구 마륵로 24  ,062-373-0895  
그리지오,NOT,35.1432074942454,126.848491488178,광주광역시 서구 서광주로 181 ,062-376-9930  
갯마을산장어숯불구이,NOT,35.139964,126.860993,광주광역시 서구 금부로 111 ,062-373-3367  
평화식당,NOT,35.146107,126.915316,광주광역시 동구 서석로7번길 6-27 ,062-226-6226  
낙지한마당,NOT,35.152003947053,126.864459862647,광주광역시 서구 월드컵4강로181번길 45 ,062-375-3700  
1960청원모밀,NOT,35.149144,126.914459,광주광역시 동구 중앙로 174-1 ,062-222-2210  
쌍학,NOT,35.149469,126.911918,광주광역시 동구 구성로152번길 13 ,062-225-5200  
온천할머니집,NOT,35.149626,126.944742,광주광역시 동구 지호로127번길 29 ,062-225-0776  
새반도정,NOT,35.15314,126.913507,광주광역시 동구 독립로264번길 26-1 ,062-223-9489  
황톳길,NOT,35.1513844653032,126.924379825371,광주광역시 동구 동명로26번길 5-1 ,062-226-1550  
영안반점,NOT,35.150798,126.91354,광주광역시 동구 충장로 45-13 ,062-223-6098  
제일반점,NOT,35.151491,126.912645,광주광역시 동구 구성로 174 ,062-223-6395  
할매추어탕,NOT,35.15800101908962,126.91952792853603,광주광역시 동구 구성로 269 ,062-232-0897  
주정숙청국장,NOT,35.16291,126.916974,광주광역시 동구 독립로368번길 27 ,062-224-3583  
내고향찐빵손만두,NOT,35.184372,126.832984,광주광역시 광산구 목련로394번길 9-13 ,062-955-1999  
삼희불낙,NOT,35.1555729538212,126.83848998676393,광주광역시 서구 상무누리로 143 ,062-383-3233  
베비에르과자점,NOT,35.125079,126.878497,광주광역시 서구 풍암중앙로 37 그랜드프라자,062-682-0696  
화정떡갈비,NOT,35.139236,126.794979,광주광역시 광산구 광산로29번길 6 ,062-944-1275  
해송,NOT,35.170799,126.905995,광주광역시 북구 서양로41번길 9 ,062-523-0204  
원조동곡식당,NOT,35.099186,126.775136,광주광역시 광산구 동곡로185번길 9-1 ,062-943-5005  
서울곱창,NOT,35.138682,126.796398,광주광역시 광산구 송정로15번길 71 ,062-944-1135  
명화식육식당,NOT,35.12300030057456,126.72244881677213,광주광역시 광산구 평동로 421 ,062-943-7760  
풀,NOT,35.1399577224631,126.915377801687,광주광역시 남구 백서로 83-1 ,062-676-3388  
돌매순두부,NOT,35.109896,126.876616,광주광역시 남구 송암로 57-1 ,062-674-3355  
광명식당,NOT,35.139877,126.882346,광주광역시 서구 월드컵4강로28번길 50-17 ,062-367-2085  
창억떡집,NOT,35.16074,126.907667,광주광역시 북구 경열로 242 ,062-520-6000  
양인제과,NOT,35.138643006235355,126.91373136812179,광주광역시 남구 제중로47번길 1 ,062-651-8241  
명송생복집,NOT,35.158272,126.847815,광주광역시 서구 치평로 124 케이원오피스타운,062-452-3355  
육전명가,NOT,35.151275,126.853305,광주광역시 서구 상무자유로 174 ,062-384-6767  
구름곶,NOT,35.1965101697623,126.840986151718,광주광역시 광산구 왕버들로289번길 25 ,062-952-2541  
양림빵집,NOT,35.13782207869632,126.91531230985869,광주광역시 남구 양림로 61-5 ,062-655-0455  
코에루,NEW,35.2143517254971,126.852021819493,광주광역시 광산구 첨단강변로87번길 5 야스텍타워 208호,010-4379-4838
올데이우동,NEW,35.2142794999019,126.846426652188,"광주광역시 광산구 임방울대로800번길 71 아크레타 첨단 2층 206, 207호",0508-4265-8611
늘푸른흑염소가든(광주노대점),NEW,35.1021607257782,126.900911416043,광주광역시 남구 효우로 142 ,0507-1320-9608
아스라이,NEW,35.2163759055157,126.849476939811,광주광역시 광산구 임방울대로826번길 19-20 보이저첨단 2층 아스라이,0507-1352-2328
리베르띠,NEW,35.146310444186,126.885261956906,광주광역시 서구 군분로169번길 13 ,070-4066-5751
꽈르르,NOT_RECORD,35.1882733804562,126.831296857721,광주광역시 광산구 수완로50번길 59 1층 꽈르르,010-7662-6923
다연닭갈비,NOT_RECORD,35.1527487393055,126.857928105657,광주광역시 서구 상무민주로 23-1 ,010-8006-3269
브우디엔,NOT_RECORD,35.1601706860183,126.847956473666,광주광역시 서구 시청서편로4번길 19-22 MVG,062-373-2744
테이트모던,NOT_RECORD,35.1439808889848,126.838125962119,광주광역시 서구 상무대로673번길 24  ,062-383-0895
미드나잇익스프레스,NOT_RECORD,35.1392534882286,126.916025933942,광주광역시 남구 백서로 76 아크레타1층,010-6637-1996
테리킴스테이크,NOT_RECORD,35.1501888488295,126.922726539403,광주광역시 동구 동명로 9 2층,010-2293-8614
영성원,NOT_RECORD,35.146795,126.922616,광주광역시 동구 제봉로82번길 13-7 ,062-227-2887
초원식당,NOT_RECORD,35.080539589669,126.833437822643,광주광역시 남구 포충로 584 ,062-374-4509
하당먹거리,NOT_RECORD,35.1720922509246,126.806517009079,광주광역시 광산구 목련로 80 ,062-953-6169
김명화서리태콩국수,NOT_RECORD,35.1485810625633,126.908810918137,광주광역시 남구 천변좌로338번길 16 ,062-651-3232
김상궁,NOT_RECORD,35.1927097555814,126.829496172484,광주광역시 광산구 수완로 86 ,062-959-9880
대밭가든,NOT_RECORD,35.1504152224841,126.943741060702,광주광역시 동구 지호로 179-10 ,062-222-9738
산일능이버섯백숙,NOT_RECORD,35.1446559261187,126.847800097343,광주광역시 서구 마륵복개로 74 ,062-384-5223
수자타,NOT_RECORD,35.1320462302245,126.946642399757,광주광역시 동구 동산길7번길 3 ,062-222-1145
연제장어,NOT_RECORD,35.1979828048672,126.874349396908,광주광역시 북구 양일로 85 ,062-573-9297
윤가네 나주곰탕,NOT_RECORD,35.1312736738996,126.924300333855,광주광역시 남구 천변좌로566번길 5 ,062-672-9707
정광석항아리보쌈 매월점,NOT_RECORD,35.1272621313601,126.852367460867,광주광역시 서구 화개중앙로 97 ,062-682-2220
로지에,NOT_RECORD,35.166880612775,126.864708940673,광주광역시 서구 유림로50번길 9 ,0507-1397-3609
마리오셰프,NOT_RECORD,35.1382723202655,126.914174841179,광주광역시 남구 제중로 42 ,062-682-5595
굽는당,NOT_RECORD,35.1960412506558,126.820273448948,광주광역시 광산구 장덕로95번길 16 수완2차숲안애 206동 105호,010-7780-1364
계림동잔치집,NOT_RECORD,35.1618255745011,126.916070353012,광주광역시 동구 무등로306번길 6-1 ,062-511-9989
라인벡,NOT_RECORD,35.188455719102,126.830969839581,광주광역시 광산구 수완로50번길 44-5 ,0507-1491-062
충장빈대떡집,NOT_RECORD,35.1562671759912,126.931897178028,광주광역시 동구 필문대로 161 ,062-263-8771
오귀스트,NOT_RECORD,35.1540963760343,126.887547970071,광주광역시 서구 상무대로 1153 빌리브 트레비체 A동 B07호,010-2485-8784
테스팅노트,NOT_RECORD,35.1455592395588,126.885919353178,광주광역시 서구 군분로159번길 13 ,010-4900-9421
제주생갈비,NOT_RECORD,35.1212993476265,126.916990791225,광주광역시 남구 용대로53번길 8 ,062-675-8206
갓포이에,NOT_RECORD,35.1510553661348,126.849937321267,광주광역시 서구 상무연하로 31 f&t비지니스호텔,062-714-1002
명품상무팥죽,NOT_RECORD,35.1457073145851,126.842472227221,광주광역시 서구 마륵로 100 대광빌딩1층,062-385-5711
레파스,NOT_RECORD,35.1215389135739,126.915401900809,광주광역시 남구 용대로53번길 22-1 ,062-384-0025
퀴비,NOT_RECORD,35.150801069729,126.923748783162,광주광역시 동구 동명로20번길 1 퀴비,010-5099-4209
레파스(수완점),NOT_RECORD,35.192377641056,126.82434842355,광주광역시 광산구 임방울대로 362 ,062-951-4029
파쿠야(용봉점),NOT_RECORD,35.1791264391703,126.893305546278,광주광역시 북구 설죽로217번길 37-2 ,062-716-6109
나나방콕,NOT_RECORD,35.1513197020217,126.853892942225,광주광역시 서구 상무자유로 180 대선빌딩 1층 나나방콕,062-381-7500
밀가손칼국수,NOT_RECORD,35.191499271214,126.811054478762,광주광역시 광산구 장신로19번안길 5-3 ,062-954-7771
르비엔,NOT_RECORD,35.1540963760343,126.887547970071,"광주광역시 서구 상무대로 1153 빌리브 트레비체 A동 B05호, B06호",062-710-2608
기밀,NOT_RECORD,35.1764994415874,126.917029895584,광주광역시 북구 우치로100번길 84 1층 101호,010-6334-7509
틸트틸트,NOT_RECORD,35.1541324117909,126.922476423543,광주광역시 동구 동계로15번길 22 1층 ,010-2209-4304
아코다초코,NOT_RECORD,35.1463660297692,126.874416602342,광주광역시 서구 화정로153번길 12 ,062-433-8803
나나방콕(수완점),NOT_RECORD,35.1916155062158,126.827708505025,광주광역시 광산구 수완로73번길 17 리코빌딩 1층 ,062-951-1112
수완지구폼,NOT_RECORD,35.1893447394618,126.83195210524,광주광역시 광산구 수완로10번길 94 1층,062-431-1777
정초밥,NOT_RECORD,35.1237104491106,126.907462351856,광주광역시 남구 제석로 104 HR메디웰,062-651-7878
족발집배원 ,NOT_RECORD,35.1854404722479,126.920704531796,광주광역시 북구 대천로 124-5 ,062-266-6004
써지라멘,NOT_RECORD,35.2073380885598,126.861351415748,광주광역시 북구 첨단연신로107번길 25 성훈빌딩,062-571-6636
하마네아구찜(수완점),NOT_RECORD,35.1871649205541,126.829128967475,광주광역시 광산구 수완로14번길 27 ,062-441-9300
하마네아구찜(상무점),NOT_RECORD,35.1554682000792,126.853511713535,광주광역시 서구 상무시민로 131 ,062-381-1567
라제스,NOT_RECORD,35.1206855720846,126.865836549352,광주광역시 서구 풍금로 5 ,062-671-8668
스치울때,NOT_RECORD,35.1781858086984,126.913324037917,광주광역시 북구 면앙로6번길 49 1층,010-9591-7391
르시엘블루,NOT_RECORD,35.143371,126.8428,광주광역시 서구 상무대로 718 ,062-374-1555
빛고을찐빵만두,NOT_RECORD,35.13898,126.858194,광주광역시 서구 운천로 73 ,062-384-1070
두레박,NOT_RECORD,35.132556,126.851016,광주광역시 서구 금호만호길 47 ,062-372-6664
소망생고기,NOT_RECORD,35.14827,126.849609,광주광역시 서구 상무평화로 97-1 ,062-371-7396
미니밀,NOT_RECORD,35.1545946620995,126.934940512829,광주광역시 동구 필문대로187번길 19-2 ,062-225-8677
구드,NOT_RECORD,35.1486460542708,126.922545935861,광주광역시 동구 제봉로110번길 5-1 ,062-412-2272
이조감자탕,NOT_RECORD,35.1451173098309,126.929166876095,광주광역시 동구 필문대로287번길 19 ,062-228-9030
철주네식육식당,NOT_RECORD,35.165085,126.858741,광주광역시 서구 상무버들로54번길 17 ,062-381-5955
창억예다손떡(상무점),NOT_RECORD,35.153527,126.847666,광주광역시 서구 치평로 70 ,062-373-9393
삼미관,NOT_RECORD,35.145775,126.924315,광주광역시 동구 백서로189번길 14-32 ,062-227-0391
덕산오징어보쌈,NOT_RECORD,35.12677,126.93155,광주광역시 동구 남문로622번길 1 ,062-223-5868
온다방,NOT_RECORD,35.1515755452811,126.91207943298,광주광역시 동구 구성로 169-2 ,010-9999-7610
토라네코,NOT_RECORD,35.1484823097929,126.92459859181182,광주광역시 동구 장동로 23-33 ,062-676-0445
산수원,NOT_RECORD,35.1536456739813,126.925929251001,광주광역시 동구 동명로67번길 32-9 ,062-228-8025
송학한정식,NOT_RECORD,35.155875,126.847808,광주광역시 서구 상무중앙로 101 ,062-385-3333
창억떡집(광주점),NOT_RECORD,35.148858,126.927678,광주광역시 동구 동계천로 170 ,062-222-1286
정열식당,NOT_RECORD,35.144201,126.917757,광주광역시 동구 백서로125번길 27 ,062-233-7979
청해복집,NOT_RECORD,35.14541,126.918839,광주광역시 동구 문화전당로35번길 3-5 ,062-222-0606
장씨복집,NOT_RECORD,35.150322,126.916245,광주광역시 동구 중앙로196번길 4 ,062-514-2626
홍궁,NOT_RECORD,35.1628257920355,126.915651465191,광주광역시 동구 무등로 295 ,062-419-7788
금탑소머리국밥,NOT_RECORD,35.154226,126.911792,광주광역시 동구 독립로264번길 6 ,062-224-3380
아리랑하우스,NOT_RECORD,35.162089,126.918731,광주광역시 동구 무등로321번길 2 금수장관광호텔,062-529-2888
참뫼,NOT_RECORD,35.149644,126.918467,광주광역시 동구 중앙로196번길 23-12 ,062-222-1215
화랑궁회관,NOT_RECORD,35.152021,126.916555,광주광역시 동구 구성로204번길 23 ,062-224-1800
츄룹,NOT_RECORD,35.1455562038771,126.918717256072,광주광역시 동구 문화전당로35번길 3 ,062-222-3354
구수향,NOT_RECORD,35.1499809456109,126.919061183117,광주광역시 동구 예술길 23-6 ,062-266-7200
영양오리탕,NOT_RECORD,35.161412,126.905206,광주광역시 북구 경양로 122 ,062-524-6687
파쿠야,NOT_RECORD,35.1572268200733,126.878604130638,광주광역시 서구 내방로 348 ,062-366-2722
파쿠야(수완점),NOT_RECORD,35.1920446728007,126.830477748479,광주광역시 광산구 수완로74번길 29-5 ,062-959-1599
춘하추동오리탕,NOT_RECORD,35.161174,126.906303,광주광역시 북구 경양로 132 ,062-524-6226
디아망과자점,NOT_RECORD,35.191624,126.825731,광주광역시 광산구 임방울대로358번길 28 ,062-956-3315
호미도,NOT_RECORD,35.1772672586694,126.913355531911,광주광역시 북구 면앙로6번길 68 ,062-710-6886 
육각커피,NOT_RECORD,35.1387720347839,126.913666053121,광주광역시 남구 제중로47번길 2 ,062-671-8241
히쿠,NOT_RECORD,35.2049451310666,126.898690081252,광주광역시 북구 설죽로 518-4 두경타워 107호,010-4379-4838
양왕,NOT_RECORD,35.1222644408419,126.86875336167,광주광역시 서구 풍암신흥로62번길 1 ,062-653-6538
심경희 라라랜드,NOT_RECORD,35.1571773819704,126.879463244108,광주광역시 서구 내방로 356 ,062-710-4525
파쿠야(봉선점),NOT_RECORD,35.1319136248552,126.910275168626,광주광역시 남구 봉선중앙로123번길 3 ,062-653-9164
플레이커피,NOT_RECORD,35.1602820721041,126.888356383387,광주광역시 서구 월산로 274 ,010-2480-2153
정가네옹기맛,NOT_RECORD,35.122646,126.884987,광주광역시 서구 풍암순환로128번길 3 ,062-681-3359
데이지,NOT_RECORD,35.121293,126.917533,광주광역시 남구 용대로53번길 4 ,062-671-5673
즉석왕족발,NOT_RECORD,35.129013,126.909301,광주광역시 남구 봉선1로37번길 12 ,062-671-2760
원조해남장수촌닭,NOT_RECORD,35.220504,126.879439,광주광역시 북구 하서로 519 ,062-572-8825
나주곰탕하얀집,NOT_RECORD,35.214969,126.876441,광주광역시 북구 하서로 454 ,062-574-2288
완도금일회타운,NOT_RECORD,35.180994,126.928553,광주광역시 북구 문화소통로302번길 53 ,062-267-9902
시골농장,NOT_RECORD,35.150286,126.89239,광주광역시 서구 경열로54번길 3-1 ,062-364-3226
시골농장,NOT_RECORD,35.126187,126.859363,광주광역시 서구 풍금로100번길 40-35 ,062-681-0649
장원정,NOT_RECORD,35.138274,126.793154,광주광역시 광산구 송정로1번길 32 ,062-942-1400
골목길,NOT_RECORD,35.15553,126.908796,광주광역시 북구 독립로255번길 46 ,062-526-3258
장안동왕족발,NOT_RECORD,35.123916,126.880084,광주광역시 서구 풍암2로 38 ,062-681-8002
매월농원,NOT_RECORD,35.119506,126.846493,광주광역시 서구 전평길 66 ,062-373-5164
고려조삼계탕,NOT_RECORD,35.21817035213256,126.84692006341677,광주광역시 광산구 임방울대로 809 ,062-974-3398 
원조용전식육회관,NOT_RECORD,35.204922,126.90234,광주광역시 북구 삼각월산길 2-1 ,062-575-3320
장성오리탕,NOT_RECORD,35.161431,126.906308,광주광역시 북구 경양로 131 ,062-526-1504
초가왕족발,NOT_RECORD,35.169417,126.903911,광주광역시 북구 자미로 40 ,062-512-9303
초유지,NOT_RECORD,35.221116,126.878457,광주광역시 북구 하서로523번길 11 ,062-571-1137
파라뷰,NOT_RECORD,35.151981,126.850553,광주광역시 서구 상무자유로 149 라마다프라자광주호텔 17층,062-717-8888
조선옥,NOT_RECORD,35.0964896803868,126.90729735327,광주광역시 남구 효덕로 105 ,062-654-3322
꽃담,NOT_RECORD,35.2242042779456,126.837464385593,광주광역시 광산구 첨단과기로 109 ,062-974-0001
깻잎통닭,NOT_RECORD,35.1715734089227,126.904972406077,광주광역시 북구 자미로66번길 2 ,062-525-8875
남부아구찜,NOT_RECORD,35.2210193130946,126.840820173537,광주광역시 광산구 첨단중앙로181번길 5 ,062-972-1592
똑순이아구찜,NOT_RECORD,35.162305,126.934409,광주광역시 북구 밤실로167번길 4 ,062-268-0303
제주흑돈하루,NOT_RECORD,35.1029506236995,126.899414634596,광주광역시 남구 효우로130번길 56 ,062-652-9333
하남낙지마당,NOT_RECORD,35.1626785969897,126.80914754826,광주광역시 광산구 사암로216번길 10-15 ,062-955-8892
미래연,NOT_RECORD,35.159242,126.858708,광주광역시 서구 내방로161번길 4 ,062-376-9873
다연정식,NOT_RECORD,35.182501,126.897054,광주광역시 북구 비엔날레로 183-5 ,062-267-0110
청석골 칡냉면,NOT_RECORD,35.210944,126.8378,광주광역시 광산구 산월로3번길 46 ,062-971-7717
반월추어탕,NOT_RECORD,35.1949899861778,126.850133937441,광주광역시 광산구 월봉반월길 19 ,062-951-7771
금호국밥감자탕,NOT_RECORD,35.161996,126.88466,광주광역시 서구 죽봉대로94번길 9 ,062-351-1432
옛날에금잔디보리밥집,NOT_RECORD,35.127293,126.789566,광주광역시 광산구 도산로9번길 54 ,062-941-5316
동경화로라운지,NOT_RECORD,35.124687220429095,126.91004666953646,광주광역시 남구 봉선로133번길 15 ,062-652-7567
두암골풍천장어,NOT_RECORD,35.16238342912025,126.93449054959319,광주광역시 북구 밤실로167번길 2 ,062-251-1331
이조송정떡갈비,NOT_RECORD,35.13950334567472,126.7932955880572,광주광역시 광산구 광산로19번길 30 ,062-944-9592
