name,ribbonType,latitude,longitude,address,phone
원조현풍박소선할매집곰탕,RIBBON_TWO,35.69458471340069,128.4457832805499,대구광역시 달성군 현풍읍 현풍중앙로 56-1 ,053-614-2143
왕거미식당,RIBBON_TWO,35.868526,128.606687,대구광역시 중구 국채보상로 696-8 ,053-427-6380  
정이품,RIBBON_TWO,35.8580913894178,128.632793463062,대구광역시 수성구 범어로19길 54-1 ,053-752-6228  
투웰브키친,RIBBON_TWO,35.830197,128.615152,대구광역시 수성구 무학로11길 10 ,053-652-8007  
시칠리아파스타바,RIBBON_ONE,35.8596023276928,128.638240415548,대구광역시 수성구 동원로1길 35 ,070-8287-1780  
새밭골농장,RIBBON_ONE,35.9190060911906,128.717778541051,대구광역시 동구 매여로 463-6 ,053-963-3560  
성서제1능이버섯능이백숙,RIBBON_ONE,35.8531192251442,128.505159362715,대구광역시 달서구 달구벌대로251길 12 ,0507-1361-4774  
아소다이닝,RIBBON_ONE,35.8562429747982,128.634118643294,대구광역시 수성구 달구벌대로496길 29 ,053-217-1002  
신산홍,RIBBON_ONE,35.8823321773353,128.61768521709,대구광역시 동구 아양로7길 12 신암뜨란채 상가동 108호,010-5451-5650  
커피맛을조금아는남자본점,RIBBON_ONE,35.8605972845882,128.622138112787,대구광역시 수성구 범어천로 153 ,070-4155-4601  
소나무,RIBBON_ONE,35.859978753110774,128.60479518200793,대구광역시 중구 동덕로 56-5 ,053-422-1341  
노다웃,RIBBON_ONE,35.8543722060853,128.492489743631,대구광역시 달서구 서당로7길 64 ,070-4158-7777  
용지봉,RIBBON_ONE,35.83055372265005,128.61615356287723,대구광역시 수성구 들안로 9 ,053-783-8558  
1LL커피,RIBBON_ONE,35.8543713204355,128.478642739054,대구광역시 달서구 달구벌대로203길 26-10 ,0507-1400-6747  
뜨라또리아델리카르도,RIBBON_ONE,35.92232433799451,128.54760696353944,대구광역시 북구 칠곡중앙대로54길 27 ,053-321-1993  
아티코,RIBBON_ONE,35.8270461694833,128.6268601457501,대구광역시 수성구 지범로 43-12 ,010-9166-9279  
더키친노이,RIBBON_ONE,35.848621,128.635668,대구광역시 수성구 청호로69길 51 ,053-741-7272  
형제수산,RIBBON_ONE,35.853532,128.613735,대구광역시 수성구 수성로 314 ,053-766-1313  
큰나무집,RIBBON_ONE,35.733597,128.659536,대구광역시 달성군 가창면 우록길 24 ,053-793-2000  
삐에뜨라,RIBBON_ONE,35.868402,128.58911,대구광역시 중구 약령길 45 ,053-742-4819  
후포회수산,RIBBON_ONE,35.8452553556477,128.617305191539,대구광역시 수성구 들안로 172 ,053-474-9494  
양포수산,RIBBON_ONE,35.842761,128.616258,대구광역시 수성구 들안로 143 ,053-567-6602  
만반,RIBBON_ONE,35.832654,128.617265,대구광역시 수성구 들안로 32 ,053-765-4300  
고향차밭골,RIBBON_ONE,35.9878582410264,128.620579134271,대구광역시 동구 팔공산로 339 ,053-981-5883  
원조제주도백록담통도야지,RIBBON_ONE,35.820875,128.631877,대구광역시 수성구 용학로42길 9 ,053-782-1743  
민수사,RIBBON_ONE,35.831535,128.616235,대구광역시 수성구 들안로 19 ,053-768-2727  
삼송빵집,RIBBON_ONE,35.868612024897,128.593447218741,대구광역시 중구 중앙대로 397 ,053-254-4064  
종로숯불갈비,RIBBON_ONE,35.868188,128.592225,대구광역시 중구 종로 26 ,053-252-7197  
성주숯불갈비식당,RIBBON_ONE,35.8728408205024,128.587765583825,대구광역시 중구 서성로 72 ,053-255-6851  
인비노,RIBBON_ONE,35.86469024368968,128.63417871474678,대구광역시 수성구 국채보상로186길 81 ,053-767-5650  
국일불갈비,RIBBON_ONE,35.874611,128.59646,대구광역시 중구 태평로 172 ,053-424-5820  
대동강,RIBBON_ONE,35.843902,128.603895,대구광역시 남구 대봉로 57-1 ,053-471-3379  
대동면옥,RIBBON_ONE,35.8692604253307,128.585621469476,대구광역시 중구 국채보상로102길 28 ,053-255-4450  
올가닉신라,RIBBON_ONE,35.856485,128.603902,대구광역시 중구 대봉로 200-29 1층,053-421-1628  
단골식당,RIBBON_ONE,35.875983,128.603725,대구광역시 북구 칠성시장로7길 9-1 ,053-424-8349  
동봉숯불구이,RIBBON_ONE,35.858136,128.622747,대구광역시 수성구 범어천로 128 1층,053-756-3668  
녹양,RIBBON_ONE,35.8725612844738,128.594105919501,대구광역시 중구 중앙대로 441 ,053-257-1796  
라벨라쿠치나,RIBBON_ONE,35.830615,128.625386,대구광역시 수성구 무학로 151 ,053-765-4774  
가야성,RIBBON_ONE,35.831454,128.551366,대구광역시 달서구 월배로83길 7 ,053-654-0545  
에스파냐,RIBBON_ONE,35.859466,128.627661,대구광역시 수성구 달구벌대로 2421 ,053-622-2295  
복해반점,RIBBON_ONE,35.8678145743535,128.592124302127,대구광역시 중구 종로 22 ,053-254-8903  
연경반점,RIBBON_ONE,35.845276,128.613156,대구광역시 수성구 수성로 222 연경빌딩,053-763-5988  
동명오코노미야끼,RIBBON_ONE,35.86509125837802,128.5984860953748,대구광역시 중구 동성로4길 10 ,053-424-7792  
8번식당,RIBBON_ONE,35.872395,128.586973,대구광역시 중구 서성로13길 8 ,053-255-0167  
국일따로국밥,RIBBON_ONE,35.871099,128.593168,대구광역시 중구 국채보상로 571 ,053-253-7623  
대덕식당,RIBBON_ONE,35.83107,128.573593,대구광역시 남구 앞산순환로 443 ,053-656-8111  
마루막창,RIBBON_ONE,35.825617,128.622434,대구광역시 수성구 수성못2길 5 ,053-763-3003  
봉산찜갈비,RIBBON_ONE,35.871234,128.605089,대구광역시 중구 동덕로36길 9-18 ,053-425-4203  
동성로생고기,RIBBON_ONE,35.864457591592796,128.5946340613605,대구광역시 중구 명륜로23길 101 ,053-421-1007  
신짜오,RIBBON_ONE,35.827009,128.624359,대구광역시 수성구 수성못6길 20-6 ,010-4450-6544  
영생덕,RIBBON_ONE,35.869388,128.591401,대구광역시 중구 종로 39 ,053-255-5777  
인투,RIBBON_ONE,35.869075,128.599468,대구광역시 중구 동성로4길 95 ,053-421-3965  
교동따로식당,RIBBON_ONE,35.871506300401215,128.5928709969318,대구광역시 중구 경상감영1길 11 ,053-254-8923  
국일생갈비,RIBBON_ONE,35.870349,128.584484,대구광역시 중구 국채보상로 492 ,053-254-5115  
롤러커피,RIBBON_ONE,35.864511777147,128.589267527921,대구광역시 중구 달구벌대로414길 36 ,053-253-7584  
청학식당,RIBBON_ONE,35.847824,128.591446,대구광역시 남구 봉덕로1길 52-1 ,053-474-2807  
삼수장어,RIBBON_ONE,35.863182,128.612237,대구광역시 수성구 신천동로 442 ,053-745-7800  
벙글벙글찜갈비,RIBBON_ONE,35.870992,128.6051,대구광역시 중구 동덕로36길 9-12 ,053-424-6881  
부산안면옥,RIBBON_ONE,35.870625,128.598955,대구광역시 중구 국채보상로125길 4-1 ,053-424-9389  
사야까,NOT,35.8706465991564,128.598833185885,대구광역시 중구 국채보상로125길 4 ,053-427-0141  
보문손칼국수,NOT,35.87630977058431,128.60543016659992,대구광역시 북구 칠성남로 229 칠성시장 내 ,053-423-2116  
가스트로파체,NOT,35.8596122720718,128.637649929357,대구광역시 수성구 달구벌대로501길 7 ,010-5874-2661  
비스트로카라사,NOT,35.9523967022123,128.567430188311,대구광역시 북구 학정로110길 28 ,010-7594-1995  
셀리우,NOT,35.8724682114633,128.598166401698,대구광역시 중구 교동2길 43-9 ,053-260-9999  
상주식당,NOT,35.870377,128.595972,대구광역시 중구 국채보상로 598-1 ,053-425-5924  
아트리움,NOT,35.861613,128.633907,대구광역시 수성구 국채보상로186길 151 ,053-754-3111  
카르멜,NOT,35.8500125117921,128.446987172614,대구광역시 달성군 다사읍 달구벌대로 616 ,053-710-5090  
이모식당,NOT,35.872228,128.586906,대구광역시 중구 서성로13길 9 ,053-255-6971  
이태리앤이태리,NOT,35.839635780031,128.593128235436,대구광역시 남구 삼정길 87 ,053-423-5122  
인화반점,NOT,35.866654,128.630573,대구광역시 수성구 국채보상로 914 호산빌딩,053-751-4191  
수봉반점,NOT,35.8782547470076,128.606403945976,대구광역시 북구 대현남로2길 60 ,053-941-1503  
어노잉,NOT,35.8713784404074,128.599629991522,대구광역시 중구 경상감영길 226 ,010-7653-0920  
장미,NOT,35.8718680276123,128.598851973168,대구광역시 중구 경상감영길 209 1층,053-252-4712  
스시전,NOT,35.6914111531274,128.453738546575,대구광역시 달성군 현풍읍 테크노상업로 26 2층 205호,053-614-6862  
금수강산해물탕,NOT,35.83529430313871,128.61718374206788,대구광역시 수성구 들안로 60 ,010-2235-5034
밀즈,NOT,35.8598391640114,128.638642147713,대구광역시 수성구 동원로1길 26 ,010-4119-0827  
진성식당,NOT,35.8713182152585,128.602302464347,대구광역시 중구 국채보상로131길 34 ,053-423-3141  
금산삼계탕(본점),NOT,35.8342044684755,128.616211900208,대구광역시 수성구 들안로 49 ,053-761-9331  
금곡삼계탕,NOT,35.839343,128.704815,대구광역시 수성구 고산로 96 중원빌딩 2층,053-792-3339  
오호리준,NOT,35.8696716772914,128.593223207554,대구광역시 중구 중앙대로81길 7 ,053-421-8965  
영발장,NOT,35.86421,128.596705,대구광역시 중구 봉산문화길 96 ,053-425-3512  
칠성동할매콩국수,NOT,35.88875507886933,128.5805255861061,대구광역시 북구 침산남로 40 ,053-422-8101  
아리조나막창,NOT,35.825697,128.62496,대구광역시 수성구 용학로25길 45 ,053-782-9323
그저모이기,NOT,35.856427,128.589096,대구광역시 남구 중앙대로51길 26 ,053-621-5179  
석봉포차,NOT,35.8093457240916,128.54785860776622,대구광역시 달서구 월곡로 138 ,053-633-9998  
유창반점,NOT,35.8644929105412,128.588670552093,대구광역시 중구 명륜로 20 ,053-254-7297  
만나식당,NOT,35.88219,128.650158,대구광역시 동구 효동로6길 70 ,053-941-6556  
밀밭베이커리,NOT,35.870458,128.596599,대구광역시 중구 국채보상로 602-1 ,053-426-1601  
가스트로락,NOT,35.8596440830779,128.606317752257,대구광역시 중구 동덕로8길 26-19 ,053-281-5959  
룰리커피,NOT,35.85674632521,128.679720205089,대구광역시 수성구 고모로 188 ,070-4671-6089  
할타보카,NOT,35.85419834101285,128.65360000753907,대구광역시 수성구 교학로 3 금탑아파트 상가 4호,053-752-4742  
구불로식당,NOT,35.914874,128.640605,대구광역시 동구 팔공로35길 2 ,053-983-4584  
정화네하우스,NOT,35.87622349258235,128.60379415549093,대구광역시 북구 칠성남로 216 ,053-423-2503  
김천식당,NOT,35.844815,128.603786,대구광역시 남구 대봉로 67-1 ,053-472-6918  
싱글벙글막창전문점,NOT,35.896634,128.614907,대구광역시 북구 경진로1길 13 ,053-959-3006  
대호불갈비,NOT,35.874016,128.596272,대구광역시 중구 태평로 172-18 ,053-426-4357  
원조돼지갈비찜,NOT,35.8864072366511,128.649242661182,대구광역시 동구 해동로 186 ,053-985-3314  
낙산가든,NOT,35.843532,128.600662,대구광역시 남구 봉덕로20길 24 ,053-471-8897  
미림,NOT,35.870828,128.581111,대구광역시 중구 국채보상로93길 6 ,053-554-6636  
대륙회초밥,NOT,35.83875705557876,128.6162048804827,대구광역시 수성구 들안로 99 ,053-766-8958  
남강회초밥,NOT,35.831255710118285,128.61622091779958,대구광역시 수성구 들안로 17 ,053-767-2233  
미성당납작만두,NOT,35.85745590155795,128.5808470605009,대구광역시 중구 명덕로 93 ,053-255-0742  
남문납짝만두,NOT,35.8614544674523,128.591540421698,대구광역시 중구 명륜로 64-1 ,053-257-1440  
신성가든,NOT,35.880439,128.614867,대구광역시 동구 송라로32길 2 ,053-941-4452  
태산만두,NOT,35.866735,128.594127,대구광역시 중구 달구벌대로 2109-32 ,053-424-0449  
원조할매곰탕집,NOT,35.875265,128.590838,대구광역시 중구 종로 103 ,053-255-1122  
우각정,NOT,35.863638,128.612835,대구광역시 수성구 신천동로 450 ,053-752-2257  
전라도꽃게장,NOT,35.830817610663,128.705367336552,대구광역시 수성구 고산로4길 72 ,053-794-0488  
신라식당,NOT,35.8693584383697,128.59422841428,대구광역시 중구 중앙대로 406-8 ,053-422-3105  
제비원식당,NOT,35.8808880687756,128.579500676077,대구광역시 서구 달서천로87길 4 ,053-358-1514  
본전식당,NOT,35.857182,128.61611,대구광역시 수성구 수성로76길 38 ,053-742-9358  
산꼼파,NOT,35.835201,128.616044,대구광역시 수성구 상화로 81 ,053-765-0592  
루시드,NOT,35.868847,128.599669,대구광역시 중구 동성로4길 94 ,053-422-7020  
아라한참치,NOT,35.83341876157897,128.61619839656814,대구광역시 수성구 들안로 41 ,053-762-6633  
중앙떡볶이,NOT,35.869545134849595,128.59696357366542,대구광역시 중구 동성로2길 81 1층,053-424-7692  
미도다방,NOT,35.868069,128.592691,대구광역시 중구 진골목길 14 ,053-252-9999  
뭄뭄,NOT,35.8143077381378,128.522889903797,대구광역시 달서구 월배로15길 8 ,053-632-4540  
낙원식당,NOT,35.871398,128.597569,대구광역시 중구 국채보상로123길 16 2층,053-425-7167  
오월의아침(1호점),NOT,35.812251,128.547114,대구광역시 달서구 상인서로 8-5 ,053-639-5578  
동곡원조할매손칼국수,NOT,35.8779291293611,128.417675074348,대구광역시 달성군 하빈면 달구벌대로55길 97-5 ,053-582-0278  
앞산할매손칼국수,NOT,35.831102,128.572858,대구광역시 남구 앞산순환로87길 13 ,053-624-3386  
합천할매손칼국수,NOT,35.870029,128.580542,대구광역시 중구 큰장로28길 23 ,053-252-2596  
동이옥,NOT,35.835537973887966,128.6162192535236,대구광역시 수성구 들안로 63 ,053-762-7722  
센도리,NOT,35.833127113164224,128.61724598962692,대구광역시 수성구 들안로 38 ,053-765-4200  
한우장,NOT,35.87103,128.592669,대구광역시 중구 국채보상로 567 ,053-257-1125  
데일리베이킹스튜디오,NOT,35.843091,128.54191,대구광역시 달서구 장기로 167 우정프라자 1층,053-525-3335  
은예문왕소금구이,NOT,35.876265,128.640465,대구광역시 동구 화랑로25길 25 ,053-741-2624  
명동생고기,NOT,35.860567,128.645394,대구광역시 수성구 만촌로 14 ,053-751-6065  
소마구참숯갈비,NOT,35.8455617302033,128.592196413088,대구광역시 남구 봉덕로 13 ,053-476-5556  
극동구이,NOT,35.829958,128.616434,대구광역시 수성구 들안로 1 ,053-761-4500  
묵돌이구이,NOT,35.832316,128.616359,대구광역시 수성구 들안로 27 ,053-767-9233  
진미생고기,NOT,35.880083,128.586895,대구광역시 북구 고성로 194 ,053-357-6438  
삼합가,NOT,35.83361758653045,128.61642375653454,대구광역시 수성구 들안로 43 ,053-768-4775  
풍기삼계탕,NOT,35.83492757039188,128.61711432544254,대구광역시 수성구 들안로 58 ,053-761-1398  
버들식당,NOT,35.847974,128.566829,대구광역시 달서구 두류공원로28길 8 ,053-656-1991  
포레스트26,NOT,35.8324764243942,128.646991331508,대구광역시 수성구 청호로22길 125 ,010-3099-3256  
범어만두,NOT,35.860224,128.627424,대구광역시 수성구 동대구로 336 마크팰리스 상가 1층,053-755-0139  
부창생갈비,NOT,35.870002,128.58474,대구광역시 중구 국채보상로 492-12 ,053-255-0968  
자갈마당복어,NOT,35.889028,128.574629,대구광역시 북구 오봉로1길 30 ,053-358-7112  
복들어온날,NOT,35.871168,128.560141,대구광역시 서구 국채보상로 266 ,053-561-1255  
해금강,NOT,35.88167848981788,128.62940311796828,대구광역시 동구 신암남로 133 ,053-954-2323  
대해복어,NOT,35.843899,128.585902,대구광역시 남구 대명로53길 22-1 대명빌라,053-626-1477  
미남장어,NOT,35.834701020412126,128.6170743143053,대구광역시 수성구 들안로 56 ,053-768-8892  
남강장어,NOT,35.807212,128.521041,대구광역시 달서구 화암로 378 ,053-633-4040  
신신반점,NOT,35.858551,128.560435,대구광역시 달서구 달구벌대로 1786 ,053-625-7750  
원조신암태양칼국수,NOT,35.880441,128.613367,대구광역시 동구 신성로 63 ,053-951-0321  
분더브레드,NOT,35.859135,128.622068,대구광역시 수성구 달구벌대로 2372 ,053-742-2002  
박곡칼국수,NOT,35.885891,128.485532,대구광역시 달성군 다사읍 다사로 529-7 ,053-588-2467  
르배,NOT,35.870425,128.633773,대구광역시 수성구 화랑로8길 11-11 ,053-384-2464  
성림복어,NOT,35.83035859263258,128.61618944243605,대구광역시 수성구 들안로 7 ,053-764-1122  
인도방랑기,NOT,35.892668,128.609183,대구광역시 북구 대학로 81 ,053-956-9940  
금와식당,NOT,35.866785,128.586735,대구광역시 중구 서성로 3 ,053-252-5630  
당인가차이나타운,NOT,35.827582,128.54596,대구광역시 달서구 월배로69길 40 ,053-582-2713  
금성반점,NOT,35.845386,128.599255,대구광역시 남구 이천로12길 14-1 ,053-475-2530  
대풍반점,NOT,35.871628,128.579636,대구광역시 중구 달성공원로 12 ,053-554-4387  
광명반점,NOT,35.879113,128.596916,대구광역시 북구 칠성로 70-1 ,053-424-0938  
진양식당,NOT,35.85500919816055,128.55370944245067,대구광역시 달서구 야외음악당로39동길 9 ,053-656-1108  
개정,NOT,35.867701,128.597993,대구광역시 중구 동성로3길 52 ,053-424-7051  
적두병,NOT,35.873447,128.580732,대구광역시 중구 달성공원로8길 10 달성빌딩 101호,010-2526-5374  
삼락식당,NOT,35.869574,128.595163,대구광역시 중구 동성로 25-2 ,053-423-8889  
T클래스커피,NOT,35.869918,128.59707,대구광역시 중구 동성로2길 87 ,053-252-3555  
옛집식당,NOT,35.872044,128.581749,대구광역시 중구 달성공원로6길 48-5 ,053-554-4498  
벙글벙글식당,NOT,35.821069,128.641368,대구광역시 수성구 지범로39길 11-12 ,053-782-9571  
왕근이칼국수,NOT,35.941404,128.570342,대구광역시 북구 동암로38길 19-43 ,053-326-2154  
소머리곰탕,NOT,35.838418,128.627252,대구광역시 수성구 청수로36길 18 ,053-761-7121  
김주연왕족발,NOT,35.854875,128.545662,대구광역시 달서구 달구벌대로329길 28 ,053-561-6933  
미성복어불고기,NOT,35.837807,128.616471,대구광역시 수성구 들안로 87 ,053-767-8877  
트리니떼,NOT,35.841779,128.704143,대구광역시 수성구 고산로 121-13 지하 1층,053-795-7848  
중화반점,NOT,35.869298,128.594421,대구광역시 중구 중앙대로 406-12 ,053-425-6839  
내안에,NOT,35.83016227553433,128.61792058735452,대구광역시 수성구 무학로 85 ,053-766-0760  
주토피아,NOT,35.8658929023221,128.611515870775,대구광역시 중구 동덕로30길 141 ,010-9321-6549  
프라리네,NOT,35.855288,128.589796,대구광역시 남구 중앙대로49길 13 ,053-654-0522  
련,NOT,35.942855,128.562441,대구광역시 북구 동천로 128-15 2층,053-313-8889  
내당동섬,NOT,35.8575059999915,128.545761698565,대구광역시 서구 당산로47길 24 ,053-622-2722  
낙영찜갈비,NOT,35.87069,128.604584,대구광역시 중구 동덕로36길 9-17 ,053-423-3330  
바우만스테이크하우스,NOT,35.865807,128.626331,대구광역시 수성구 동대구로 397 웰스빌딩 2층,053-743-3074  
대창숯불갈비,NOT,35.880999,128.581701,대구광역시 북구 고성로28길 3 ,053-356-2800  
허대구대구통닭,NOT,35.863897,128.618249,대구광역시 수성구 들안로 380 ,053-755-9061  
뉴욕통닭,NOT,35.866873,128.59238,대구광역시 중구 종로 12 ,053-253-0070  
포레스트,NOT,35.8608009568726,128.606049179404,대구광역시 중구 동덕로14길 39 ,053-270-7773  
일리아나레스토랑,NOT,35.860319,128.621814,대구광역시 수성구 범어천로 151-3 ,053-751-8963  
앞산주택,NOT,35.833629,128.577677,대구광역시 남구 현충로1길 16 ,053-621-3784  
양곱화,NOT,35.83704317779539,128.6171351355747,대구광역시 수성구 들안로 80 ,053-753-3107  
삼아통닭,NOT,35.882661,128.61962,대구광역시 동구 아양로9길 10 삼아아파트 상가 1층,053-952-3650  
꼬꼬하우스,NOT,35.882719,128.619857,대구광역시 동구 아양로 53-5 ,053-956-7851  
수평적관계,ATTENTION,35.8644566351085,128.609642971812,대구광역시 중구 동덕로26길 115 ,053-218-4602  
오이시카츠(동성로본점),NEW,35.868876480982,128.598068353064,대구광역시 중구 동성로3길 77 ,053-253-0527
쏘이삼덕,NEW,35.8644935936166,128.607468668907,대구광역시 중구 달구벌대로445길 44-19 ,070-7722-3355
스무고개(대구점),NEW,35.8803485657831,128.599719245445,대구광역시 북구 칠성로19길 18 1층 스무고개,010-6408-5334
금등어,NEW,35.8348826140228,128.616336654198,대구광역시 수성구 들안로 57 ,0507-1493-9235
사카바신카와,NEW,35.8655807245917,128.617838719703,대구광역시 수성구 들안로77길 2-24 ,053-215-0030
카페루이지,NEW,35.8579876709676,128.636078150541,대구광역시 수성구 범어로20길 5 1층,0507-1338-1004
후추 (한식당),NEW,35.8598179694922,128.638055447015,대구광역시 수성구 동원로1길 38 ,010-7210-8311
풍국면(들안길점),NOT_RECORD,35.8301882601278,128.618814793819,대구광역시 수성구 무학로 93 ,053-764-0607
센도리,NOT_RECORD,35.8331278100248,128.617247774366,대구광역시 수성구 들안로 38 ,053-765-4200
팔공은가비,NOT_RECORD,35.9608522145813,128.685187248361,대구광역시 동구 용천로 58 ,053-983-8886
세연전통콩국,NOT_RECORD,35.8570367835297,128.589124150105,대구광역시 중구 명덕로 173 ,053-257-9915
맴맴,NOT_RECORD,35.8718832315088,128.597628192033,대구광역시 중구 경상감영길 188 ,010-4479-8975
도톤,NOT_RECORD,35.8943119004595,128.609833506,대구광역시 북구 대학로23길 18-3 ,053-951-9556
대포조개전골(월평본점),NOT_RECORD,36.3586743242247,127.376895214347,대전광역시 서구 청사서로 10 ,042-471-4553
구일돼지,NOT_RECORD,35.8626681456352,128.697307507776,대구광역시 동구 안심로22길 60-7 ,053-965-1280
짚탄,NOT_RECORD,35.9182940424853,128.550451206094,대구광역시 북구 학정로 115-1 짚탄,010-2544-1644
미조리해물찜본점,NOT_RECORD,35.8698611607212,128.732326606207,대구광역시 동구 동호로9길 70 ,053-961-2800
연리희재(대구점),NOT_RECORD,35.8359915289856,128.61983209372,대구광역시 수성구 들안로14길 53 ,0507-1304-8049
화계관,NOT_RECORD,35.8388485150443,128.70844243464,대구광역시 수성구 신매로19길 8-1 1층,053-791-7333
구공회,NOT_RECORD,35.8588293785723,128.602247747375,대구광역시 중구 대봉로 220-27 구공회,010-3600-0850
금주by카네바시라,NOT_RECORD,35.8644899597669,128.609967019407,대구광역시 중구 국채보상로150길 92 2층 ,010-2355-0126
파리네,NOT_RECORD,35.8304370886208,128.618351540217,대구광역시 수성구 무학로17길 15 ,010-7445-1715
돼지만,NOT_RECORD,35.8130864397689,128.54670282765,대구광역시 달서구 상화북로 192 ,053-636-9233
메종드빵,NOT_RECORD,35.9394034579667,128.559949389558,대구광역시 북구 동천로 87 ,053-322-2356
몽블랑드파리,NOT_RECORD,35.8690380222837,128.596668309996,대구광역시 중구 동성로6길 21 ,053-253-7895
쿠키마리케이크샵,NOT_RECORD,35.8386444857987,128.625704196331,대구광역시 수성구 동대구로20길 25 ,010-2300-8618
마커커피 ,NOT_RECORD,35.8676530872604,128.578112993271,대구광역시 중구 큰장로22길 14 마커커피,053-255-7059
장원식당,NOT_RECORD,35.8722904240528,128.605125851812,대구광역시 중구 태평로 256-4 ,053-427-4363
옥이네칼국수보리밥,NOT_RECORD,36.3153274641636,127.438579965082,대전광역시 중구 대전천서로 275 ,042-282-1207
까꾸리웰빙손칼국수 ,NOT_RECORD,35.8320573422781,128.682809410741,대구광역시 수성구 월드컵로5길 17 ,053-792-0338
미꾸리추어탕,NOT_RECORD,35.8655442723904,128.588623122239,대구광역시 중구 명륜로 13-15 ,053-425-3771
본동복어,NOT_RECORD,35.8397364906539,128.536455933078,대구광역시 달서구 와룡로 79 2층,0507-1371-2206
서영홍합밥,NOT_RECORD,35.8681941913545,128.588615243079,대구광역시 중구 약령길 33-8 ,053-253-1199
연화정삼계탕,NOT_RECORD,35.8369007652307,128.540359771016,대구광역시 달서구 구마로 116 ,053-526-8380
유미정 ,NOT_RECORD,35.797007086691,128.547828475767,대구광역시 달서구 수밭길 28 ,0504-2015-5076
토속정 식당,NOT_RECORD,35.9395081680676,128.606548033569,대구광역시 북구 이곡길 59 ,053-944-5506
제일콩국,NOT_RECORD,35.8569366592575,128.586131468689,대구광역시 중구 남산로6안길 47 로하스남산,053-253-4863
팔각정,NOT_RECORD,36.3545109594013,127.377818001059,대전광역시 서구 둔산로31번길 62 1층 ,042-484-1992
치맥킹,NOT_RECORD,35.814733260575,128.643017639019,대구광역시 수성구 지범로48길 30 ,053-762-8292
막삼가,NOT_RECORD,35.8732498379874,128.598398447436,대구광역시 중구 교동길 70 ,010-9471-3305
잽엔헨리,NOT_RECORD,35.8680791397631,128.590206864098,대구광역시 중구 달구벌대로415길 39 ,0507-1343-0548
피델리티커피,NOT_RECORD,35.8429998604647,128.613594117848,대구광역시 수성구 수성로38길 26 ,0507-1379-3719
js가든(대구점),NOT_RECORD,35.86663023255647,128.590625620519,대구광역시 중구 달구벌대로 2077 현대백화점 8층,053-245-2873
오공공구일일,NOT_RECORD,35.8599603978581,128.638355828115,대구광역시 수성구 동원로1길 34 ,053-755-0911
아눅앞산,NOT_RECORD,35.8322449722906,128.575175477855,대구광역시 남구 앞산순환로 459 ,
아눅베이커스,NOT_RECORD,35.8562892835419,128.62672994825,대구광역시 수성구 동대구로58길 15 ,053-759-1060
아눅,NOT_RECORD,35.8769064309736,128.629675290758,대구광역시 동구 동부로 158-5 ,053-751-1060
아눅사월,NOT_RECORD,35.8417923315151,128.715493253248,대구광역시 수성구 천을로 231 ,0507-1445-1060
미진삼겹살,NOT_RECORD,35.8668230995472,128.601467536574,대구광역시 중구 공평로8길 25 ,053-215-6969
미진삼겹살(월성점),NOT_RECORD,35.823407342182,128.525819831763,대구광역시 달서구 조암남로14길 62-2 ,0507-1350-5085
스테드,NOT_RECORD,35.8684240452905,128.592835865748,대구광역시 중구 중앙대로77길 14 ,053-255-0739
효탄,NOT_RECORD,35.8550412265679,128.611881083419,대구광역시 수성구 명덕로75길 14-2 ,053-746-3555
스시노토시,NOT_RECORD,35.8605807967742,128.640306189169,대구광역시 수성구 동원로 18 ,0507-1431-4572
만솥,NOT_RECORD,35.8515728339652,128.624410187776,대구광역시 수성구 동대구로 237 ,053-761-6789
몽짬뽕본점,NOT_RECORD,35.8226846153648,128.625822422525,대구광역시 수성구 용학로30길 12 ,053-782-5630
정아칼치,NOT_RECORD,35.8389572228343,128.617267950763,대구광역시 수성구 들안로 102 ,053-768-9277
팔선생,NOT_RECORD,35.8620206844484,128.622754954414,대구광역시 수성구 범어천로 170-1 ,053-743-0808
와비,NOT_RECORD,35.8568558733184,128.614376157718,대구광역시 수성구 수성로74길 7 ,053-744-9012
만수통닭(수성못본점),NOT_RECORD,35.8274989723399,128.62280990904,대구광역시 수성구 수성못6길 7 ,053-763-5277
최강찜갈비,NOT_RECORD,35.8586947027906,128.624552190173,대구광역시 수성구 달구벌대로480길 10 ,010-3161-2325
고기부심,NOT_RECORD,35.8378280187356,128.62166559651,대구광역시 수성구 동대구로15길 34 ,070-7543-8243
대천국밥본점,NOT_RECORD,35.8142673046128,128.523797691475,대구광역시 달서구 월배로 85 1층,053-632-6222
논픽스,NOT_RECORD,35.8410834649215,128.61389096856,대구광역시 수성구 청수로9길 3 1층,010-5102-7893
넘버원까스,NOT_RECORD,35.8716721382706,128.723251255813,대구광역시 동구 반야월로 316 ,053-961-0444
오일리버거(범어점),NOT_RECORD,35.858548406885,128.623055335599,대구광역시 수성구 달구벌대로480길 37 1층,053-262-0512
이자카야몽,NOT_RECORD,35.8548334121064,128.55285001534,대구광역시 달서구 달구벌대로344길 35 1층,010-6748-1666
다이닝바 고우니,NOT_RECORD,35.8665966614083,128.602222889847,대구광역시 중구 공평로8길 39 1층,053-202-0922
앞산큰골집,NOT_RECORD,35.8375594931737,128.57815696623,대구광역시 남구 큰골길 35 ,053-626-0888
웨이비커피,NOT_RECORD,35.8715816247425,128.635018091024,대구광역시 수성구 화랑로 74 동영빌딩 2층 남측,070-4149-9585
로운,NOT_RECORD,35.8442843227694,128.621894554769,대구광역시 수성구 들안로32길 91 세아건물,010-9936-6191
대한콩국(칠곡본점),NOT_RECORD,35.9392388752586,128.55832897065,대구광역시 북구 팔거천동로34길 3-17 1층 대한콩국 ,053-322-0778
양고집부대찌개&철판볶음,NOT_RECORD,35.8603112806246,128.64670673687,대구광역시 수성구 무열로 13 ,053-753-0875
아르테리,NOT_RECORD,35.8261171273303,128.616614640888,대구광역시 수성구 용학로 62 2층,010-7355-0621
카페틸,NOT_RECORD,35.8629091443456,128.605923781682,대구광역시 중구 달구벌대로 2217 틸베이글,053-255-8808
고인돌,NOT_RECORD,35.8826881473949,128.618780396258,대구광역시 동구 아양로9길 5 ,053-951-3238
데일리오아시스대구본점,NOT_RECORD,35.8678803225468,128.608373061415,대구광역시 중구 국채보상로142길 20-8 1층,010-4535-4142
저절로막창(종로점),NOT_RECORD,35.8704055699127,128.592774671117,대구광역시 중구 국채보상로 570-8 ,053-252-8569
만두고을(방촌점),NOT_RECORD,35.8748678176593,128.667537163278,대구광역시 동구 화랑로80길 23 ,0539849285
만두고을(시지점),NOT_RECORD,35.8309170822856,128.704980945012,대구광역시 수성구 고산로4길 65 ,053-814-8033
만두고을(성서점),NOT_RECORD,35.8529734111099,128.502741302529,대구광역시 달서구 이곡서로7길 25 ,053-581-1006
후후카레,NOT_RECORD,35.8601580471113,128.637448282332,"대구광역시 수성구 달구벌대로501길 11 삼정, 삼성연립주택 바동 1호",010-9691-6707
오디너리하우스,NOT_RECORD,35.8671814148723,128.595955059163,대구광역시 중구 동성로2길 21-8 ,053-255-7787
오드다이너,NOT_RECORD,35.866501757046,128.597786291316,대구광역시 중구 동성로3길 28-1 ,053-252-7222
삼봉대감,NOT_RECORD,35.87787760604,128.612711757809,대구광역시 동구 신암로20길 54 ,053-954-9289
맨션드방콕,NOT_RECORD,35.8655679271528,128.597066205897,대구광역시 중구 동성로1길 67 ,053-256-2777
하노이무드,NOT_RECORD,35.8663210184841,128.595940350073,대구광역시 중구 동성로2길 6 ,053-257-7778
대통양대창,NOT_RECORD,35.8392043117213,128.536346837982,대구광역시 달서구 와룡로 73 ,053-551-0092
무니스,NOT_RECORD,35.8111945111979,128.518615628493,대구광역시 달서구 상화로5길 55 ,010-3610-8428
멘타와이 ,NOT_RECORD,35.864400494449,128.60994550382,대구광역시 중구 동덕로26길 121 ,053-252-1305
무화식당,NOT_RECORD,35.8699691145675,128.605399983134,대구광역시 중구 국채보상로 685-22 ,010-7148-7826
나리꼬모,NOT_RECORD,35.85472366849,128.655087883589,대구광역시 수성구 달구벌대로 2683 ,
프롭베이커리,NOT_RECORD,35.8974235730361,128.616737913717,대구광역시 북구 공항로 10-7 1층,053-943-0888
포시즌74,NOT_RECORD,35.868001849727,128.599400693689,대구광역시 중구 동성로4길 74 ,010-7733-2066
컬렉팅더모먼츠(감삼점),NOT_RECORD,35.8552414674597,128.549121810868,대구광역시 서구 달구벌대로 1677 제이병원 1층 카페,010-9128-8709
청송약수삼계탕,NOT_RECORD,35.869509433559,128.555546181012,대구광역시 서구 서대구로 130 ,053-566-3344
뭄뭄다사점,NOT_RECORD,35.8634224061519,128.462499264732,대구광역시 달성군 다사읍 다사로4길 14 1층,053-591-8868
야자수지붕,NOT_RECORD,35.8716369095844,128.599926040531,대구광역시 중구 경상감영길 229 ,053-256-3723
오호리준(범어본사직영점),NOT_RECORD,35.8574907308422,128.624149258772,대구광역시 수성구 동대구로59길 14-2 ,053-752-0021
티제이버거,NOT_RECORD,35.8678259613333,128.636744395586,대구광역시 수성구 화랑로2길 114 ,053-754-0111
우가생고기,NOT_RECORD,35.8418046381792,128.707576629109,대구광역시 수성구 달구벌대로641길 17-4 우가생고기,053-795-9995
벽돌집,NOT_RECORD,35.8611794272534,128.604714887354,대구광역시 중구 동덕로14길 13 ,053-421-6800
보정당,NOT_RECORD,35.8719510097076,128.712651026751,대구광역시 동구 반야월로 222  ,053-962-5827
삼촌1982,NOT_RECORD,35.863951683171,128.628877147817,대구광역시 수성구 동대구로74길 27 수빌딩 1층,053-743-2252
동그라미쿠키,NOT_RECORD,35.8722016651612,128.596125839953,대구광역시 중구 경상감영길 160 ,010-5386-2215
도케비커피,NOT_RECORD,35.697960188162,128.48824930654,대구광역시 달성군 유가읍 음동길 130-15  ,053-616-8253
블랙타코앤그릴,NOT_RECORD,35.866578853136,128.599522658112,대구광역시 중구 공평로 31 ,053-426-2268
본다이닝,NOT_RECORD,35.8572329809436,128.601627706415,대구광역시 중구 대봉로 209-5 ,053-201-7492
메리골드 ,NOT_RECORD,35.8253809455678,128.549960001179,대구광역시 달서구 월배로72길 42 1층,010-8779-4180
헤이차일드,NOT_RECORD,35.8765938153168,128.6302869419,대구광역시 동구 동부로32길 9  ,053-217-1221
푸나왈라,NOT_RECORD,35.825886534886,128.62233745299,대구광역시 수성구 수성못2길 3 3층 ,053-766-8833
대정옥,NOT_RECORD,35.8592707649964,128.618025399878,대구광역시 수성구 달구벌대로 2336 ,053-752-5454
잇워즈고트,NOT_RECORD,35.861359299375,128.624857536002,대구광역시 수성구 상록로2길 13-14 ,010-8598-0327
짬마담,NOT_RECORD,35.8848145754833,128.610052274526,대구광역시 북구 경대로5길 34 1층,053-944-0534
까치산갈비,NOT_RECORD,35.9226859384384,128.59904145527,대구광역시 북구 호국로 233 1층,053-951-1515
키츠네소바,NOT_RECORD,35.8608555668724,128.63379245239,대구광역시 수성구 달구벌대로489길 61-26 키츠네소바,070-4320-5551
동양백반(동성로점),NOT_RECORD,35.8669218946144,128.593762333396,대구광역시 중구 달구벌대로 2109-37 ,010-5488-2876
브루어스브라더스,NOT_RECORD,35.8685105357459,128.591715748706,대구광역시 중구 종로 29 1층,053-256-0411
현짬뽕,NOT_RECORD,35.8469828701419,128.604075912155,대구광역시 남구 대봉로 89 ,053-474-2656
풍천관,NOT_RECORD,35.8186009847215,128.539565078139,대구광역시 달서구 월곡로 268-10 풍천관,053-281-8892
커피명가라핀카,NOT_RECORD,35.86764313934061,128.63491690267355,대구광역시 수성구 국채보상로 953-1 ,053-743-0892
디귿,NOT_RECORD,35.8657523596583,128.595854992652,대구광역시 중구 달구벌대로 2125-11 ,010-6664-9068
이얼즈,NOT_RECORD,35.8711670404542,128.600407285103,대구광역시 중구 공평로 79 이얼즈,010-4606-4048
노모어커피,NOT_RECORD,35.8628231059197,128.596112427441,대구광역시 중구 봉산문화2길 16-12 ,010-3351-8980
팔공참한우마실,NOT_RECORD,35.941276,128.645723,대구광역시 동구 팔공로 481 ,053-982-3384
하지메,NOT_RECORD,35.852967,128.504443,대구광역시 달서구 달구벌대로251길 9 ,053-583-1229
모모상점,NOT_RECORD,35.8670711110477,128.611189222583,대구광역시 중구 국채보상로150길 30 ,053-424-1019
정민막창,NOT_RECORD,35.8614543048429,128.57076195969,대구광역시 달서구 달구벌대로 1886 ,053-623-0824
오일리버거,NOT_RECORD,35.8715359343601,128.59888072891,대구광역시 중구 국채보상로125길 23-1 ,053-213-0512
정길채호두파이,NOT_RECORD,35.835545,128.600646,대구광역시 남구 효성1길 6-9 ,053-471-9981
바루베이크샵,NOT_RECORD,35.920553583794,128.546985515352,대구광역시 북구 칠곡중앙대로54길 7 1층 ,010-4946-1489
만두고을,NOT_RECORD,35.8575405927458,128.63061904673,대구광역시 수성구 달구벌대로492길 12 우방3차범어타운상가 101호,010-9486-0421
할매칼국수,NOT_RECORD,35.856088,128.588873,대구광역시 남구 명덕로38길 14 ,053-651-7969
로타리식당,NOT_RECORD,35.861214,128.604609,대구광역시 중구 동덕로14길 11 ,053-256-7983
만원족발,NOT_RECORD,35.8673658990035,128.582105956817,대구광역시 중구 달성로 23 ,053-256-5056
버터밀,NOT_RECORD,35.8152548633972,128.537786772561,대구광역시 달서구 월배로40길 82 ,070-8691-4500
베베케이크,NOT_RECORD,35.855525009454,128.586193227007,대구광역시 남구 명덕로30길 21 ,010-8829-7405
선운산풍천장어,NOT_RECORD,0.0,0.0,대구광역시 달서구 달구벌대로243길 36 ,053-582-0839
우미가,NOT_RECORD,35.840748,128.603708,대구광역시 남구 대덕로40길 2 ,053-476-8999
박기태명장의 장수당,NOT_RECORD,35.8429634183545,128.487710004883,대구광역시 달서구 성서공단로11길 87 박기태명장의 장수당,0507-1490-5500
마사,NOT_RECORD,35.8924233730857,128.607177353928,대구광역시 북구 산격로6길 18 ,053-247-6678
명성회초밥,NOT_RECORD,35.864688,128.594055,대구광역시 중구 중앙대로 354-11 ,053-423-6162
월촌역청춘삼겹살,NOT_RECORD,35.8225160251182,128.547796977605,대구광역시 달서구 송현로 40-1 ,010-5190-9253
팀스쿠치나,NOT_RECORD,35.893522,128.609594,대구광역시 북구 대학로23길 26 ,053-951-9998
녹양구이(두산동점),NOT_RECORD,35.830363,128.61767,대구광역시 수성구 무학로17길 21 ,053-767-9922
편대장영화식당(대구범어점),NOT_RECORD,35.85663,128.62522,대구광역시 수성구 동대구로 291 ,053-744-2655
예그리나,NOT_RECORD,35.907032,128.61132,대구광역시 북구 유통단지로 80 호텔인터불고엑스코 2층,053-380-0210
르배(범어점),NOT_RECORD,35.853238,128.62679,대구광역시 수성구 동대구로52길 14-3 ,053-756-0555
프랑세즈베이커리,NOT_RECORD,35.851532,128.515978,대구광역시 달서구 성서동로 350 평화타운,053-583-0425
르구,NOT_RECORD,35.854653,128.589581,대구광역시 남구 중앙대로45길 48 ,053-621-1774
레이몬드베이커리,NOT_RECORD,35.859178,128.519204,대구광역시 달서구 선원로 241 성서보성2차상가 108호,053-585-7413
프로방스베이커리,NOT_RECORD,35.899765,128.616492,대구광역시 북구 검단로 28 ,053-383-1056
비룡손짜장,NOT_RECORD,35.707913,128.437137,대구광역시 달성군 현풍면 비슬로 806 ,053-611-8001
황떡(본점),NOT_RECORD,35.868604,128.608334,대구광역시 중구 국채보상로 712 ,053-741-3261
읍내밥집,NOT_RECORD,35.869605,128.599859,대구광역시 중구 동성로4길 110 ,053-422-4248
함지박,NOT_RECORD,35.86464,128.558149,대구광역시 서구 국채보상로48길 70-16 ,053-568-9977
영덕횟집,NOT_RECORD,35.865684,128.619244,대구광역시 수성구 국채보상로162길 44 ,053-745-4752
참우양곱창,NOT_RECORD,35.93269,128.563523,대구광역시 북구 구암로41길 10 ,053-321-9258
녹향구이,NOT_RECORD,35.858038,128.529253,대구광역시 달서구 용산서로 4-27 ,053-525-8113
청송숯불갈비,NOT_RECORD,35.846872,128.578679,대구광역시 남구 현충로31길 22 ,053-624-3367
새만동식당,NOT_RECORD,35.855932,128.588018,대구광역시 남구 명덕로36길 15 ,053-627-4630
시골돼지국밥,NOT_RECORD,35.870529,128.570792,대구광역시 서구 달서로 91 ,053-573-9898
신촌약수신촌닭불백,NOT_RECORD,35.851616,128.624451,대구광역시 수성구 동대구로 237 ,053-473-4331
자인식당,NOT_RECORD,35.882667,128.665752,대구광역시 동구 방촌로 125 ,053-984-7687
수야커피,NOT_RECORD,35.892464,128.590044,대구광역시 북구 침산로 184-1 ,053-357-3358
달고떡볶이,NOT_RECORD,35.85502,128.55534,대구광역시 달서구 야외음악당로39길 54 삼정그린빌 아파트상가 113동 107호,053-655-0877
금강회초밥,NOT_RECORD,35.840549,128.620871,대구광역시 수성구 청수로 115 ,053-763-1120
지지분식,NOT_RECORD,35.863899,128.582115,대구광역시 중구 남산로 81 ,053-254-8193
바비네카페,NOT_RECORD,35.861779,128.629215,대구광역시 수성구 동대구로 358-26 ,053-741-4820
소백산양대창구이,NOT_RECORD,35.842776,128.529553,대구광역시 달서구 장기로57길 15 ,053-566-2226
한우정곰탕,NOT_RECORD,35.876237,128.603381,대구광역시 북구 칠성남로 212 ,053-423-4474
삼대할매국밥,NOT_RECORD,35.86973,128.595212,대구광역시 중구 중앙대로 412-52 ,053-255-6100
달팽이식당,NOT_RECORD,35.869713,128.591205,대구광역시 중구 중앙대로81길 46 ,070-8279-2952
동곡윤송연근손칼국수,NOT_RECORD,35.877786,128.419268,대구광역시 달성군 하빈면 달구벌대로55길 87-2 ,053-583-6396
칼디커피&류(공평점),NOT_RECORD,35.868848,128.599411,대구광역시 중구 동성로4길 91 1층,053-425-3527
사리원,NOT_RECORD,35.868101,128.554884,대구광역시 서구 서대구로 113 ,053-566-0046
군위식당,NOT_RECORD,35.872332,128.59311,대구광역시 중구 경상감영길 101 중앙상가,053-252-1294
부산대구뽈찜,NOT_RECORD,35.870797,128.570811,대구광역시 서구 달서로 95 ,053-555-1611
제일숯불막창,NOT_RECORD,35.843323,128.623444,대구광역시 수성구 동대구로29길 31 ,053-764-9069
가람한식,NOT_RECORD,35.914677,128.64017,대구광역시 동구 팔공로35길 7 ,053-983-0259
삼합일,NOT_RECORD,35.848077,128.624085,대구광역시 수성구 범어천로 10 ,053-764-0016
동산식당,NOT_RECORD,35.841366,128.563466,대구광역시 남구 대명복개로3길 57 ,053-623-1180
어부,NOT_RECORD,35.842365,128.590224,대구광역시 남구 중앙대로 103 ,053-471-2219
옛날통닭,NOT_RECORD,35.83338,128.709211,대구광역시 수성구 달구벌대로650길 59 ,053-791-9209
호남정,NOT_RECORD,35.832079,128.617179,대구광역시 수성구 들안로 24 ,053-767-9555
금계정,NOT_RECORD,35.825675,128.611352,대구광역시 수성구 용학로 14 ,053-761-9200
대구손칼국수,NOT_RECORD,35.86719,128.638489,대구광역시 수성구 동원로 91 ,053-754-8891
신라숯불가든,NOT_RECORD,35.876201,128.622707,대구광역시 동구 동부로19길 5 ,053-753-5802
용화반점,NOT_RECORD,35.876255,128.640439,대구광역시 동구 화랑로25길 25 ,053-753-5097
어탕국수삼계,NOT_RECORD,35.841457,128.556218,대구광역시 달서구 장기로 29 ,053-627-8811
금강산돼지갈비,NOT_RECORD,35.853526,128.548634,대구광역시 달서구 당산로 190 ,053-623-2244
미송정,NOT_RECORD,35.870232,128.732816,대구광역시 동구 동호로 174 ,053-955-5454
동림식당,NOT_RECORD,35.986155,128.637427,대구광역시 동구 파계로116길 49 ,053-982-2860
보카치오 브로이,NOT_RECORD,35.832793,128.622925,대구광역시 수성구 동대구로 27 아리아나호텔 지하1층,053-765-8886
빵굽는남자(태전점),NOT_RECORD,35.917929,128.549894,대구광역시 북구 칠곡중앙대로46길 22 ,053-312-4903
이용재베이커리,NOT_RECORD,35.876121,128.497618,대구광역시 달성군 다사읍 서재로30길 5-4 ,053-586-0425
가또오프레즈,NOT_RECORD,35.85487,128.494576,대구광역시 달서구 서당로7길 17 ,053-582-9924
성주돼지국밥,NOT_RECORD,35.859004,128.523389,대구광역시 달서구 선원로 281 ,053-584-2803
최영경할매빈대떡,NOT_RECORD,35.868741,128.571306,대구광역시 서구 달서로 74 ,053-571-1838
똘똘이식당,NOT_RECORD,35.863559,128.571128,대구광역시 서구 달구벌대로375길 31 ,053-566-5738
태능집,NOT_RECORD,35.874395513831196,128.58673291853444,대구광역시 중구 달성로22길 86 ,053-252-1817
마산설렁탕전문,NOT_RECORD,35.872831,128.592755,대구광역시 중구 경상감영1길 41 ,053-254-4317
화청궁,NOT_RECORD,35.826028,128.63813,대구광역시 수성구 지산로14길 76-8 ,053-784-7189
미진분식,NOT_RECORD,35.8673957973901,128.594272237479,대구광역시 중구 동성로 6 ,053-425-1120
하롱베이,NOT_RECORD,35.830225,128.619209,대구광역시 수성구 무학로 97 ,053-767-5454
배박사늑대갈비,NOT_RECORD,35.861636,128.556023,대구광역시 서구 서대구로 41 ,053-551-3000
성공식당,NOT_RECORD,35.989217,128.696038,대구광역시 동구 팔공산로199길 12 ,053-982-7634
산골기사식당,NOT_RECORD,35.956531,128.692022,대구광역시 동구 팔공산로 1666 ,010-2020-2013
마리아쥬커피,NOT_RECORD,35.835464,128.577024,대구광역시 남구 대명남로 174-2 2층,053-249-6685
한우곰탕,NOT_RECORD,35.873021643887476,128.58130686984495,대구광역시 중구 달성공원로8길 32-10 ,053-556-7000
청아람,NOT_RECORD,35.855799,128.627277,대구광역시 수성구 동대구로56길 21 ,053-753-7264
라우스터프,NOT_RECORD,35.85982,128.634413,대구광역시 수성구 달구벌대로489길 77 ,053-742-4890
대중한우영화식당,NOT_RECORD,35.85037316438562,128.53609043970724,대구광역시 달서구 달구벌대로 1545 골든뷰 메디타워,053-522-2655
유경식당,NOT_RECORD,35.872304,128.593041,대구광역시 중구 경상감영길 101 중앙상가,053-252-5098
실비찜갈비,NOT_RECORD,35.870687,128.604909,대구광역시 중구 동덕로36길 9-3 ,053-424-3443
진주손칼국수손수제비,NOT_RECORD,35.820179,128.640632,대구광역시 수성구 지범로 200 ,053-784-6113
대구전통따로,NOT_RECORD,35.870958,128.592363,대구광역시 중구 국채보상로 563-1 ,053-257-1476
월성찜갈비,NOT_RECORD,35.870775,128.604835,대구광역시 중구 동덕로36길 9-5 ,053-424-6942
청도돼지국밥,NOT_RECORD,35.844712,128.603823,대구광역시 남구 대봉로 65 ,053-474-3703
강산면옥,NOT_RECORD,35.873622,128.596347,대구광역시 중구 교동길 27-8 강산백화점,053-425-0840
소울키친,NOT_RECORD,35.867712,128.588891,대구광역시 중구 약령길 28 ,053-256-2533
전원돈까스,NOT_RECORD,35.868051,128.595529,대구광역시 중구 동성로6길 2-23 지하 1층,053-424-8220
옹심이칼국수,NOT_RECORD,35.887263084725,128.494669358327,대구광역시 달성군 다사읍 다사로 655 ,053-585-8284
멘타와이,NOT_RECORD,35.864401120659394,128.60994584861564,대구광역시 중구 동덕로26길 121 ,053-252-1305
화전,NOT_RECORD,35.84948728044,128.62346666259577,대구광역시 수성구 범어천로 30 ,053-768-3838
대장금안동생고기,NOT_RECORD,35.8267664867005,128.623332881346,대구광역시 수성구 수성못2길 47 ,053-762-6262
마루(동촌점),NOT_RECORD,35.8813553858715,128.652180072578,대구광역시 동구 효동로6길 92 ,053-953-3003
미성당(동아백화점점),NOT_RECORD,35.872097,128.596393,대구광역시 중구 경상감영길 166-1 ,053-422-8574
예그리나,NOT_RECORD,35.9069985378003,128.611285546387,대구광역시 북구 유통단지로 80 인터불고엑스코호텔 2층,053-380-0210
고향집칼국수,NOT_RECORD,35.875252,128.616893,대구광역시 동구 송라로 93 ,053-751-6850
블루문레스토랑,NOT_RECORD,35.991123,128.636745,대구광역시 동구 파계로 685 ,053-981-8088
도심속의산골,NOT_RECORD,35.86908,128.589173,대구광역시 중구 약령길 67-5 ,053-421-5142
마들렌베이커리(범어점),NOT_RECORD,35.85632880292,128.634506508151,대구광역시 수성구 범어로 75 범어에스케이뷰아파트1단지,053-752-7737
약전삼계탕,NOT_RECORD,35.8688077925828,128.590269032262,대구광역시 중구 달구벌대로415길 56 ,053-253-2473
우미정,NOT_RECORD,35.88254,128.66664,대구광역시 동구 동촌로45길 14-3 ,053-986-7789
청정한우식육식당,NOT_RECORD,35.870046,128.626615,대구광역시 동구 동대구로 442-1 1층,053-756-3387
부산짚불꼼장어구이,NOT_RECORD,35.9837637245841,128.625413591001,대구광역시 동구 서촌로 90 ,053-324-8795
석순이네민물매운탕,NOT_RECORD,35.8655614437094,128.614436275603,대구광역시 수성구 신천동로 474 ,053-754-5294
사마리칸트,NOT_RECORD,35.8721085688113,128.595604265255,대구광역시 중구 동성로 59 ,053-252-4021
서대포소금구이,NOT_RECORD,35.871509,128.570859,대구광역시 서구 달서로 103 ,053-567-9191
메리포핀스,NOT_RECORD,35.8686354092993,128.61603145075,대구광역시 동구 국채보상로159길 12 1층,053-243-7371
우리가락손칼국수,NOT_RECORD,35.83397,128.537753,대구광역시 달서구 와룡로 14 ,053-523-1144
다복식당,NOT_RECORD,35.8170178833613,128.533739426911,대구광역시 달서구 월배로38길 12 ,053-644-7543
정우초밥,NOT_RECORD,35.8424106812598,128.578840550328,대구광역시 남구 장전2길 68-3 ,053-623-7200
통나무집,NOT_RECORD,35.869630448297,128.592370549189,대구광역시 중구 중앙대로81길 23 ,053-252-6210
일출,NOT_RECORD,35.8588829529434,128.504812694454,대구광역시 달서구 선원로 122 성서2차서한타운,053-585-8998
르배(황금점),NOT_RECORD,35.8486152288499,128.635850254093,대구광역시 수성구 청호로67길 76-9 ,053-744-6111
수성못뉴욕바닷가재(본점),NOT_RECORD,35.8241493483084,128.618411520946,대구광역시 수성구 용학로 106-7 ,053-765-5200
고운곰탕,NOT_RECORD,35.8582241871899,128.63335908298,대구광역시 수성구 달구벌대로 2474-8 ,053-755-5969
황소식당,NOT_RECORD,35.87191,128.594646,대구광역시 중구 중앙대로 434-6 ,053-421-9930
풀하우스,NOT_RECORD,35.866325,128.593804,대구광역시 중구 달구벌대로 2109-21 ,053-424-2210
행복식당,NOT_RECORD,35.865708,128.594973,대구광역시 중구 달구벌대로 2113-6 ,053-427-2232
자매국수육개장,NOT_RECORD,35.847888,128.623559,대구광역시 수성구 범어천로 9 ,010-2520-6247
가덕식당,NOT_RECORD,35.844254,128.612144,대구광역시 수성구 수성로39안길 22-4 ,053-762-9688
행복제면소,NOT_RECORD,35.867484,128.589936,대구광역시 중구 달구벌대로415길 25 ,053-254-5900
충무로양곱창,NOT_RECORD,35.8380243376073,128.617309658253,대구광역시 수성구 들안로 92 ,053-766-1141
누렁소,NOT_RECORD,35.870731,128.602198,대구광역시 중구 국채보상로131길 24 ,053-422-8327
등대회,NOT_RECORD,35.8912777337332,128.62398978169,대구광역시 동구 동북로 316 ,053-953-9514
장원부대찌개철판구이,NOT_RECORD,35.8406798315743,128.619028984506,대구광역시 수성구 청수로 99 ,053-763-9997
팔산가든,NOT_RECORD,35.878124,128.594728,대구광역시 북구 칠성남로 127-24 ,053-357-5548
와촌손칼국시,NOT_RECORD,35.8649890306227,128.591145579639,대구광역시 중구 관덕정길 17-3 ,053-252-5712
싱싱회뽈락,NOT_RECORD,35.82542,128.623288,대구광역시 수성구 수성못2길 17 ,053-762-0010
계림,NOT_RECORD,35.8584329511265,128.62403686349,대구광역시 수성구 달구벌대로480길 21 ,053-745-4755
에덴김밥,NOT_RECORD,35.8680849956928,128.578463548189,대구광역시 중구 큰장로26길 6 서문시장 5지구,053-256-6188
삼천포세꼬시횟집,NOT_RECORD,35.824606,128.554271,대구광역시 달서구 앞산순환로 235 ,053-622-9801
베이스캠프,NOT_RECORD,35.841572,128.559958,대구광역시 달서구 성당로 49 ,053-621-9037
미가식당,NOT_RECORD,35.8506981844089,128.535225369715,대구광역시 달서구 달구벌대로309길 18 ,053-526-6675
동서활어회,NOT_RECORD,35.8820071570324,128.642742456849,대구광역시 동구 아양로50길 124 ,053-942-0208
삼미갈비찜,NOT_RECORD,35.870075,128.58079,대구광역시 중구 큰장로28길 25 ,053-255-3123
도쿄다이닝,NOT_RECORD,35.8662180472872,128.596080546213,대구광역시 중구 동성로2길 4-5 ,053-424-9191
와룡반점,NOT_RECORD,35.856328,128.492542,대구광역시 달서구 서당로9길 54 ,053-585-0946
정원한우갈비,NOT_RECORD,35.8604901781052,128.621634677262,대구광역시 수성구 범어천로 151-28 ,053-756-3369
호박돌식당,NOT_RECORD,35.914859,128.640304,대구광역시 동구 팔공로35길 8 ,053-982-1114
기장물회산곰장어,NOT_RECORD,35.858834,128.622814,대구광역시 수성구 달구벌대로480길 42 ,053-744-2553
이방인횟집,NOT_RECORD,35.8883428467244,128.582000645973,대구광역시 북구 옥산로9길 33 ,053-354-2828
사피디뜨by커피맛을조금아는남자,NOT_RECORD,35.8443424558174,128.638608792101,대구광역시 수성구 청호로 301 ,070-4454-4604
손이삼겹,NOT_RECORD,35.8171739219952,128.546631761006,대구광역시 달서구 상인로26길 46 ,053-710-3434
신짬뽕,NOT_RECORD,35.870638,128.598839,대구광역시 중구 국채보상로125길 4 ,053-426-9468
