name,ribbonType,latitude,longitude,address,phone
소복갈비,RIBBON_TWO,36.679559,126.850237,충청남도 예산군 예산읍 천변로195번길 9 ,041-335-2401  
게눈감추듯,RIBBON_TWO,36.983407,126.742245,충청남도 당진시 송악읍 안섬포구길 24-4 ,041-356-0036  
장수꽃게장,RIBBON_TWO,36.898329,126.642484,충청남도 당진시 당진중앙2로 344 ,041-355-3014  
고덕갈비,RIBBON_TWO,36.700602,126.665046,충청남도 예산군 덕산면 덕산온천로 371-8 ,041-337-8700  
화해당,RIBBON_TWO,36.70402108029292,126.21219213159618,충청남도 태안군 근흥면 근흥로 901-8 ,041-675-4443  
바다꽃게장,RIBBON_TWO,36.754579,126.293964,충청남도 태안군 태안읍 능샘1길 45 ,041-674-5197  
나정식당,RIBBON_ONE,36.8033676650484,127.156147465167,충청남도 천안시 동남구 원성2교길 32 ,041-562-1305  
파스타포포,RIBBON_ONE,36.7869128967341,126.144144797081,충청남도 태안군 소원면 만리포2길 154 ,041-671-7152  
아비시니아커피,RIBBON_ONE,36.8100664501967,127.128165039987,충청남도 천안시 서북구 서부대로 471-8 아비시니아커피,041-575-6211  
고려옥,RIBBON_ONE,36.7885865020935,127.008943449924,충청남도 아산시 청운로 163 ,041-545-6254  
유정식당,RIBBON_ONE,36.0106518367381,126.69701855442,충청남도 서천군 장항읍 장서로29번길 24 ,041-956-5494  
인발루,RIBBON_ONE,36.525131026973135,126.54672950780683,충청남도 홍성군 결성면 홍남서로 732-1 ,041-588-8899  
원진노기순청국장,RIBBON_ONE,36.465637916517345,127.12286416506588,충청남도 공주시 백미고을길 6 ,041-855-3456  
원조연산할머니순대,RIBBON_ONE,36.215186,127.217277,충청남도 논산시 연산면 황산벌로 1525 ,041-735-0367  
동순원,RIBBON_ONE,36.917041946064046,127.12979711013118,충청남도 천안시 서북구 성환읍 성환중앙로 33 ,041-581-2070  
생생이두부보쌈,RIBBON_ONE,36.79191965477539,127.12851910371452,충청남도 천안시 동남구 서부대로 265 ,041-575-2877  
맛있게먹는날,RIBBON_ONE,0.0,0.0,충청남도 서산시 시장2로 13 ,041-665-9435  
클라시코,RIBBON_ONE,36.803061,127.109687,충청남도 천안시 서북구 불당5길 20 1층,041-621-1204  
선창횟집,RIBBON_ONE,36.6199458977054,126.286950817423,충청남도 태안군 남면 마검포길 427-5 ,041-674-6270  
뚜쥬루과자점,RIBBON_ONE,36.818342,127.139607,충청남도 천안시 서북구 백석로 270 ,041-576-0086  
동해원,RIBBON_ONE,36.4722,127.130136,충청남도 공주시 납다리길 22 ,041-852-3624  
영성각,RIBBON_ONE,36.710323,126.546661,충청남도 서산시 해미면 남문1로 40-1 ,041-688-2047  
이슬회수산,RIBBON_ONE,36.538944382285,126.47032220586,충청남도 홍성군 서부면 남당항로213번길 1 홍성남당항 해양수산 복합공간,041-633-4857  
송정꽃게집,RIBBON_ONE,36.513718,126.341976,충청남도 태안군 안면읍 방포로 46 ,041-673-2666  
오양손칼국수,RIBBON_ONE,36.439001,126.522007,충청남도 보령시 오천면 소성안길 55 ,041-932-4110  
나루터식당,RIBBON_ONE,36.285636,126.909186,충청남도 부여군 부여읍 나루터로 37 ,041-835-3155  
큰마을영양굴밥,RIBBON_ONE,36.609581,126.416466,충청남도 서산시 부석면 간월도1길 65 ,041-662-2706  
안흥일품꽃게장,RIBBON_ONE,36.761888646239,126.453579124299,충청남도 서산시 양열로 212 ,041-681-8601  
학화할머니호도과자,RIBBON_ONE,36.808917,127.147714,충청남도 천안시 동남구 대흥로 233 ,041-551-3370  
광덕산호두과자전문점,RIBBON_ONE,36.79512944189744,127.16501522344355,충청남도 천안시 동남구 천안대로 524 1층,041-555-5700  
평매매운탕,RIBBON_ONE,36.170114,127.179911,충청남도 논산시 가야곡면 산노1길 89-21 ,041-741-0926  
이원식당,RIBBON_ONE,36.869986,126.279364,충청남도 태안군 이원면 원이로 1539 ,041-672-8024  
삼우갈비,RIBBON_ONE,36.680556,126.848758,충청남도 예산군 예산읍 임성로23번길 8 ,041-335-6230  
은진손칼국수,RIBBON_ONE,36.1668745704882,127.10649373675801,충청남도 논산시 은진면 매죽헌로25번길 8 ,041-741-0612  
큰고개정육점식당,RIBBON_ONE,36.815642,126.972392,충청남도 아산시 염치읍 염성길 107 ,041-541-3391  
남해전복,RIBBON_ONE,36.8149746159382,127.133731184041,충청남도 천안시 동남구 개목6길 11 ,041-556-4001  
원풍식당,RIBBON_ONE,36.824135,126.258063,충청남도 태안군 원북면 원이로 841-1 1층,041-672-5057  
구드래돌쌈밥,RIBBON_ONE,36.285298,126.909629,충청남도 부여군 부여읍 나루터로 31 ,041-836-9259  
구드래황토정,RIBBON_ONE,36.278788,126.885846,충청남도 부여군 규암면 백제문로 30 ,041-834-6263  
내당한우,RIBBON_ONE,36.600298,126.663738,충청남도 홍성군 홍성읍 아문길52번길 6 ,041-632-0156  
두발횟집,RIBBON_ONE,36.3110268606103,126.513730635327,충청남도 보령시 해수욕장4길 140 ,041-934-6940  
맛동산,RIBBON_ONE,36.606667,126.415856,충청남도 서산시 부석면 간월도1길 95-5 ,041-669-1910  
반도회관,RIBBON_ONE,36.7632772553223,126.496126315668,충청남도 서산시 홍안벌로 136 ,041-665-2262  
삼기꽃게장,RIBBON_ONE,36.783254,126.453204,충청남도 서산시 고운로 162 ,041-665-5392  
서산회관,RIBBON_ONE,36.147227,126.505858,충청남도 서천군 서면 서인로 318 ,041-951-7677  
연춘식당,RIBBON_ONE,36.7756365286089,126.976298305789,충청남도 아산시 신정호길 67 ,041-545-2866  
태안명품박속낙지탕,RIBBON_ONE,36.819746,126.256617,충청남도 태안군 원북면 원이로 791 ,041-672-4540  
토담집,RIBBON_ONE,36.7554,126.291387,충청남도 태안군 태안읍 동백로 161 ,041-674-4561  
황산옥,RIBBON_ONE,36.156438,127.00927,충청남도 논산시 강경읍 금백로 34 ,041-745-4836  
온달네식당,RIBBON_ONE,36.80708116313834,127.14022132458027,충청남도 천안시 동남구 봉정로 56 ,041-573-2006  
평양면옥,RIBBON_ONE,36.783104,126.995733,충청남도 아산시 온천대로 1420-1 ,041-546-0092  
몽대횟집,RIBBON_ONE,36.672217,126.274077,충청남도 태안군 남면 몽대로 495-83 ,041-672-2254  
만복정,RIBBON_ONE,36.29443,127.164823,충청남도 논산시 상월면 대촌4길 81 ,041-733-7651  
염치정육점식당,RIBBON_ONE,36.81611771512828,126.97260874536448,충청남도 아산시 염치읍 염성길 110 ,041-542-2768  
신창집,RIBBON_ONE,36.686564,126.741216,충청남도 예산군 삽교읍 삽교로4길 7-9 ,041-338-2357  
제일꽃게장,RIBBON_ONE,36.891904,126.625338,충청남도 당진시 백암로 246 ,041-353-6379  
일송꽃게장백반,RIBBON_ONE,36.532616,126.349559,충청남도 태안군 안면읍 안면대로 2676 ,041-674-0777  
할매온정집,RIBBON_ONE,36.012444,126.697424,충청남도 서천군 장항읍 장서로47번길 20 ,041-956-4860  
원조부석냉면,RIBBON_ONE,36.713603,126.391927,충청남도 서산시 부석면 취평2길 15-10 ,041-662-4128  
산해별미,RIBBON_ONE,36.784393,126.458059,충청남도 서산시 대사동5로 10 ,041-663-7853  
소박한밥상,RIBBON_ONE,36.735616,126.412596,충청남도 서산시 인지면 애정길 150-22 ,010-8718-3826  
삼거리갈비,RIBBON_ONE,36.603902,126.663342,충청남도 홍성군 홍성읍 월계천길 238 ,041-632-2681  
로드1950,NOT,36.917444061188,126.812597333026,충청남도 당진시 신평면 매산로 170 ,041-363-1950  
메밀집,NOT,36.8107940137327,127.09570226032,충청남도 아산시 탕정면 선문로254번길 159 ,041-541-2378  
우유창고,NOT,36.4881546093341,126.527057771048,충청남도 보령시 천북면 홍보로 574 ,041-642-5710  
기린더매운갈비찜 ,NOT,36.8009905044663,127.107067740803,충청남도 천안시 서북구 불당16길 34-6  ,041-523-9498  
카페피어라,NOT,36.8061309776846,126.740328573905,충청남도 당진시 합덕읍 합덕대덕로 502-24 ,041-362-9900  
먹쇠네굴집,NOT,36.4480035928756,126.524334015026,충청남도 보령시 천북면 홍보로 117 ,041-641-6200  
지산농원,NOT,36.248828,127.222945,충청남도 논산시 연산면 화악길 70 ,041-735-0707  
향수가든,NOT,36.720618,126.538241,충청남도 서산시 해미면 관터로 43 ,041-688-3757  
청양어죽,NOT,36.4778426050998,127.13936663069,충청남도 공주시 한적2길 37-20 ,041-881-6516  
충남집순대,NOT,36.762114,127.298937,충청남도 천안시 동남구 병천면 충절로 1748 ,041-564-1079  
예사랑막국수,NOT,36.270087,127.258531,충청남도 계룡시 계룡대로 263 ,042-841-7171  
김가네사골수제비,NOT,36.320403,126.518325,충청남도 보령시 석서1길 57 ,041-934-4706  
한일한정식,NOT,36.80266,127.127851,충청남도 천안시 서북구 미라1길 3 ,041-576-8887  
갈재산장,NOT,36.662401,127.020651,충청남도 천안시 동남구 광덕면 해수길 348 ,041-567-4231  
뜨끈이집,NOT,36.696205,126.66279,충청남도 예산군 덕산면 덕산온천로 331-6 ,041-338-3993  
녹원,NOT,36.80884197664358,127.17426533456585,충청남도 천안시 동남구 유량로 140 ,041-555-3531  
삼삼복집,NOT,36.603116,126.551347,충청남도 홍성군 갈산면 갈산로114번길 7-3 ,041-633-2145  
길조식당,NOT,36.76425030207408,126.88781186992625,충청남도 아산시 도고면 도고온천로 164-17 ,041-542-0370  
물새집,NOT,36.50881211675434,126.33309923826583,충청남도 태안군 안면읍 방포1길 29-1 ,041-673-4576  
산장식당,NOT,36.273622,126.910316,충청남도 부여군 부여읍 사비로 11 ,041-835-3039  
슈엔,NOT,36.829333025358,127.134084495215,충청남도 천안시 서북구 성정중1길 26-2 ,041-588-8899  
삼부자손두부집,NOT,36.360236,127.248398,충청남도 공주시 반포면 동학사1로 174 ,042-825-1533  
고향식당,NOT,36.21576004059353,127.19483193019525,충청남도 논산시 연산면 선비로 317 ,041-735-0407  
중앙산채명가,NOT,36.657659,126.620565,충청남도 예산군 덕산면 수덕사안길 42-1 ,041-337-0077  
삼천리수산횟집,NOT,36.53932,126.472704,충청남도 홍성군 서부면 남당항로 210 ,041-634-2672  
가야관,NOT,36.783723,126.447502,충청남도 서산시 명륜3길 24-35 ,041-667-6681  
신도리한우촌,NOT,36.286891,127.233316,충청남도 계룡시 엄사면 번영11길 4-57 ,042-841-7748  
향토꽃게장,NOT,36.754536,126.294154,충청남도 태안군 태안읍 능샘1길 44 ,041-674-5591  
청원꽃게장,NOT,36.778297,126.466467,충청남도 서산시 율지8로 80 한양빌딩,041-667-2012  
대안식당,NOT,36.82069469573267,127.13435512144828,충청남도 천안시 서북구 도원7길 17 ,041-575-4158  
미성한정식,NOT,36.402371,127.235157,충청남도 공주시 반포면 정광터1길 82-8 ,041-857-1123  
황해도전통손만두국,NOT,36.451265,127.134333,충청남도 공주시 우금티로 744 ,041-855-4687  
삽교신창집,NOT,36.775178,126.461951,충청남도 서산시 한마음8로 64 ,041-667-4120  
새이학가든,NOT,36.46649,127.121949,충청남도 공주시 금강공원길 15-2 ,041-855-7080  
해돋이회센타,NOT,36.1463504249067,126.504600734721,충청남도 서천군 서면 서인로 299 ,041-951-9803  
등대횟집,NOT,37.028949,126.560998,충청남도 당진시 석문면 장고항로 301 ,041-353-0261  
진국집,NOT,36.78259867717676,126.45197680995933,충청남도 서산시 관아문길 19-10 ,041-665-7091  
천리포횟집슈퍼,NOT,36.802955,126.151041,충청남도 태안군 소원면 천리포1길 277 ,041-672-9170  
대전횟집,NOT,36.438298,126.518453,충청남도 보령시 오천면 소성안길 2 ,041-932-4188  
아일랜드57,NOT,36.4901153255575,126.336651806813,충청남도 태안군 안면읍 꽃지해안로 204 아일랜드리솜,041-671-7154  
갱스커피,NOT,36.36780329131399,126.65458375697632,충청남도 보령시 청라면 청성로 143 ,041-931-9331  
시월애,NOT,36.504052,126.483116,충청남도 보령시 천북면 홍보로 1061-166 동양관광휴양지,041-641-0240  
배나무숲,NOT,36.8795789962305,127.120571006432,충청남도 천안시 서북구 직산읍 상덕로 137 ,041-415-0048  
르스튜디오블루,NOT,36.4901153255575,126.336651806813,충청남도 태안군 안면읍 꽃지해안로 204 아일랜드리솜,041-671-7120  
쁘띠빠리,NOT,36.8310439816317,127.124448354975,충청남도 천안시 서북구 한들3로 88 ,041-553-6346  
인천횟집,NOT,36.7383996375345,126.133469255024,충청남도 태안군 소원면 파도길 63-12 ,041-672-9682  
싸리골,NOT,36.401453,127.228597,충청남도 공주시 반포면 정광터1길 137 ,041-856-9300  
옛날배씨네집,NOT,36.434345,127.209657,충청남도 공주시 반포면 창벽로 718 ,041-852-7371  
큰엄니순대국&보쌈,NOT,36.761422,127.298843,충청남도 천안시 동남구 병천면 아우내순대길 41 ,041-564-1490  
박순자아우내순대,NOT,36.761736,127.299163,충청남도 천안시 동남구 병천면 아우내순대길 47 ,041-564-1242  
청화집,NOT,36.762312,127.299266,충청남도 천안시 동남구 병천면 충절로 1749 ,041-564-1558  
투가리해장국,NOT,36.79253,127.129618,충청남도 천안시 동남구 일봉로 12-12 ,041-577-1397  
서동한우,NOT,36.282979,126.915479,충청남도 부여군 부여읍 성왕로 256 ,041-835-7585  
취팔선객잔,NOT,36.832185,127.140099,충청남도 천안시 서북구 두정상가8길 20 ,041-567-2888  
낙지한마당,NOT,36.881705856571045,126.38306128424112,충청남도 서산시 지곡면 어름들2길 83 ,041-662-9063  
진주회관,NOT,36.916892,127.129625,충청남도 천안시 서북구 성환읍 성환11길 15 ,041-581-2065  
수석가든,NOT,36.779891016930726,126.49158444461149,충청남도 서산시 수석1길 173 ,041-667-3563  
삼호식당,NOT,36.3147622492051,126.69517669715037,충청남도 부여군 외산면 무량로 190 ,041-836-5038  
주희네칼국수,NOT,36.964984,126.690081,충청남도 당진시 송산면 유곡1길 21-10 ,041-354-0312  
삼대냉면,NOT,36.3882125742472,126.65670715787,충청남도 보령시 청라면 냉풍욕장길 6 ,041-932-8280  
연산시장도토리묵,NOT,36.215965,127.215974,충청남도 논산시 연산면 연산4길 10-5 ,041-735-1080  
밀터칼국수,NOT,36.771856,126.935444,충청남도 아산시 신창면 순천향로 43 ,041-532-1897  
바닷물손두부,NOT,36.434906,126.880484,충청남도 청양군 대치면 한티고개길 1 ,041-943-6617  
장원복집,NOT,36.292777,127.243588,충청남도 계룡시 엄사면 평리길 71 ,042-841-7804  
칠갑산맛집,NOT,36.410424,126.852131,충청남도 청양군 대치면 장곡길 119-39 ,041-943-5912  
신풍매운탕,NOT,36.181233,127.177841,충청남도 논산시 부적면 신풍길 84-15 ,041-732-7754  
청운식당,NOT,36.49904206520492,127.139324581817,충청남도 공주시 의당면 의당로 321-8 ,041-853-8314  
장순루,NOT,36.359231,127.142956,충청남도 공주시 계룡면 마방길 5-12 ,041-857-5010  
목화반점,NOT,36.7615439596503,127.01915143737,충청남도 아산시 온주길 28-8 ,041-545-8052  
태풍루,NOT,36.451801186024504,126.8029641881872,충청남도 청양군 청양읍 중앙로 137 ,041-943-2178  
화강반점,NOT,36.8027379237982,127.141264602377,충청남도 천안시 동남구 차돌로 99 ,041-572-9363  
황해원,NOT,36.3362504495122,126.650994109092,충청남도 보령시 성주면 심원계곡로 6 ,041-933-5051  
영순각,NOT,36.450735526322084,126.8059697397609,충청남도 청양군 청양읍 칠갑산로 265-1 ,041-943-2218  
명성각,NOT,36.1913878107844,127.473324449838,충청남도 금산군 추부면 하마전로 64 ,041-753-5549  
조개까는남자,NOT,36.305872,126.516509,충청남도 보령시 해수욕장4길 16 ,041-932-8988  
송연,NOT,36.815269,127.185557,충청남도 천안시 동남구 양지말1길 11-4 ,041-554-2330  
후연,NOT,36.877712,127.170729,충청남도 천안시 서북구 성거읍 봉주로 210 ,041-582-5100  
아산정,NOT,36.867788,126.875282,충청남도 아산시 인주면 아산만로 1608 ,041-533-9955  
인삼골식당,NOT,36.1102653847221,127.565886647017,충청남도 금산군 제원면 용화로 2 금강수석민속품전시판매장,041-752-7516  
금산관광농원,NOT,36.110054,127.565988,충청남도 금산군 제원면 금강로 286-8 ,041-754-8388  
강변가든,NOT,36.10994613978944,127.56633349202367,충청남도 금산군 제원면 용화로 10 ,041-752-7760  
저곡식당,NOT,36.11027989339403,127.56512308490575,충청남도 금산군 제원면 금강로 286 ,041-752-7350  
부자떡집,NOT,36.458518,127.123809,충청남도 공주시 용당길 11 ,041-854-5454  
승진횟집,NOT,36.505302,126.33656,충청남도 태안군 안면읍 방포항길 38 ,041-673-3378  
솔밭가든,NOT,36.522587,126.345659,충청남도 태안군 안면읍 장터로 176-5 ,041-673-2034  
두메식당,NOT,36.8231628011528,126.258093501528,충청남도 태안군 원북면 원이로 830 ,041-672-4487  
원조천안옛날호두과자,NOT,36.809090762872586,127.14756749891292,충청남도 천안시 동남구 대흥로 237-1 ,041-561-5000  
어썸845 ,NOT,36.3593850185529,127.244362455028,충청남도 공주시 반포면 동학사1로 209-8 ,042-822-5577  
산마루가든,NOT,36.639995,126.81352,충청남도 예산군 대흥면 예당긍모로 406 ,041-334-9235  
동가룰가든,NOT,36.635964,126.81574,충청남도 예산군 대흥면 예당긍모로 358-27 ,041-334-9988  
입질네어죽,NOT,36.672271,126.643713,충청남도 예산군 덕산면 가루실길 30 ,041-337-5989  
원골식당,NOT,36.115123,127.591157,충청남도 금산군 제원면 금강로 588 ,041-752-2638  
호반식당,NOT,36.605026,126.793432,충청남도 예산군 대흥면 예당로 848 ,041-332-0121  
용현집,NOT,36.773855,126.604112,충청남도 서산시 운산면 마애삼존불길 66 ,041-663-4090  
용왕횟집,NOT,37.0294012764615,126.561043934877,충청남도 당진시 석문면 장고항로 308 ,041-352-4649  
우리횟집,NOT,36.439022,126.521236,충청남도 보령시 오천면 오천해안로 782-12 ,041-932-4055  
한울타리,NOT,36.348634,126.593944,충청남도 보령시 남대천로 51 ,041-936-0996  
대둔산양촌한우타운,NOT,36.139789,127.235452,충청남도 논산시 양촌면 황산벌로 478 ,041-741-0838  
평양냉면,NOT,36.801966,127.149689,충청남도 천안시 동남구 큰시장길 27 ,041-551-4851  
매향막국수,NOT,36.465561,127.121645,충청남도 공주시 백미고을길 18 ,041-881-3161  
라파쏘나,NEW,36.658495214756,126.686243095065,충청남도 홍성군 홍북읍 애향4길 35 101호,041-633-0070
미당면옥,NEW,36.8061559177559,126.739989170003,충청남도 당진시 합덕읍 합덕대덕로 502-22 ,041-362-1500  
진미각,NEW,36.785800960683,126.273876849587,충청남도 태안군 태안읍 원이로 352 ,010-9582-8988  
붴,NEW,36.3371359040261,126.609115409412,충청남도 보령시 명천로2길 15 1층,041-935-3219
보령우가,NOT_RECORD,36.3497703680316,126.604808045033,충청남도 보령시 신설1길 25 ,010-8295-9279
미객반점,NOT_RECORD,36.8005893534834,127.159881249558,충청남도 천안시 동남구 고재11길 1 1층,010-7565-2140
까우,NOT_RECORD,36.4717237578997,127.136290416523,충청남도 공주시 번영3로 58 ,010-9399-9358
브레드보드,NOT_RECORD,36.7573144193841,127.225091034806,충청남도 천안시 동남구 성남면 종합휴양지로 183 ,041-900-7755
오늘도기념일,NOT_RECORD,36.7999364583201,127.122139938833,충청남도 천안시 서북구 쌍용17길 8 쌍용모란아파트 상가 108호 ,010-3521-4596
웬유바이트,NOT_RECORD,36.7828513793924,127.081847740475,충청남도 아산시 탕정면 매곡한들8길 72 ,010-7607-7046
갯마을,NOT_RECORD,36.5080282989335,126.487105160011,충청남도 보령시 천북면 홍보로 1061 7동 5호,0507-1337-4341
베이커리브레도 ,NOT_RECORD,36.8412308724546,127.129538378728,충청남도 천안시 서북구 성성8로 14-50 1층,041-415-0060
팔천구백냥,NOT_RECORD,36.6768167526523,126.673327301841,충청남도 예산군 삽교읍 신촌길 11 ,041-338-8253
두향 본점,NOT_RECORD,36.7750130996317,126.996393096211,충청남도 아산시 시민로280번길 9-7 ,041-544-3022
명량노을지는갯마을편,NOT_RECORD,36.7173117812208,126.334014951392,충청남도 태안군 태안읍 기업도시7길 36 ,041-672-3600
민들레밥상,NOT_RECORD,36.792203122362,126.993872944104,충청남도 아산시 아산로117번길 6 ,041-534-1125
석문명가,NOT_RECORD,36.9868955986838,126.59074341263,충청남도 당진시 석문면 다리들길 19 ,0507-1319-6768
시골풍경,NOT_RECORD,36.6853283066378,126.387350206196,충청남도 서산시 부석면 무학로 745 ,041-662-8699
황금버섯,NOT_RECORD,36.761552479847,126.883258233954,충청남도 아산시 도고면 도고면로 163 ,041-532-3998
명가곤드레추어탕,NOT_RECORD,36.8166515623029,127.15873448763,충청남도 천안시 동남구 신부2길 5 ,041-569-1190
춘천오리닭갈비,NOT_RECORD,36.8041060106096,127.108359399604,충청남도 천안시 서북구 불당1길 51 ,041-567-7756
하누래,NOT_RECORD,36.8294402582778,127.133442715114,충청남도 천안시 서북구 서부대로 700 5층 ,041-566-3330
육화미(본점),NOT_RECORD,36.8168930735222,127.107031605939,충청남도 천안시 서북구 불당26로 100-10 ,041-554-8053
수림가든,NOT_RECORD,36.7734780244318,126.602622241701,충청남도 서산시 운산면 마애삼존불길 76-1 ,041-663-3557
엄청난해장국,NOT_RECORD,36.6424666168557,126.660859793016,충청남도 홍성군 홍북읍 용봉산2길 25 ,041-643-4764
소문,NOT_RECORD,36.8083621166789,127.105071383198,충청남도 천안시 서북구 불당32길 15 101호,010-9790-5436
백가네진코다리 ,NOT_RECORD,36.9240354431773,127.038646401843,충청남도 아산시 둔포면 둔포중앙로 188 백가네진코다리 ,041-533-6010
인정집,NOT_RECORD,36.811150264788,127.106667458406,충청남도 천안시 서북구 불당33길 46 106호,041-556-2444
아이스쿱,NOT_RECORD,36.7865245841848,126.453833662154,충청남도 서산시 탑동2로 11 1층,010-9227-8123
밸런스커피로스터,NOT_RECORD,36.8173065194698,127.108701907543,충청남도 천안시 서북구 불당25로 182 에이블타워2 1층 108호,010-4466-5774
도프,NOT_RECORD,36.8090849956031,127.105571509388,충청남도 천안시 서북구 불당32길 28 1층 102호,041-568-1692
나무그늘통삼국,NOT_RECORD,36.8401983830377,127.129043238799,충청남도 천안시 서북구 성성8로 2-40 ,041-561-0392
신사우물갈비(배방직영점),NOT_RECORD,36.7768476780782,127.056455883909,충청남도 아산시 배방읍 배방로13번길 19-8 ,041-549-5957
신사우물갈비,NOT_RECORD,36.8173065194698,127.108701907543,충청남도 천안시 서북구 불당25로 182 에이블타워2 1층,041-567-5958
어랑 추어탕전문점,NOT_RECORD,36.8531016604845,126.997237129625,충청남도 아산시 음봉면 아산온천로 372 ,041-543-2378
룸816,NOT_RECORD,36.8196329132767,127.158440492646,충청남도 천안시 동남구 터미널2로 8 대흥빌딩 1층 룸816,070-8887-8995
단아한과자점,NOT_RECORD,36.8337520617939,127.127778110283,충청남도 천안시 서북구 두정로 98 재호빌딩 106호 단아한과자점,010-2913-2810
육화미(두정점),NOT_RECORD,36.8339525630715,127.136999347638,충청남도 천안시 서북구 두정로 179 1층,041-903-8053
채육시간쭈꾸미,NOT_RECORD,36.7579279584336,127.12816660663,충청남도 천안시 동남구 풍세면 풍세로 502 ,041-576-8588
산도155,NOT_RECORD,36.3550643001118,126.589356109362,충청남도 보령시 보령북로 155 ,010-3457-4857
조인트피자,NOT_RECORD,36.8094797554539,127.104979783722,충청남도 천안시 서북구 불당31길 16 레인보우캐슬 101호,070-8776-1678
한결가치칼국수,NOT_RECORD,36.8106181388812,127.108680123789,"충청남도 천안시 서북구 검은들3길 46 미래시티빌딩 105, 106, 107호",041-418-3388
특별한식탁,NOT_RECORD,36.9192584622619,127.05776745698,충청남도 아산시 둔포면 중앙공원로 48 파크에비뉴 106호 ,070-8802-5252
커피토트로스터즈,NOT_RECORD,36.289212547739,127.241707410904,충청남도 계룡시 엄사면 엄사중앙로 95 일송,042-824-8708
아부지돈굴러가유,NOT_RECORD,36.5178854976616,126.34603813865,충청남도 태안군 안면읍 장터로 126-6 아부지돈굴러가유,010-8536-8148
국가대표해물칼국수,NOT_RECORD,36.0823245644287,126.709356622869,충청남도 서천군 서천읍 서천역길 82 ,041-951-3778
청양우거디,NOT_RECORD,36.4503698674608,126.800361068951,충청남도 청양군 청양읍 칠갑산로2길 9 ,010-9431-8479 
갤러리휴,NOT_RECORD,36.9757684908071,126.386475809274,충청남도 서산시 대산읍 명지1로 259-14 상가동 1층,010-4309-2125
현대옥(불당동카페거리점),NOT_RECORD,36.7998232068315,127.107563513517,충청남도 천안시 서북구 불당15길 20 ,041-523-7373
장벌집,NOT_RECORD,36.3492100132403,126.557474839946,충청남도 보령시 해안로 321 1층  ,041-932-6232
대들보,NOT_RECORD,36.8060618183517,126.768080829294,충청남도 당진시 합덕읍 미락2안길 25  ,041-363-2260
향수,NOT_RECORD,36.6273891070819,127.121577777532,충청남도 공주시 정안면 차령고개로 17-99 쎈텍향료,041-854-6448
더뿌리,NOT_RECORD,36.9001241093768,126.631047131011,충청남도 당진시 북문로1길 32-5 ,041-430-8433
공주쌍신집칼국수,NOT_RECORD,36.4814871764797,127.119952204133,충청남도 공주시 쌍신길 109-2 ,041-854-5459
내포해물촌,NOT_RECORD,36.5928967467303,126.678346432173,충청남도 홍성군 홍성읍 조양로246번길 80 ,041-634-2319
키보스테이블,NOT_RECORD,36.7741835733878,126.981395409946,충청남도 아산시 신정호길 33-42 2층  ,041-545-0106
능수정(신세계백화점천안아산점),NOT_RECORD,36.8193302097389,127.15784651678,충청남도 천안시 동남구 만남로 43 ,041-640-5612
미세스피베리,NOT_RECORD,36.4736395773064,127.13712102727,충청남도 공주시 번영1로 84-5 이우치건물,041-858-7777
버거네버거,NOT_RECORD,36.3153810907905,126.510620444925,충청남도 보령시 해수욕장10길 6 가동201호,010-4885-5906
커피브리즈,NOT_RECORD,36.6732857071493,126.858814557469,충청남도 예산군 예산읍 대학로54번길 19 ,070-7325-7733
고래다방,NOT_RECORD,36.7748285469813,126.447865207857,충청남도 서산시 호수공원3로 23 프라임빌 1층, 041-666-1984
소나무한정식,NOT_RECORD,36.194815284934,127.099267611882,충청남도 논산시 논산대로 357 소나무 한정식,041-735-7191
비스트로오마주,NOT_RECORD,36.8319280521553,127.188250843931,"충청남도 천안시 동남구 각원사길 166 2,3층 ",041-417-0166
본가신토장수오리,NOT_RECORD,36.810506,127.177131,충청남도 천안시 동남구 유량로 164 ,041-566-5292
나그네가든,NOT_RECORD,36.669884,127.028055,충청남도 천안시 동남구 광덕면 해수길 231 ,041-556-5289
농원깊은골,NOT_RECORD,36.743774,126.583891,충청남도 서산시 운산면 개심사로 312-37 ,041-688-0001
청솔가든,NOT_RECORD,36.757906,126.604776,충청남도 서산시 운산면 마애삼존불길 259 ,041-669-6717
팔봉산가든,NOT_RECORD,36.817606,126.364833,충청남도 서산시 팔봉면 팔봉산로 87 ,041-662-1718
일미옥불고기,NOT_RECORD,36.6099124673614,126.656663138095,충청남도 홍성군 홍성읍 소향길 66 ,041-632-3319
왕산낙지마을,NOT_RECORD,36.770216,126.453722,충청남도 서산시 석남1로 4 ,041-667-8031
카페루이루카,NOT_RECORD,36.96602333966586,126.6873400683378,충청남도 당진시 송산면 유곡1길 53-4 ,041-356-9297
스톤밀,NOT_RECORD,36.3505290438877,126.614987178586,충청남도 보령시 한내로터리길 130 동대한성필하우스,041-931-0446
전망좋은횟집,NOT_RECORD,36.606427,126.411824,충청남도 서산시 부석면 간월도1길 134 ,041-662-4464
삼정곱창,NOT_RECORD,36.785693,126.447371,충청남도 서산시 부춘2로 6 ,041-668-2303
어다랑,NOT_RECORD,36.3082410215043,126.517772430203,충청남도 보령시 새마을1길 60-20 ,010-4336-6305
카페모월,NOT_RECORD,36.7248053123507,126.422625042874,충청남도 서산시 인지면 관청터길 7-1 ,041-663-8905
대복갈비,NOT_RECORD,36.696081042253,126.662798114549,충청남도 예산군 덕산면 덕산온천로 325 ,041-337-6300
주봉마을우렁촌,NOT_RECORD,36.3999970930142,127.087118746685,충청남도 공주시 이인면 검바위로 712 ,041-857-0949
삽다리곱창,NOT_RECORD,36.6052890742253,126.662620249308,충청남도 홍성군 홍성읍 도청대로 6-1 ,041-634-0362
소나무집,NOT_RECORD,36.790202,127.005664,충청남도 아산시 충무로97번길 16 ,041-547-9598
송가네한우탕,NOT_RECORD,36.770455,126.43596,충청남도 서산시 무학로 1897 ,041-665-0028
강릉집,NOT_RECORD,36.818007,127.133714,충청남도 천안시 서북구 개목10길 18 ,041-572-1004
태극당,NOT_RECORD,36.808146,127.147482,충청남도 천안시 동남구 대흥로 225 ,041-551-7330
소복갈비(홍성점),NOT_RECORD,36.600777,126.652276,충청남도 홍성군 홍성읍 월계2길 5-6 ,041-631-2343
밀터(방축점),NOT_RECORD,36.783258,126.988994,충청남도 아산시 신정로 748 ,041-532-2008
등촌샤브칼국수,NOT_RECORD,36.778976,126.46121,충청남도 서산시 율지3로 11 ,041-665-8898
만리장성,NOT_RECORD,36.78698,126.447239,충청남도 서산시 문화로 67 ,041-667-4321
고향가든,NOT_RECORD,36.765052,126.60211,충청남도 서산시 운산면 마애삼존불길 173 ,041-664-3529
서령산아구,NOT_RECORD,36.778821,126.464619,충청남도 서산시 율지7로 8 ,041-669-1508
아담농원가든,NOT_RECORD,36.755993,126.477723,충청남도 서산시 오남농장2길 46-5 ,041-665-4050
대봉한정식,NOT_RECORD,36.597947,126.661212,충청남도 홍성군 홍성읍 내포로 66 로얄장지하,041-632-5868
예원가든,NOT_RECORD,36.769872,126.60212,충청남도 서산시 운산면 마애삼존불길 115-4 ,041-669-2496
늘푸른쌈밥,NOT_RECORD,36.78655,126.447365,충청남도 서산시 문화로 61 ,041-667-9289
서산횟집,NOT_RECORD,36.606173,126.414801,충청남도 서산시 부석면 간월도1길 105 ,041-669-4111
황해횟집,NOT_RECORD,36.827481,126.327349,충청남도 서산시 팔봉면 팔봉1로 752-2 ,041-662-6069
구도횟집,NOT_RECORD,36.827754,126.327777,충청남도 서산시 팔봉면 팔봉1로 748 ,041-662-6117
대도관,NOT_RECORD,36.784904,126.446058,충청남도 서산시 부춘3로 19 ,041-666-0333
푸른산장가든,NOT_RECORD,36.757282,126.604463,충청남도 서산시 운산면 마애삼존불길 262 ,041-664-1715
고목나무가든,NOT_RECORD,36.746285,126.585141,충청남도 서산시 운산면 개심사로 327 ,041-688-7787
용인토종순대국,NOT_RECORD,36.286952,127.236732,충청남도 계룡시 엄사면 번영7길 8 ,042-841-1668
예당숯불갈비,NOT_RECORD,36.778785,126.465234,충청남도 서산시 율지18로 37 한성빌딩,041-665-3392
신토불이묵집,NOT_RECORD,36.674395,126.642697,충청남도 예산군 덕산면 수덕사로 1166 ,041-337-5576
온양청국장집,NOT_RECORD,36.782258,126.999011,충청남도 아산시 온천대로 1452 ,041-533-9942
어부횟집,NOT_RECORD,36.539351,126.472846,충청남도 홍성군 서부면 남당항로 208 ,041-634-5660
천진,NOT_RECORD,36.816574,127.156852,충청남도 천안시 동남구 공고담길 43-5 ,041-556-3179
바다식당,NOT_RECORD,37.002735,126.452161,충청남도 서산시 대산읍 삼길포1로 55 ,041-664-7003
머들령,NOT_RECORD,36.222732,127.48258,충청남도 금산군 추부면 검한1길 156 ,041-751-7712
개성옹고집족발,NOT_RECORD,36.83417,127.129963,충청남도 천안시 서북구 두정로 117 ,041-556-0068
유명통닭,NOT_RECORD,36.791162,127.149438,충청남도 천안시 동남구 풍세로 934-1 ,041-563-3655
쭈꾸미네,NOT_RECORD,36.800989,127.137903,충청남도 천안시 동남구 신용로 12 ,041-571-3654
바람처럼구름처럼,NOT_RECORD,36.556939,127.01918,충청남도 공주시 사곡면 마곡상가길 24 ,041-841-9959
와촌국수,NOT_RECORD,36.795011,127.130862,충청남도 천안시 동남구 새말2길 26 안창빌딩,041-575-4390
유정콩나물국밥,NOT_RECORD,36.186721,127.102679,충청남도 논산시 중앙로210번길 2 ,041-732-0080
거재손두부,NOT_RECORD,36.774112,127.128911,충청남도 천안시 동남구 통정3로 29 ,041-572-9565
한천밤수타마을,NOT_RECORD,36.527071,127.081905,충청남도 공주시 우성면 무성산로 609 ,041-856-8481
웰빙마떡,NOT_RECORD,36.817419,127.156744,충청남도 천안시 동남구 먹거리9길 26 ,041-552-5432
옛날양푼국수,NOT_RECORD,36.832889,127.127698,충청남도 천안시 서북구 노태산로 92 ,041-523-0775
만나식당,NOT_RECORD,36.784568,127.235927,충청남도 천안시 동남구 목천읍 동평3길 194 ,041-557-2090
한일칼국수,NOT_RECORD,36.9143,127.128433,충청남도 천안시 서북구 성환읍 성환1로 222 ,041-581-7352
본가서산순대,NOT_RECORD,36.801868,127.148541,충청남도 천안시 동남구 큰시장길 17 ,041-555-3723
진원반점,NOT_RECORD,36.28357,126.926214,충청남도 부여군 부여읍 성왕로352번길 4 ,041-832-8994
강당골 토담,NOT_RECORD,36.707173,127.019823,충청남도 아산시 송악면 강당로 322 ,041-544-3450
자연정,NOT_RECORD,36.837525,127.145397,충청남도 천안시 서북구 봉정로 397 대산빌딩,041-571-4347
연꽃이야기,NOT_RECORD,36.26859,126.906493,충청남도 부여군 부여읍 성왕로 22 ,041-833-3336
유량골손두부,NOT_RECORD,36.812565,127.175854,충청남도 천안시 동남구 벌말2로 12 ,041-558-9595
토성,NOT_RECORD,36.791156,127.14893,충청남도 천안시 동남구 풍세로 929 ,041-561-1039
일월굴칼국수,NOT_RECORD,36.367129,126.624926,충청남도 보령시 대청로 340 ,041-934-7748
서울추어탕,NOT_RECORD,36.856531,127.137408,충청남도 천안시 서북구 번영로 704 ,041-556-7755
향토,NOT_RECORD,36.777388,126.464157,충청남도 서산시 율지18로 18 ,041-668-0040
김가네볼태기,NOT_RECORD,36.600842937005,126.554683680898,충청남도 홍성군 갈산면 갈산로150번길 10 ,041-631-7117
마달피가든,NOT_RECORD,36.09854,127.590399,충청남도 금산군 제원면 용화로 272 ,041-754-7123
까치내흥부가든,NOT_RECORD,36.39361,126.858789,충청남도 청양군 대치면 사수터길 115-8 ,041-943-1640
산수가든,NOT_RECORD,36.77651015108241,126.60342644389385,충청남도 서산시 운산면 마애삼존불길 29 ,041-663-4567
디저트카페아마이,NOT_RECORD,36.789176120916,127.125141784232,충청남도 천안시 동남구 신촌4로 34 금강빌딩 1층,010-2704-8466
천안당,NOT_RECORD,36.808606,127.147644,충청남도 천안시 동남구 대흥로 229 ,041-555-5111
뚜쥬루과자점(거북이점),NOT_RECORD,36.807168,127.114159,충청남도 천안시 서북구 봉서산로 69-22 천안T빌딩,041-563-0086
백제의집,NOT_RECORD,36.282862,126.914759,충청남도 부여군 부여읍 성왕로 248 ,041-834-1212
멘야마쯔리,NOT_RECORD,36.798633,127.120338,충청남도 천안시 서북구 쌍용14길 25 1층,041-577-6907
화이트뮤즈,NOT_RECORD,36.004754,126.731303,충청남도 서천군 마서면 장산로 684 ,041-956-8259
두발카페&욕장과자점,NOT_RECORD,36.3109041782029,126.51381134422,충청남도 보령시 해수욕장4길 138 ,010-6296-3437
원조할머니학화호두과자(천안터미널),NOT_RECORD,36.8190197234717,127.159104309164,충청남도 천안시 동남구 만남로 62 ,041-551-8596
팔복도가니탕(천안점),NOT_RECORD,36.824046,127.16466,충청남도 천안시 동남구 만남의길 9 ,041-556-0100
동명반점,NOT_RECORD,36.7826653754228,126.451120461643,충청남도 서산시 고운로 137 ,041-666-1515
돌산가든,NOT_RECORD,36.642629573985,126.659323635743,충청남도 홍성군 홍북읍 용봉산2길 37 ,041-634-8500
간월도바다횟집,NOT_RECORD,36.6058199428081,126.41450780777,충청남도 서산시 부석면 간월도2길 90 ,041-664-7822
읍성뚝배기,NOT_RECORD,36.7114398329022,126.546730145343,충청남도 서산시 해미면 읍성마을1길 7-7 ,041-688-2101
부영아구,NOT_RECORD,36.7830103534587,126.445107145167,충청남도 서산시 성암2로 29 상연빌딩,041-669-6333
삼길포막횟집,NOT_RECORD,37.0069390632113,126.442239620271,충청남도 서산시 대산읍 삼길포1로 171 ,041-668-7972
 바다나라회센타,NOT_RECORD,37.006577,126.442714,충청남도 서산시 대산읍 삼길포1로 161-7 ,041-669-4835
홍일수산,NOT_RECORD,37.006888,126.442573,충청남도 서산시 대산읍 삼길포1로 167 ,041-663-1277
명성회센터,NOT_RECORD,36.960082,126.336329,충청남도 서산시 대산읍 가로림로 947 ,041-663-7182
참이맛감자탕,NOT_RECORD,36.7821679988358,126.46100054678,충청남도 서산시 율지8로 13 ,041-664-3252
콩밭가인,NOT_RECORD,36.276327,127.251483,충청남도 계룡시 새터산길 12 ,042-841-6776
설악칡냉면,NOT_RECORD,36.77982,126.461698,충청남도 서산시 율지14로 8 ,041-681-9745
진미식당,NOT_RECORD,36.1542808560581,126.688937434177,충청남도 서천군 판교면 종판로 885 ,041-951-5621
숲속가든,NOT_RECORD,36.504761,126.350904,충청남도 태안군 안면읍 안면대로 3061 ,041-673-4465
청해,NOT_RECORD,36.83697,127.130983,충청남도 천안시 서북구 두정고7길 15 ,041-558-8878
들꽃향기,NOT_RECORD,36.160078,127.338009,충청남도 금산군 진산면 태고사로 446 ,041-753-7336
초가집,NOT_RECORD,36.4562465522046,127.123192605945,충청남도 공주시 먹자1길 19-1 ,041-856-7997
안면도안흥꽃게장,NOT_RECORD,36.509511,126.335835,충청남도 태안군 안면읍 방포1길 6 ,041-673-0513
남당리수산,NOT_RECORD,36.5397335691739,126.470599022758,충청남도 홍성군 서부면 남당항로213번길 16 ,041-634-8205
아우내 엄나무순대,NOT_RECORD,36.7585762946424,127.296415217146,충청남도 천안시 동남구 병천면 아우내순대길 1 ,041-568-5561
채담,NOT_RECORD,36.223105,127.483138,충청남도 금산군 추부면 검한1길 156 ,041-751-7711
수산물센터8호점,NOT_RECORD,36.4393095170527,126.520510071383,충청남도 보령시 오천면 오천해안로 782-5 ,041-932-8083
방포수산,NOT_RECORD,36.504275,126.336058,충청남도 태안군 안면읍 방포항길 64 , 041-673-4575
노을횟집,NOT_RECORD,36.524134,126.330966,충청남도 태안군 안면읍 해안관광로 247-3 ,041-673-1550
구구초밥&배방참치,NOT_RECORD,36.7745332240694,127.057078445944,충청남도 아산시 배방읍 모산로 130 ,041-548-1834
오복꽃게집,NOT_RECORD,36.532663,126.350493,충청남도 태안군 안면읍 안면대로 2669 ,041-674-7754
중앙손칼국수,NOT_RECORD,36.2079122120462,127.087219513222,충청남도 논산시 중앙로500번길 42-1 ,041-735-5406
사비아구,NOT_RECORD,36.2778484984828,126.907253117018,충청남도 부여군 부여읍 부장대로 28 ,041-835-0025
유량진소머리국밥,NOT_RECORD,36.814637,127.17229,충청남도 천안시 동남구 향교1길 115 ,041-551-1880
성거산시골막국수,NOT_RECORD,36.8844998264958,127.203709012775,충청남도 천안시 서북구 성거읍 망향로 761-3 ,041-556-9256
방아다리,NOT_RECORD,36.7951343710711,127.123244695966,충청남도 천안시 서북구 쌍용19로 38-5 ,041-579-9222
미라분식,NOT_RECORD,36.8014416414255,127.128834420719,충청남도 천안시 서북구 미라2길 19 ,041-578-8083
홍북식당,NOT_RECORD,36.6956244649679,126.666003016857,충청남도 예산군 덕산면 신평2길 26 ,041-632-9100
고래면옥,NOT_RECORD,36.894921,126.628853,충청남도 당진시 북문길 1-18 ,041-357-6082
문차이나,NOT_RECORD,36.8325635932608,127.145718428358,충청남도 천안시 서북구 봉정로 344 ,041-555-5225
덕향,NOT_RECORD,36.863283,127.14923,충청남도 천안시 서북구 업성3길 188 ,041-583-5047
장칼국수,NOT_RECORD,36.8216822276254,127.156320062191,충청남도 천안시 동남구 천안천8길 49 ,041-555-3567
광명만두,NOT_RECORD,36.834072,127.1423,충청남도 천안시 서북구 두정중4길 1 ,041-552-2289
들마루,NOT_RECORD,36.772117,127.130274,충청남도 천안시 동남구 통정9로 46 ,041-574-0260
신화수산활어회센타,NOT_RECORD,36.831304,127.127745,충청남도 천안시 서북구 노태산로 72 ,041-569-8383
카페바다,NOT_RECORD,36.526507,126.334263,충청남도 태안군 안면읍 해안관광로 276-19 , 010-3713-3256
복생원,NOT_RECORD,36.745829006716,126.7036923778233,충청남도 예산군 고덕면 고덕중앙로 71 ,041-337-8011
나문재카페,NOT_RECORD,36.5865971908392,126.374311635117,충청남도 태안군 안면읍 통샘길 87-340 ,041-672-7635
유가네칼국수,NOT_RECORD,36.4416348622627,127.128254474295,충청남도 공주시 원댕이길 8 ,041-856-1053
삼오식당,NOT_RECORD,36.2242112560808,126.990095739853,충청남도 부여군 석성면 석성북로 3 ,041-836-5712
위커피,NOT_RECORD,36.8450260077018,127.135801727227,충청남도 천안시 서북구 성성4길 61 ,041-622-7979
